{"type":"Topology","objects":{"CampFacilities_2017_02":{"type":"GeometryCollection","geometries":[{"type":"MultiPolygon","arcs":[[[0,1]]],"properties":{"OBJECTID_1":1,"TYPE":"Warehouse","HEALTH_TYP":"Camp Facility","OPERATOR":"UNICEF/Mercy Corps","IS_CONSTRU":null,"DISTRICT":1,"NAME_EN":"UNICEF/Mercy Corps Offices and Stores","NAME_AR":"مستودع ميرسي كور","HOURS_EN":null,"HOURS_AR":null,"HEALTH_EN":null,"HEALTH_AR":null,"EMERGENCY":null,"REPRODUCTI":null,"MALNUTRITI":null,"VACCINATIO":null,"ACUTE_COND":null,"ORT":null,"GBV":null,"DENTIST":null,"PSYCHOTHER":null,"SECONDARY":null,"PHYSIOTHER":null}},{"type":"MultiPolygon","arcs":[[[2]]],"properties":{"OBJECTID_1":2,"TYPE":"Office","HEALTH_TYP":"Camp Facility","OPERATOR":"Imdad","IS_CONSTRU":null,"DISTRICT":1,"NAME_EN":"Imdad Construction Company","NAME_AR":"شركة مقاولات امداد","HOURS_EN":null,"HOURS_AR":null,"HEALTH_EN":null,"HEALTH_AR":null,"EMERGENCY":null,"REPRODUCTI":null,"MALNUTRITI":null,"VACCINATIO":null,"ACUTE_COND":null,"ORT":null,"GBV":null,"DENTIST":null,"PSYCHOTHER":null,"SECONDARY":null,"PHYSIOTHER":null}},{"type":"MultiPolygon","arcs":[[[3,4,5,6,7]]],"properties":{"OBJECTID_1":3,"TYPE":"Health","HEALTH_TYP":"Healthcare Facility","OPERATOR":"military","IS_CONSTRU":null,"DISTRICT":3,"NAME_EN":"Moroccan Field Hospital","NAME_AR":"المستشفى المغربي","HOURS_EN":"9:00am-12:30pm (Sat-Thu), ER: 24/7","HOURS_AR":"9:00am-12:30pm (Sat-Thu), ER: 24/7","HEALTH_EN":"acute and chronic condition management, anaesthesiologist, cardiologist, dentist, dermatologist, emergency, ENT, gynaecologist, laboratory, ophthalmologist, ORT, paediatrics, pharmacist, pneumatologist, psychiatric, radiography, surgery, urologist","HEALTH_AR":"acute and chronic condition management, anaesthesiologist, cardiologist, dentist, dermatologist, emergency, ENT, gynaecologist, laboratory, ophthalmologist, ORT, paediatrics, pharmacist, pneumatologist, psychiatric, radiography, surgery, urologist","EMERGENCY":"Y","REPRODUCTI":"N","MALNUTRITI":"N","VACCINATIO":"N","ACUTE_COND":"Y","ORT":"Y","GBV":"N","DENTIST":"Y","PSYCHOTHER":"N","SECONDARY":"Y","PHYSIOTHER":"N"}},{"type":"MultiPolygon","arcs":[[[-7,8]]],"properties":{"OBJECTID_1":4,"TYPE":"Health","HEALTH_TYP":"Healthcare Facility","OPERATOR":"military","IS_CONSTRU":null,"DISTRICT":3,"NAME_EN":"Jordanian - Italian Hospital RMS","NAME_AR":"المستشفى الاردني - الايطالي","HOURS_EN":"8:30am-3:00pm (Sun-Thu)","HOURS_AR":"8:30am-3:00pm (Sun-Thu)","HEALTH_EN":"echo, gynaecologist, internal medicine, paediatrics, radiologist, surgeon","HEALTH_AR":"echo, gynaecologist, internal medicine, paediatrics, radiologist, surgeon","EMERGENCY":"N","REPRODUCTI":"N","MALNUTRITI":"N","VACCINATIO":"N","ACUTE_COND":"N","ORT":"N","GBV":"N","DENTIST":"N","PSYCHOTHER":"N","SECONDARY":"Y","PHYSIOTHER":"N"}},{"type":"MultiPolygon","arcs":[[[9]]],"properties":{"OBJECTID_1":5,"TYPE":"Community Center","HEALTH_TYP":"Camp Facility with Health Services","OPERATOR":"UNFPA/Noor Hussein Foundation","IS_CONSTRU":null,"DISTRICT":2,"NAME_EN":"JHAS RH & Noor Hussein","NAME_AR":"مركز المراه نور الحسين","HOURS_EN":"9:00am-4:00pm (Sun-Thu)","HOURS_AR":"9:00am-4:00pm (Sun-Thu)","HEALTH_EN":"JHAS RH: ante and post-natal care. IFH/NHF: family planning, gender-based violence support, reproductive care.","HEALTH_AR":"JHAS RH: ante and post-natal care. IFH/NHF: family planning, gender-based violence support, reproductive care.","EMERGENCY":"N","REPRODUCTI":"Y","MALNUTRITI":"N","VACCINATIO":"N","ACUTE_COND":"N","ORT":"N","GBV":"Y","DENTIST":"N","PSYCHOTHER":"N","SECONDARY":"N","PHYSIOTHER":"N"}},{"type":"MultiPolygon","arcs":[[[10,11]]],"properties":{"OBJECTID_1":6,"TYPE":"Community Center","HEALTH_TYP":"Camp Facility","OPERATOR":null,"IS_CONSTRU":null,"DISTRICT":2,"NAME_EN":"IRD Community Center","NAME_AR":"IRD مركز اجتماعي","HOURS_EN":null,"HOURS_AR":null,"HEALTH_EN":null,"HEALTH_AR":null,"EMERGENCY":null,"REPRODUCTI":null,"MALNUTRITI":null,"VACCINATIO":null,"ACUTE_COND":null,"ORT":null,"GBV":null,"DENTIST":null,"PSYCHOTHER":null,"SECONDARY":null,"PHYSIOTHER":null}},{"type":"MultiPolygon","arcs":[[[12]]],"properties":{"OBJECTID_1":7,"TYPE":"Distribution Point","HEALTH_TYP":"Camp Facility","OPERATOR":"SCI","IS_CONSTRU":null,"DISTRICT":4,"NAME_EN":"WFP Distribution Centre","NAME_AR":"مركز توزيع WFP","HOURS_EN":null,"HOURS_AR":null,"HEALTH_EN":null,"HEALTH_AR":null,"EMERGENCY":null,"REPRODUCTI":null,"MALNUTRITI":null,"VACCINATIO":null,"ACUTE_COND":null,"ORT":null,"GBV":null,"DENTIST":null,"PSYCHOTHER":null,"SECONDARY":null,"PHYSIOTHER":null}},{"type":"MultiPolygon","arcs":[[[13]]],"properties":{"OBJECTID_1":8,"TYPE":"Child Friendly Space","HEALTH_TYP":"Camp Facility","OPERATOR":"SCI","IS_CONSTRU":null,"DISTRICT":2,"NAME_EN":"CFS Apple","NAME_AR":"مساحة صديقة للطفل","HOURS_EN":null,"HOURS_AR":null,"HEALTH_EN":null,"HEALTH_AR":null,"EMERGENCY":null,"REPRODUCTI":null,"MALNUTRITI":null,"VACCINATIO":null,"ACUTE_COND":null,"ORT":null,"GBV":null,"DENTIST":null,"PSYCHOTHER":null,"SECONDARY":null,"PHYSIOTHER":null}},{"type":"MultiPolygon","arcs":[[[14]]],"properties":{"OBJECTID_1":9,"TYPE":"Vacant","HEALTH_TYP":"Camp Facility","OPERATOR":"MDM","IS_CONSTRU":null,"DISTRICT":4,"NAME_EN":"Vacant","NAME_AR":"مساحة شاغرة","HOURS_EN":null,"HOURS_AR":null,"HEALTH_EN":null,"HEALTH_AR":null,"EMERGENCY":null,"REPRODUCTI":null,"MALNUTRITI":null,"VACCINATIO":null,"ACUTE_COND":null,"ORT":null,"GBV":null,"DENTIST":null,"PSYCHOTHER":null,"SECONDARY":null,"PHYSIOTHER":null}},{"type":"MultiPolygon","arcs":[[[15]]],"properties":{"OBJECTID_1":10,"TYPE":"Vacant","HEALTH_TYP":"Camp Facility","OPERATOR":"KSA","IS_CONSTRU":null,"DISTRICT":4,"NAME_EN":"Vacant","NAME_AR":"مساحة شاغرة","HOURS_EN":null,"HOURS_AR":null,"HEALTH_EN":null,"HEALTH_AR":null,"EMERGENCY":null,"REPRODUCTI":null,"MALNUTRITI":null,"VACCINATIO":null,"ACUTE_COND":null,"ORT":null,"GBV":null,"DENTIST":null,"PSYCHOTHER":null,"SECONDARY":null,"PHYSIOTHER":null}},{"type":"MultiPolygon","arcs":[[[16,17,18,19]]],"properties":{"OBJECTID_1":11,"TYPE":"Registration","HEALTH_TYP":"Camp Facility","OPERATOR":"UNHCR","IS_CONSTRU":null,"DISTRICT":3,"NAME_EN":"UNHCR Registration","NAME_AR":"مكاتب الاستقبال المفوضية","HOURS_EN":null,"HOURS_AR":null,"HEALTH_EN":null,"HEALTH_AR":null,"EMERGENCY":null,"REPRODUCTI":null,"MALNUTRITI":null,"VACCINATIO":null,"ACUTE_COND":null,"ORT":null,"GBV":null,"DENTIST":null,"PSYCHOTHER":null,"SECONDARY":null,"PHYSIOTHER":null}},{"type":"MultiPolygon","arcs":[[[20]]],"properties":{"OBJECTID_1":12,"TYPE":"Child Friendly Space","HEALTH_TYP":"Camp Facility","OPERATOR":"SCI","IS_CONSTRU":null,"DISTRICT":1,"NAME_EN":"CFS Dinosaur","NAME_AR":"مساحة صديقة للطفل ديناصور","HOURS_EN":null,"HOURS_AR":null,"HEALTH_EN":null,"HEALTH_AR":null,"EMERGENCY":null,"REPRODUCTI":null,"MALNUTRITI":null,"VACCINATIO":null,"ACUTE_COND":null,"ORT":null,"GBV":null,"DENTIST":null,"PSYCHOTHER":null,"SECONDARY":null,"PHYSIOTHER":null}},{"type":"MultiPolygon","arcs":[[[21]]],"properties":{"OBJECTID_1":13,"TYPE":"Child Friendly Space","HEALTH_TYP":"Camp Facility","OPERATOR":"SCI","IS_CONSTRU":null,"DISTRICT":2,"NAME_EN":"CFS C","NAME_AR":"مساحة صديقة للطفل","HOURS_EN":null,"HOURS_AR":null,"HEALTH_EN":null,"HEALTH_AR":null,"EMERGENCY":null,"REPRODUCTI":null,"MALNUTRITI":null,"VACCINATIO":null,"ACUTE_COND":null,"ORT":null,"GBV":null,"DENTIST":null,"PSYCHOTHER":null,"SECONDARY":null,"PHYSIOTHER":null}},{"type":"MultiPolygon","arcs":[[[22]]],"properties":{"OBJECTID_1":14,"TYPE":"Health","HEALTH_TYP":"Healthcare Facility","OPERATOR":"IMC / JHAS","IS_CONSTRU":"Y","DISTRICT":3,"NAME_EN":"EMPHNET","NAME_AR":"EMPHNET","HOURS_EN":null,"HOURS_AR":null,"HEALTH_EN":"vaccination","HEALTH_AR":"vaccination","EMERGENCY":"N","REPRODUCTI":"N","MALNUTRITI":"N","VACCINATIO":"Y","ACUTE_COND":"N","ORT":"N","GBV":"N","DENTIST":"N","PSYCHOTHER":"N","SECONDARY":"N","PHYSIOTHER":"N"}},{"type":"MultiPolygon","arcs":[[[23]]],"properties":{"OBJECTID_1":15,"TYPE":"Vacant","HEALTH_TYP":"Camp Facility","OPERATOR":"Vacant","IS_CONSTRU":null,"DISTRICT":3,"NAME_EN":"Vacant","NAME_AR":"مساحة شاغرة","HOURS_EN":null,"HOURS_AR":null,"HEALTH_EN":null,"HEALTH_AR":null,"EMERGENCY":null,"REPRODUCTI":null,"MALNUTRITI":null,"VACCINATIO":null,"ACUTE_COND":null,"ORT":null,"GBV":null,"DENTIST":null,"PSYCHOTHER":null,"SECONDARY":null,"PHYSIOTHER":null}},{"type":"MultiPolygon","arcs":[[[24,25]]],"properties":{"OBJECTID_1":16,"TYPE":"Community Center","HEALTH_TYP":"Camp Facility","OPERATOR":"UNFPA/Noor Hussein Foundation","IS_CONSTRU":null,"DISTRICT":3,"NAME_EN":"Noor Hussein/UN Women Oasis 1","NAME_AR":"مركز المراه نور الحسين","HOURS_EN":null,"HOURS_AR":null,"HEALTH_EN":null,"HEALTH_AR":null,"EMERGENCY":null,"REPRODUCTI":null,"MALNUTRITI":null,"VACCINATIO":null,"ACUTE_COND":null,"ORT":null,"GBV":null,"DENTIST":null,"PSYCHOTHER":null,"SECONDARY":null,"PHYSIOTHER":null}},{"type":"MultiPolygon","arcs":[[[-25,26]]],"properties":{"OBJECTID_1":17,"TYPE":"Kindergarten","HEALTH_TYP":"Camp Facility","OPERATOR":"SCI","IS_CONSTRU":null,"DISTRICT":3,"NAME_EN":"Rainbow Kindergarten","NAME_AR":"روضة قوس قزح","HOURS_EN":null,"HOURS_AR":null,"HEALTH_EN":null,"HEALTH_AR":null,"EMERGENCY":null,"REPRODUCTI":null,"MALNUTRITI":null,"VACCINATIO":null,"ACUTE_COND":null,"ORT":null,"GBV":null,"DENTIST":null,"PSYCHOTHER":null,"SECONDARY":null,"PHYSIOTHER":null}},{"type":"MultiPolygon","arcs":[[[27]]],"properties":{"OBJECTID_1":18,"TYPE":"School","HEALTH_TYP":"Camp Facility","OPERATOR":"RI","IS_CONSTRU":null,"DISTRICT":3,"NAME_EN":"School 4 (Annex)","NAME_AR":"المدرسة 4","HOURS_EN":null,"HOURS_AR":null,"HEALTH_EN":null,"HEALTH_AR":null,"EMERGENCY":null,"REPRODUCTI":null,"MALNUTRITI":null,"VACCINATIO":null,"ACUTE_COND":null,"ORT":null,"GBV":null,"DENTIST":null,"PSYCHOTHER":null,"SECONDARY":null,"PHYSIOTHER":null}},{"type":"MultiPolygon","arcs":[[[28]]],"properties":{"OBJECTID_1":19,"TYPE":"Youth Center","HEALTH_TYP":"Camp Facility","OPERATOR":"IMC","IS_CONSTRU":null,"DISTRICT":4,"NAME_EN":"IMC AFS 1 Venus","NAME_AR":"IMC عطارد","HOURS_EN":null,"HOURS_AR":null,"HEALTH_EN":null,"HEALTH_AR":null,"EMERGENCY":null,"REPRODUCTI":null,"MALNUTRITI":null,"VACCINATIO":null,"ACUTE_COND":null,"ORT":null,"GBV":null,"DENTIST":null,"PSYCHOTHER":null,"SECONDARY":null,"PHYSIOTHER":null}},{"type":"MultiPolygon","arcs":[[[29,30]]],"properties":{"OBJECTID_1":20,"TYPE":"School","HEALTH_TYP":"Camp Facility","OPERATOR":"NRC","IS_CONSTRU":null,"DISTRICT":3,"NAME_EN":"School 1 (Bahrain)","NAME_AR":"المدرسة 1 البحرينية","HOURS_EN":null,"HOURS_AR":null,"HEALTH_EN":null,"HEALTH_AR":null,"EMERGENCY":null,"REPRODUCTI":null,"MALNUTRITI":null,"VACCINATIO":null,"ACUTE_COND":null,"ORT":null,"GBV":null,"DENTIST":null,"PSYCHOTHER":null,"SECONDARY":null,"PHYSIOTHER":null}},{"type":"MultiPolygon","arcs":[[[-30,31]]],"properties":{"OBJECTID_1":21,"TYPE":"Vacant","HEALTH_TYP":"Camp Facility","OPERATOR":"SCI","IS_CONSTRU":null,"DISTRICT":3,"NAME_EN":"Vacant","NAME_AR":"مساحة شاغرة","HOURS_EN":null,"HOURS_AR":null,"HEALTH_EN":null,"HEALTH_AR":null,"EMERGENCY":null,"REPRODUCTI":null,"MALNUTRITI":null,"VACCINATIO":null,"ACUTE_COND":null,"ORT":null,"GBV":null,"DENTIST":null,"PSYCHOTHER":null,"SECONDARY":null,"PHYSIOTHER":null}},{"type":"MultiPolygon","arcs":[[[32]]],"properties":{"OBJECTID_1":22,"TYPE":"Office","HEALTH_TYP":"Camp Facility","OPERATOR":"ACTED","IS_CONSTRU":null,"DISTRICT":1,"NAME_EN":"ACTED","NAME_AR":"اكتد","HOURS_EN":null,"HOURS_AR":null,"HEALTH_EN":null,"HEALTH_AR":null,"EMERGENCY":null,"REPRODUCTI":null,"MALNUTRITI":null,"VACCINATIO":null,"ACUTE_COND":null,"ORT":null,"GBV":null,"DENTIST":null,"PSYCHOTHER":null,"SECONDARY":null,"PHYSIOTHER":null}},{"type":"MultiPolygon","arcs":[[[33,34,35,36,-19]]],"properties":{"OBJECTID_1":23,"TYPE":"Registration","HEALTH_TYP":"Camp Facility","OPERATOR":"NRC","IS_CONSTRU":null,"DISTRICT":3,"NAME_EN":"New Arrivals Registration","NAME_AR":"مكاتب الاستقبال","HOURS_EN":null,"HOURS_AR":null,"HEALTH_EN":null,"HEALTH_AR":null,"EMERGENCY":null,"REPRODUCTI":null,"MALNUTRITI":null,"VACCINATIO":null,"ACUTE_COND":null,"ORT":null,"GBV":null,"DENTIST":null,"PSYCHOTHER":null,"SECONDARY":null,"PHYSIOTHER":null}},{"type":"MultiPolygon","arcs":[[[37,38]]],"properties":{"OBJECTID_1":24,"TYPE":"Office","HEALTH_TYP":"Camp Facility","OPERATOR":null,"IS_CONSTRU":null,"DISTRICT":3,"NAME_EN":"Parking Lot","NAME_AR":"موقف  سيارات","HOURS_EN":null,"HOURS_AR":null,"HEALTH_EN":null,"HEALTH_AR":null,"EMERGENCY":null,"REPRODUCTI":null,"MALNUTRITI":null,"VACCINATIO":null,"ACUTE_COND":null,"ORT":null,"GBV":null,"DENTIST":null,"PSYCHOTHER":null,"SECONDARY":null,"PHYSIOTHER":null}},{"type":"MultiPolygon","arcs":[[[39,40,-38,41,42]]],"properties":{"OBJECTID_1":25,"TYPE":"Office","HEALTH_TYP":"Camp Facility with Health Services","OPERATOR":"UNHCR","IS_CONSTRU":null,"DISTRICT":3,"NAME_EN":"Base Camp","NAME_AR":"مكاتب المنظمات","HOURS_EN":"MoH: 9:00am-1:00pm (Sun-Thu), EMPHNET: 9:00am-3:30pm (Sun-Thu)","HOURS_AR":"MoH: 9:00am-1:00pm (Sun-Thu), EMPHNET: 9:00am-3:30pm (Sun-Thu)","HEALTH_EN":"MoH: coordination of health services, reproductive care, vaccination. EMPHNET: coordination of health services, outreach.","HEALTH_AR":"MoH: coordination of health services, reproductive care, vaccination. EMPHNET: coordination of health services, outreach.","EMERGENCY":"N","REPRODUCTI":"Y","MALNUTRITI":"N","VACCINATIO":"Y","ACUTE_COND":"N","ORT":"N","GBV":"N","DENTIST":"N","PSYCHOTHER":"N","SECONDARY":"N","PHYSIOTHER":"N"}},{"type":"MultiPolygon","arcs":[[[43]]],"properties":{"OBJECTID_1":26,"TYPE":"Community Center","HEALTH_TYP":"Camp Facility","OPERATOR":"ACTED","IS_CONSTRU":null,"DISTRICT":2,"NAME_EN":"ACTED Cedar","NAME_AR":"خيمة الارز اكتد","HOURS_EN":null,"HOURS_AR":null,"HEALTH_EN":null,"HEALTH_AR":null,"EMERGENCY":null,"REPRODUCTI":null,"MALNUTRITI":null,"VACCINATIO":null,"ACUTE_COND":null,"ORT":null,"GBV":null,"DENTIST":null,"PSYCHOTHER":null,"SECONDARY":null,"PHYSIOTHER":null}},{"type":"MultiPolygon","arcs":[[[44]]],"properties":{"OBJECTID_1":27,"TYPE":"Community Center","HEALTH_TYP":"Camp Facility","OPERATOR":"JEN","IS_CONSTRU":null,"DISTRICT":3,"NAME_EN":"JEN","NAME_AR":"JENمركز اجتماعي","HOURS_EN":null,"HOURS_AR":null,"HEALTH_EN":null,"HEALTH_AR":null,"EMERGENCY":null,"REPRODUCTI":null,"MALNUTRITI":null,"VACCINATIO":null,"ACUTE_COND":null,"ORT":null,"GBV":null,"DENTIST":null,"PSYCHOTHER":null,"SECONDARY":null,"PHYSIOTHER":null}},{"type":"MultiPolygon","arcs":[[[45]]],"properties":{"OBJECTID_1":28,"TYPE":"School","HEALTH_TYP":"Camp Facility","OPERATOR":"UNICEF","IS_CONSTRU":null,"DISTRICT":1,"NAME_EN":"School 8","NAME_AR":"المدرسه 8","HOURS_EN":null,"HOURS_AR":null,"HEALTH_EN":null,"HEALTH_AR":null,"EMERGENCY":null,"REPRODUCTI":null,"MALNUTRITI":null,"VACCINATIO":null,"ACUTE_COND":null,"ORT":null,"GBV":null,"DENTIST":null,"PSYCHOTHER":null,"SECONDARY":null,"PHYSIOTHER":null}},{"type":"MultiPolygon","arcs":[[[46]]],"properties":{"OBJECTID_1":29,"TYPE":"Recreation","HEALTH_TYP":"Camp Facility","OPERATOR":"Mercy Corps","IS_CONSTRU":null,"DISTRICT":4,"NAME_EN":"Mercy Corps Dream Land","NAME_AR":"منطقة ترفيهية","HOURS_EN":null,"HOURS_AR":null,"HEALTH_EN":null,"HEALTH_AR":null,"EMERGENCY":null,"REPRODUCTI":null,"MALNUTRITI":null,"VACCINATIO":null,"ACUTE_COND":null,"ORT":null,"GBV":null,"DENTIST":null,"PSYCHOTHER":null,"SECONDARY":null,"PHYSIOTHER":null}},{"type":"MultiPolygon","arcs":[[[47]]],"properties":{"OBJECTID_1":30,"TYPE":"School","HEALTH_TYP":"Camp Facility","OPERATOR":"NRC","IS_CONSTRU":null,"DISTRICT":4,"NAME_EN":"School 9","NAME_AR":"المدرسه 9","HOURS_EN":null,"HOURS_AR":null,"HEALTH_EN":null,"HEALTH_AR":null,"EMERGENCY":null,"REPRODUCTI":null,"MALNUTRITI":null,"VACCINATIO":null,"ACUTE_COND":null,"ORT":null,"GBV":null,"DENTIST":null,"PSYCHOTHER":null,"SECONDARY":null,"PHYSIOTHER":null}},{"type":"MultiPolygon","arcs":[[[48]]],"properties":{"OBJECTID_1":31,"TYPE":"Community Center","HEALTH_TYP":"Camp Facility","OPERATOR":"ACTED","IS_CONSTRU":null,"DISTRICT":12,"NAME_EN":"ACTED Apple","NAME_AR":"التفاحة اكتد","HOURS_EN":null,"HOURS_AR":null,"HEALTH_EN":null,"HEALTH_AR":null,"EMERGENCY":null,"REPRODUCTI":null,"MALNUTRITI":null,"VACCINATIO":null,"ACUTE_COND":null,"ORT":null,"GBV":null,"DENTIST":null,"PSYCHOTHER":null,"SECONDARY":null,"PHYSIOTHER":null}},{"type":"MultiPolygon","arcs":[[[49]]],"properties":{"OBJECTID_1":32,"TYPE":"Playground","HEALTH_TYP":"Camp Facility","OPERATOR":"Mercy Corps","IS_CONSTRU":null,"DISTRICT":9,"NAME_EN":"Mercy Corps Playground M5","NAME_AR":"منطقة لعب ميرسي كورM5","HOURS_EN":null,"HOURS_AR":null,"HEALTH_EN":null,"HEALTH_AR":null,"EMERGENCY":null,"REPRODUCTI":null,"MALNUTRITI":null,"VACCINATIO":null,"ACUTE_COND":null,"ORT":null,"GBV":null,"DENTIST":null,"PSYCHOTHER":null,"SECONDARY":null,"PHYSIOTHER":null}},{"type":"MultiPolygon","arcs":[[[50]]],"properties":{"OBJECTID_1":33,"TYPE":"School","HEALTH_TYP":"Camp Facility","OPERATOR":"UNICEF","IS_CONSTRU":"Y","DISTRICT":10,"NAME_EN":"UNICEF School","NAME_AR":"مدرسة اليونيسيف","HOURS_EN":null,"HOURS_AR":null,"HEALTH_EN":null,"HEALTH_AR":null,"EMERGENCY":null,"REPRODUCTI":null,"MALNUTRITI":null,"VACCINATIO":null,"ACUTE_COND":null,"ORT":null,"GBV":null,"DENTIST":null,"PSYCHOTHER":null,"SECONDARY":null,"PHYSIOTHER":null}},{"type":"MultiPolygon","arcs":[[[51]]],"properties":{"OBJECTID_1":34,"TYPE":"Youth Center","HEALTH_TYP":"Camp Facility","OPERATOR":"SCI","IS_CONSTRU":null,"DISTRICT":10,"NAME_EN":"Multiactivity Centre 1 Male","NAME_AR":"مركز النشاطات للشباب 1","HOURS_EN":null,"HOURS_AR":null,"HEALTH_EN":null,"HEALTH_AR":null,"EMERGENCY":null,"REPRODUCTI":null,"MALNUTRITI":null,"VACCINATIO":null,"ACUTE_COND":null,"ORT":null,"GBV":null,"DENTIST":null,"PSYCHOTHER":null,"SECONDARY":null,"PHYSIOTHER":null}},{"type":"MultiPolygon","arcs":[[[52]]],"properties":{"OBJECTID_1":35,"TYPE":"Kindergarten","HEALTH_TYP":"Camp Facility","OPERATOR":"SCI","IS_CONSTRU":null,"DISTRICT":9,"NAME_EN":"Little Hands Kindergarten","NAME_AR":"روضة الايادي الصغيرة","HOURS_EN":null,"HOURS_AR":null,"HEALTH_EN":null,"HEALTH_AR":null,"EMERGENCY":null,"REPRODUCTI":null,"MALNUTRITI":null,"VACCINATIO":null,"ACUTE_COND":null,"ORT":null,"GBV":null,"DENTIST":null,"PSYCHOTHER":null,"SECONDARY":null,"PHYSIOTHER":null}},{"type":"MultiPolygon","arcs":[[[53]]],"properties":{"OBJECTID_1":36,"TYPE":"Vacant","HEALTH_TYP":"Camp Facility","OPERATOR":null,"IS_CONSTRU":null,"DISTRICT":9,"NAME_EN":"Vacant","NAME_AR":"مساحة شاغرة","HOURS_EN":null,"HOURS_AR":null,"HEALTH_EN":null,"HEALTH_AR":null,"EMERGENCY":null,"REPRODUCTI":null,"MALNUTRITI":null,"VACCINATIO":null,"ACUTE_COND":null,"ORT":null,"GBV":null,"DENTIST":null,"PSYCHOTHER":null,"SECONDARY":null,"PHYSIOTHER":null}},{"type":"MultiPolygon","arcs":[[[54]]],"properties":{"OBJECTID_1":37,"TYPE":"Child Friendly Space","HEALTH_TYP":"Camp Facility","OPERATOR":"SCI","IS_CONSTRU":null,"DISTRICT":12,"NAME_EN":"CFS Lamp","NAME_AR":"مساحة صديقة للطفل اللمبة","HOURS_EN":null,"HOURS_AR":null,"HEALTH_EN":null,"HEALTH_AR":null,"EMERGENCY":null,"REPRODUCTI":null,"MALNUTRITI":null,"VACCINATIO":null,"ACUTE_COND":null,"ORT":null,"GBV":null,"DENTIST":null,"PSYCHOTHER":null,"SECONDARY":null,"PHYSIOTHER":null}},{"type":"MultiPolygon","arcs":[[[55]]],"properties":{"OBJECTID_1":38,"TYPE":"Youth Center","HEALTH_TYP":"Camp Facility","OPERATOR":null,"IS_CONSTRU":null,"DISTRICT":11,"NAME_EN":"IMC AFS","NAME_AR":"IMC","HOURS_EN":null,"HOURS_AR":null,"HEALTH_EN":null,"HEALTH_AR":null,"EMERGENCY":null,"REPRODUCTI":null,"MALNUTRITI":null,"VACCINATIO":null,"ACUTE_COND":null,"ORT":null,"GBV":null,"DENTIST":null,"PSYCHOTHER":null,"SECONDARY":null,"PHYSIOTHER":null}},{"type":"MultiPolygon","arcs":[[[56]]],"properties":{"OBJECTID_1":39,"TYPE":"Child Friendly Space","HEALTH_TYP":"Camp Facility","OPERATOR":"SCI","IS_CONSTRU":null,"DISTRICT":11,"NAME_EN":"CFS Fish","NAME_AR":"مساحة صديقة للطفل سمكة","HOURS_EN":null,"HOURS_AR":null,"HEALTH_EN":null,"HEALTH_AR":null,"EMERGENCY":null,"REPRODUCTI":null,"MALNUTRITI":null,"VACCINATIO":null,"ACUTE_COND":null,"ORT":null,"GBV":null,"DENTIST":null,"PSYCHOTHER":null,"SECONDARY":null,"PHYSIOTHER":null}},{"type":"MultiPolygon","arcs":[[[57]]],"properties":{"OBJECTID_1":40,"TYPE":"Playground","HEALTH_TYP":"Camp Facility","OPERATOR":"Mercy Corps","IS_CONSTRU":null,"DISTRICT":11,"NAME_EN":"Mercy Corps Playground M2","NAME_AR":"منطقة لعب ميرسي كورM2","HOURS_EN":null,"HOURS_AR":null,"HEALTH_EN":null,"HEALTH_AR":null,"EMERGENCY":null,"REPRODUCTI":null,"MALNUTRITI":null,"VACCINATIO":null,"ACUTE_COND":null,"ORT":null,"GBV":null,"DENTIST":null,"PSYCHOTHER":null,"SECONDARY":null,"PHYSIOTHER":null}},{"type":"MultiPolygon","arcs":[[[58]]],"properties":{"OBJECTID_1":41,"TYPE":"Community Center","HEALTH_TYP":"Camp Facility with Health Services","OPERATOR":null,"IS_CONSTRU":null,"DISTRICT":6,"NAME_EN":"Noor Hussein Rehabilitiation Centre","NAME_AR":"نور الحسين","HOURS_EN":"9:00am-4:00pm (Sun-Thu)","HOURS_AR":"9:00am-4:00pm (Sun-Thu)","HEALTH_EN":"outreach, physiotherapy, psychotherapy, special education","HEALTH_AR":"outreach, physiotherapy, psychotherapy, special education","EMERGENCY":"N","REPRODUCTI":"N","MALNUTRITI":"N","VACCINATIO":"N","ACUTE_COND":"N","ORT":"N","GBV":"N","DENTIST":"N","PSYCHOTHER":"Y","SECONDARY":"Y","PHYSIOTHER":"Y"}},{"type":"MultiPolygon","arcs":[[[59]]],"properties":{"OBJECTID_1":42,"TYPE":"Child Friendly Space","HEALTH_TYP":"Camp Facility","OPERATOR":"SCI","IS_CONSTRU":null,"DISTRICT":6,"NAME_EN":"CFS Notes","NAME_AR":"مساحة صديقة للطفل نوتة","HOURS_EN":null,"HOURS_AR":null,"HEALTH_EN":null,"HEALTH_AR":null,"EMERGENCY":null,"REPRODUCTI":null,"MALNUTRITI":null,"VACCINATIO":null,"ACUTE_COND":null,"ORT":null,"GBV":null,"DENTIST":null,"PSYCHOTHER":null,"SECONDARY":null,"PHYSIOTHER":null}},{"type":"MultiPolygon","arcs":[[[60,61,62]]],"properties":{"OBJECTID_1":43,"TYPE":"Community Center","HEALTH_TYP":"Camp Facility with Health Services","OPERATOR":"SCJ","IS_CONSTRU":null,"DISTRICT":4,"NAME_EN":"SCJ","NAME_AR":"حماية الطفل الاردنيه","HOURS_EN":"9:00am-3:00pm (Sat-Thu)","HOURS_AR":"9:00am-3:00pm (Sat-Thu)","HEALTH_EN":"malnutrition screening, reproductive care, young children support","HEALTH_AR":"malnutrition screening, reproductive care, young children support","EMERGENCY":"N","REPRODUCTI":"Y","MALNUTRITI":"Y","VACCINATIO":"N","ACUTE_COND":"N","ORT":"N","GBV":"N","DENTIST":"N","PSYCHOTHER":"N","SECONDARY":"N","PHYSIOTHER":"N"}},{"type":"MultiPolygon","arcs":[[[63,64]]],"properties":{"OBJECTID_1":44,"TYPE":"Health","HEALTH_TYP":"Healthcare Facility","OPERATOR":"MSF Holland","IS_CONSTRU":null,"DISTRICT":5,"NAME_EN":"MSF Hospital","NAME_AR":"أطباء بلا حدود","HOURS_EN":"24/7, closed Jan 2017","HOURS_AR":"24/7, closed Jan 2017","HEALTH_EN":"orthopaedics, physiotherapy, psychotherapy","HEALTH_AR":"orthopaedics, physiotherapy, psychotherapy","EMERGENCY":"Y","REPRODUCTI":"N","MALNUTRITI":"N","VACCINATIO":"N","ACUTE_COND":"N","ORT":"N","GBV":"N","DENTIST":"N","PSYCHOTHER":"Y","SECONDARY":"Y","PHYSIOTHER":"Y"}},{"type":"MultiPolygon","arcs":[[[65,66]]],"properties":{"OBJECTID_1":45,"TYPE":"Youth Center","HEALTH_TYP":"Camp Facility","OPERATOR":"SCI","IS_CONSTRU":null,"DISTRICT":4,"NAME_EN":"Multiactivity Centre 2 Female","NAME_AR":"مركز النشاطات للبنات 2","HOURS_EN":null,"HOURS_AR":null,"HEALTH_EN":null,"HEALTH_AR":null,"EMERGENCY":null,"REPRODUCTI":null,"MALNUTRITI":null,"VACCINATIO":null,"ACUTE_COND":null,"ORT":null,"GBV":null,"DENTIST":null,"PSYCHOTHER":null,"SECONDARY":null,"PHYSIOTHER":null}},{"type":"MultiPolygon","arcs":[[[67,68]]],"properties":{"OBJECTID_1":46,"TYPE":"Registration","HEALTH_TYP":"Camp Facility with Health Services","OPERATOR":"IOM","IS_CONSTRU":null,"DISTRICT":3,"NAME_EN":"IOM - TB Program","NAME_AR":"مكاتب الاستقبال IOM","HOURS_EN":"8:00am-5:00pm (Sun-Thu)","HOURS_AR":"8:00am-5:00pm (Sun-Thu)","HEALTH_EN":"TB screening awareness / screening / diagnosis / treatment","HEALTH_AR":"TB screening awareness / screening / diagnosis / treatment","EMERGENCY":"N","REPRODUCTI":"N","MALNUTRITI":"N","VACCINATIO":"N","ACUTE_COND":"N","ORT":"N","GBV":"N","DENTIST":"N","PSYCHOTHER":"N","SECONDARY":"N","PHYSIOTHER":"N"}},{"type":"MultiPolygon","arcs":[[[69,70,71,72,73]]],"properties":{"OBJECTID_1":47,"TYPE":"Security","HEALTH_TYP":"Camp Facility","OPERATOR":"Police","IS_CONSTRU":null,"DISTRICT":5,"NAME_EN":"SRAD","NAME_AR":"ادارة المخيم","HOURS_EN":null,"HOURS_AR":null,"HEALTH_EN":null,"HEALTH_AR":null,"EMERGENCY":null,"REPRODUCTI":null,"MALNUTRITI":null,"VACCINATIO":null,"ACUTE_COND":null,"ORT":null,"GBV":null,"DENTIST":null,"PSYCHOTHER":null,"SECONDARY":null,"PHYSIOTHER":null}},{"type":"MultiPolygon","arcs":[[[74,75,-63]]],"properties":{"OBJECTID_1":48,"TYPE":"Community Office","HEALTH_TYP":"Camp Facility","OPERATOR":"IRC","IS_CONSTRU":null,"DISTRICT":4,"NAME_EN":"Women Center","NAME_AR":"مركز المراة","HOURS_EN":null,"HOURS_AR":null,"HEALTH_EN":null,"HEALTH_AR":null,"EMERGENCY":null,"REPRODUCTI":null,"MALNUTRITI":null,"VACCINATIO":null,"ACUTE_COND":null,"ORT":null,"GBV":null,"DENTIST":null,"PSYCHOTHER":null,"SECONDARY":null,"PHYSIOTHER":null}},{"type":"MultiPolygon","arcs":[[[76]]],"properties":{"OBJECTID_1":49,"TYPE":"Playground","HEALTH_TYP":"Camp Facility","OPERATOR":"Mercy Corps","IS_CONSTRU":null,"DISTRICT":10,"NAME_EN":"Mercy Corps Playground M3","NAME_AR":"منطقة لعب ميرسي كورM3","HOURS_EN":null,"HOURS_AR":null,"HEALTH_EN":null,"HEALTH_AR":null,"EMERGENCY":null,"REPRODUCTI":null,"MALNUTRITI":null,"VACCINATIO":null,"ACUTE_COND":null,"ORT":null,"GBV":null,"DENTIST":null,"PSYCHOTHER":null,"SECONDARY":null,"PHYSIOTHER":null}},{"type":"MultiPolygon","arcs":[[[77]]],"properties":{"OBJECTID_1":50,"TYPE":"Community Center","HEALTH_TYP":"Camp Facility","OPERATOR":"ACTED","IS_CONSTRU":null,"DISTRICT":11,"NAME_EN":"ACTED Lemon","NAME_AR":"الليمونة اكتد","HOURS_EN":null,"HOURS_AR":null,"HEALTH_EN":null,"HEALTH_AR":null,"EMERGENCY":null,"REPRODUCTI":null,"MALNUTRITI":null,"VACCINATIO":null,"ACUTE_COND":null,"ORT":null,"GBV":null,"DENTIST":null,"PSYCHOTHER":null,"SECONDARY":null,"PHYSIOTHER":null}},{"type":"MultiPolygon","arcs":[[[78]]],"properties":{"OBJECTID_1":51,"TYPE":"Warehouse","HEALTH_TYP":"Camp Facility","OPERATOR":"Oxfam","IS_CONSTRU":null,"DISTRICT":6,"NAME_EN":"Oxfam Warehouse","NAME_AR":"مستودع  OXFAM","HOURS_EN":null,"HOURS_AR":null,"HEALTH_EN":null,"HEALTH_AR":null,"EMERGENCY":null,"REPRODUCTI":null,"MALNUTRITI":null,"VACCINATIO":null,"ACUTE_COND":null,"ORT":null,"GBV":null,"DENTIST":null,"PSYCHOTHER":null,"SECONDARY":null,"PHYSIOTHER":null}},{"type":"MultiPolygon","arcs":[[[-64,79,80,81]]],"properties":{"OBJECTID_1":52,"TYPE":"Health","HEALTH_TYP":"Healthcare Facility","OPERATOR":"KSA","IS_CONSTRU":null,"DISTRICT":5,"NAME_EN":"KSA Hospital","NAME_AR":"المستشفى السعودي","HOURS_EN":"9:00am-4:00pm (Sun-Thu), 10:00am-2:00pm (Sat)","HOURS_AR":"9:00am-4:00pm (Sun-Thu), 10:00am-2:00pm (Sat)","HEALTH_EN":"cardiologist, dentist, dermatologist, ENT, GP, gynaecologist, internal medicine, laboratory, ORT, orthopedic, paediatrician, psychological support, urologist, vaccination, x-ray","HEALTH_AR":"cardiologist, dentist, dermatologist, ENT, GP, gynaecologist, internal medicine, laboratory, ORT, orthopedic, paediatrician, psychological support, urologist, vaccination, x-ray","EMERGENCY":"N","REPRODUCTI":"N","MALNUTRITI":"N","VACCINATIO":"Y","ACUTE_COND":"N","ORT":"Y","GBV":"N","DENTIST":"Y","PSYCHOTHER":"N","SECONDARY":"Y","PHYSIOTHER":"N"}},{"type":"MultiPolygon","arcs":[[[82]]],"properties":{"OBJECTID_1":53,"TYPE":"Warehouse","HEALTH_TYP":"Camp Facility","OPERATOR":"KSA","IS_CONSTRU":null,"DISTRICT":5,"NAME_EN":"Warehouse","NAME_AR":"مستودع","HOURS_EN":null,"HOURS_AR":null,"HEALTH_EN":null,"HEALTH_AR":null,"EMERGENCY":null,"REPRODUCTI":null,"MALNUTRITI":null,"VACCINATIO":null,"ACUTE_COND":null,"ORT":null,"GBV":null,"DENTIST":null,"PSYCHOTHER":null,"SECONDARY":null,"PHYSIOTHER":null}},{"type":"MultiPolygon","arcs":[[[83]]],"properties":{"OBJECTID_1":54,"TYPE":"School","HEALTH_TYP":"Camp Facility","OPERATOR":"NRC","IS_CONSTRU":null,"DISTRICT":5,"NAME_EN":"School 2 (Saudi Arabia)","NAME_AR":"المدرسة السعودية","HOURS_EN":null,"HOURS_AR":null,"HEALTH_EN":null,"HEALTH_AR":null,"EMERGENCY":null,"REPRODUCTI":null,"MALNUTRITI":null,"VACCINATIO":null,"ACUTE_COND":null,"ORT":null,"GBV":null,"DENTIST":null,"PSYCHOTHER":null,"SECONDARY":null,"PHYSIOTHER":null}},{"type":"MultiPolygon","arcs":[[[84,85]]],"properties":{"OBJECTID_1":55,"TYPE":"Health","HEALTH_TYP":"Healthcare Facility","OPERATOR":"IRC/JHAS","IS_CONSTRU":null,"DISTRICT":5,"NAME_EN":"JHAS Maternity Clinic","NAME_AR":"مركز صحي الزعتري","HOURS_EN":"24/7","HOURS_AR":"24/7","HEALTH_EN":"ante and post-natal care, family planning, gender-based violence support, reproductive health, vaccination","HEALTH_AR":"ante and post-natal care, family planning, gender-based violence support, reproductive health, vaccination","EMERGENCY":"N","REPRODUCTI":"Y","MALNUTRITI":"N","VACCINATIO":"Y","ACUTE_COND":"N","ORT":"N","GBV":"Y","DENTIST":"N","PSYCHOTHER":"N","SECONDARY":"N","PHYSIOTHER":"N"}},{"type":"MultiPolygon","arcs":[[[86]]],"properties":{"OBJECTID_1":56,"TYPE":"Community Center","HEALTH_TYP":"Camp Facility","OPERATOR":"ACTED","IS_CONSTRU":null,"DISTRICT":1,"NAME_EN":"ACTED Olive","NAME_AR":"خيمة الزيتونة اكتد","HOURS_EN":null,"HOURS_AR":null,"HEALTH_EN":null,"HEALTH_AR":null,"EMERGENCY":null,"REPRODUCTI":null,"MALNUTRITI":null,"VACCINATIO":null,"ACUTE_COND":null,"ORT":null,"GBV":null,"DENTIST":null,"PSYCHOTHER":null,"SECONDARY":null,"PHYSIOTHER":null}},{"type":"MultiPolygon","arcs":[[[87,88,-4]]],"properties":{"OBJECTID_1":57,"TYPE":"Security","HEALTH_TYP":"Camp Facility","OPERATOR":null,"IS_CONSTRU":null,"DISTRICT":3,"NAME_EN":"Community Police","NAME_AR":"الشرطة المجتمعتية","HOURS_EN":null,"HOURS_AR":null,"HEALTH_EN":null,"HEALTH_AR":null,"EMERGENCY":null,"REPRODUCTI":null,"MALNUTRITI":null,"VACCINATIO":null,"ACUTE_COND":null,"ORT":null,"GBV":null,"DENTIST":null,"PSYCHOTHER":null,"SECONDARY":null,"PHYSIOTHER":null}},{"type":"MultiPolygon","arcs":[[[89]]],"properties":{"OBJECTID_1":58,"TYPE":"Youth Center","HEALTH_TYP":"Camp Facility","OPERATOR":"IMC","IS_CONSTRU":null,"DISTRICT":12,"NAME_EN":"IMC AFS 5 Saturn","NAME_AR":"IMC زحل","HOURS_EN":null,"HOURS_AR":null,"HEALTH_EN":null,"HEALTH_AR":null,"EMERGENCY":null,"REPRODUCTI":null,"MALNUTRITI":null,"VACCINATIO":null,"ACUTE_COND":null,"ORT":null,"GBV":null,"DENTIST":null,"PSYCHOTHER":null,"SECONDARY":null,"PHYSIOTHER":null}},{"type":"MultiPolygon","arcs":[[[90]]],"properties":{"OBJECTID_1":59,"TYPE":"Vacant","HEALTH_TYP":"Camp Facility","OPERATOR":null,"IS_CONSTRU":null,"DISTRICT":10,"NAME_EN":"Vacant","NAME_AR":"مساحة شاغرة","HOURS_EN":null,"HOURS_AR":null,"HEALTH_EN":null,"HEALTH_AR":null,"EMERGENCY":null,"REPRODUCTI":null,"MALNUTRITI":null,"VACCINATIO":null,"ACUTE_COND":null,"ORT":null,"GBV":null,"DENTIST":null,"PSYCHOTHER":null,"SECONDARY":null,"PHYSIOTHER":null}},{"type":"MultiPolygon","arcs":[[[91]]],"properties":{"OBJECTID_1":60,"TYPE":"Child Friendly Space","HEALTH_TYP":"Camp Facility","OPERATOR":"SCI","IS_CONSTRU":null,"DISTRICT":10,"NAME_EN":"CFS Motorcycle","NAME_AR":"مساحة صديقة للطفل الدراجه","HOURS_EN":null,"HOURS_AR":null,"HEALTH_EN":null,"HEALTH_AR":null,"EMERGENCY":null,"REPRODUCTI":null,"MALNUTRITI":null,"VACCINATIO":null,"ACUTE_COND":null,"ORT":null,"GBV":null,"DENTIST":null,"PSYCHOTHER":null,"SECONDARY":null,"PHYSIOTHER":null}},{"type":"MultiPolygon","arcs":[[[92]]],"properties":{"OBJECTID_1":61,"TYPE":"Recreation","HEALTH_TYP":"Camp Facility","OPERATOR":null,"IS_CONSTRU":null,"DISTRICT":10,"NAME_EN":"UNESCO Horse","NAME_AR":"منطقة لعب","HOURS_EN":null,"HOURS_AR":null,"HEALTH_EN":null,"HEALTH_AR":null,"EMERGENCY":null,"REPRODUCTI":null,"MALNUTRITI":null,"VACCINATIO":null,"ACUTE_COND":null,"ORT":null,"GBV":null,"DENTIST":null,"PSYCHOTHER":null,"SECONDARY":null,"PHYSIOTHER":null}},{"type":"MultiPolygon","arcs":[[[93]]],"properties":{"OBJECTID_1":62,"TYPE":"Child Friendly Space","HEALTH_TYP":"Camp Facility","OPERATOR":"SCI","IS_CONSTRU":null,"DISTRICT":9,"NAME_EN":"CFS Ice Cream","NAME_AR":"مساحة صديقة للطفل","HOURS_EN":null,"HOURS_AR":null,"HEALTH_EN":null,"HEALTH_AR":null,"EMERGENCY":null,"REPRODUCTI":null,"MALNUTRITI":null,"VACCINATIO":null,"ACUTE_COND":null,"ORT":null,"GBV":null,"DENTIST":null,"PSYCHOTHER":null,"SECONDARY":null,"PHYSIOTHER":null}},{"type":"MultiPolygon","arcs":[[[94]]],"properties":{"OBJECTID_1":63,"TYPE":"Distribution Point","HEALTH_TYP":"Camp Facility","OPERATOR":"NRC","IS_CONSTRU":null,"DISTRICT":6,"NAME_EN":"Common Distribution Centre for Humanitarian Assistance (CDCHA)","NAME_AR":"مركز التوزيع المشترك للمساعدات الإنسانية (CDCHA)","HOURS_EN":null,"HOURS_AR":null,"HEALTH_EN":null,"HEALTH_AR":null,"EMERGENCY":null,"REPRODUCTI":null,"MALNUTRITI":null,"VACCINATIO":null,"ACUTE_COND":null,"ORT":null,"GBV":null,"DENTIST":null,"PSYCHOTHER":null,"SECONDARY":null,"PHYSIOTHER":null}},{"type":"MultiPolygon","arcs":[[[95,-75,96]]],"properties":{"OBJECTID_1":64,"TYPE":"Community Center","HEALTH_TYP":"Camp Facility","OPERATOR":"JEN","IS_CONSTRU":null,"DISTRICT":4,"NAME_EN":"JEN","NAME_AR":"JENمركز اجتماعي","HOURS_EN":null,"HOURS_AR":null,"HEALTH_EN":null,"HEALTH_AR":null,"EMERGENCY":null,"REPRODUCTI":null,"MALNUTRITI":null,"VACCINATIO":null,"ACUTE_COND":null,"ORT":null,"GBV":null,"DENTIST":null,"PSYCHOTHER":null,"SECONDARY":null,"PHYSIOTHER":null}},{"type":"MultiPolygon","arcs":[[[97]]],"properties":{"OBJECTID_1":65,"TYPE":"Community Center","HEALTH_TYP":"Camp Facility","OPERATOR":"IRD","IS_CONSTRU":null,"DISTRICT":9,"NAME_EN":"IRD","NAME_AR":"مركز اجتماعي IRD","HOURS_EN":null,"HOURS_AR":null,"HEALTH_EN":null,"HEALTH_AR":null,"EMERGENCY":null,"REPRODUCTI":null,"MALNUTRITI":null,"VACCINATIO":null,"ACUTE_COND":null,"ORT":null,"GBV":null,"DENTIST":null,"PSYCHOTHER":null,"SECONDARY":null,"PHYSIOTHER":null}},{"type":"MultiPolygon","arcs":[[[98]]],"properties":{"OBJECTID_1":66,"TYPE":"School","HEALTH_TYP":"Camp Facility","OPERATOR":"NRC","IS_CONSTRU":null,"DISTRICT":8,"NAME_EN":"School 3 (Qatar)","NAME_AR":"المدرسة 3 القطرية","HOURS_EN":null,"HOURS_AR":null,"HEALTH_EN":null,"HEALTH_AR":null,"EMERGENCY":null,"REPRODUCTI":null,"MALNUTRITI":null,"VACCINATIO":null,"ACUTE_COND":null,"ORT":null,"GBV":null,"DENTIST":null,"PSYCHOTHER":null,"SECONDARY":null,"PHYSIOTHER":null}},{"type":"MultiPolygon","arcs":[[[99]]],"properties":{"OBJECTID_1":67,"TYPE":"Child Friendly Space","HEALTH_TYP":"Camp Facility","OPERATOR":"SCI","IS_CONSTRU":null,"DISTRICT":7,"NAME_EN":"CFS Jasmine","NAME_AR":"مساحة صديقة للطفل الياسمين","HOURS_EN":null,"HOURS_AR":null,"HEALTH_EN":null,"HEALTH_AR":null,"EMERGENCY":null,"REPRODUCTI":null,"MALNUTRITI":null,"VACCINATIO":null,"ACUTE_COND":null,"ORT":null,"GBV":null,"DENTIST":null,"PSYCHOTHER":null,"SECONDARY":null,"PHYSIOTHER":null}},{"type":"MultiPolygon","arcs":[[[100]]],"properties":{"OBJECTID_1":68,"TYPE":"Community Center","HEALTH_TYP":"Camp Facility","OPERATOR":"IRD","IS_CONSTRU":null,"DISTRICT":10,"NAME_EN":"IRD","NAME_AR":"مركز اجتماعي IRD","HOURS_EN":null,"HOURS_AR":null,"HEALTH_EN":null,"HEALTH_AR":null,"EMERGENCY":null,"REPRODUCTI":null,"MALNUTRITI":null,"VACCINATIO":null,"ACUTE_COND":null,"ORT":null,"GBV":null,"DENTIST":null,"PSYCHOTHER":null,"SECONDARY":null,"PHYSIOTHER":null}},{"type":"MultiPolygon","arcs":[[[101]]],"properties":{"OBJECTID_1":69,"TYPE":"Youth Center","HEALTH_TYP":"Camp Facility","OPERATOR":"IMC","IS_CONSTRU":null,"DISTRICT":6,"NAME_EN":"IMC AFS 4 Mars","NAME_AR":"IMC المريخ","HOURS_EN":null,"HOURS_AR":null,"HEALTH_EN":null,"HEALTH_AR":null,"EMERGENCY":null,"REPRODUCTI":null,"MALNUTRITI":null,"VACCINATIO":null,"ACUTE_COND":null,"ORT":null,"GBV":null,"DENTIST":null,"PSYCHOTHER":null,"SECONDARY":null,"PHYSIOTHER":null}},{"type":"MultiPolygon","arcs":[[[102]]],"properties":{"OBJECTID_1":70,"TYPE":"Recreation","HEALTH_TYP":"Camp Facility","OPERATOR":"Mercy Corps","IS_CONSTRU":null,"DISTRICT":7,"NAME_EN":"Mercy Corps Playground M6","NAME_AR":"منطقة لعب ميرسي كورM6","HOURS_EN":null,"HOURS_AR":null,"HEALTH_EN":null,"HEALTH_AR":null,"EMERGENCY":null,"REPRODUCTI":null,"MALNUTRITI":null,"VACCINATIO":null,"ACUTE_COND":null,"ORT":null,"GBV":null,"DENTIST":null,"PSYCHOTHER":null,"SECONDARY":null,"PHYSIOTHER":null}},{"type":"MultiPolygon","arcs":[[[103]]],"properties":{"OBJECTID_1":71,"TYPE":"Recreation","HEALTH_TYP":"Camp Facility","OPERATOR":"IRD","IS_CONSTRU":null,"DISTRICT":7,"NAME_EN":"IRD Play Area","NAME_AR":"IRD ملعب","HOURS_EN":null,"HOURS_AR":null,"HEALTH_EN":null,"HEALTH_AR":null,"EMERGENCY":null,"REPRODUCTI":null,"MALNUTRITI":null,"VACCINATIO":null,"ACUTE_COND":null,"ORT":null,"GBV":null,"DENTIST":null,"PSYCHOTHER":null,"SECONDARY":null,"PHYSIOTHER":null}},{"type":"MultiPolygon","arcs":[[[104]]],"properties":{"OBJECTID_1":72,"TYPE":"Distribution Point","HEALTH_TYP":"Camp Facility","OPERATOR":"WFP","IS_CONSTRU":null,"DISTRICT":7,"NAME_EN":"WFP Bread Distribution","NAME_AR":"مركز توزيع الخبز WFP","HOURS_EN":null,"HOURS_AR":null,"HEALTH_EN":null,"HEALTH_AR":null,"EMERGENCY":null,"REPRODUCTI":null,"MALNUTRITI":null,"VACCINATIO":null,"ACUTE_COND":null,"ORT":null,"GBV":null,"DENTIST":null,"PSYCHOTHER":null,"SECONDARY":null,"PHYSIOTHER":null}},{"type":"MultiPolygon","arcs":[[[105]]],"properties":{"OBJECTID_1":73,"TYPE":"Office","HEALTH_TYP":"Camp Facility","OPERATOR":"ACTED","IS_CONSTRU":null,"DISTRICT":10,"NAME_EN":"ACTED Site Office","NAME_AR":"مكاتب اكتد","HOURS_EN":null,"HOURS_AR":null,"HEALTH_EN":null,"HEALTH_AR":null,"EMERGENCY":null,"REPRODUCTI":null,"MALNUTRITI":null,"VACCINATIO":null,"ACUTE_COND":null,"ORT":null,"GBV":null,"DENTIST":null,"PSYCHOTHER":null,"SECONDARY":null,"PHYSIOTHER":null}},{"type":"MultiPolygon","arcs":[[[106]]],"properties":{"OBJECTID_1":74,"TYPE":"Water Facilities","HEALTH_TYP":"Camp Facility","OPERATOR":"Bab Al Amood","IS_CONSTRU":null,"DISTRICT":10,"NAME_EN":"Borehole 1","NAME_AR":"البئر 1","HOURS_EN":null,"HOURS_AR":null,"HEALTH_EN":null,"HEALTH_AR":null,"EMERGENCY":null,"REPRODUCTI":null,"MALNUTRITI":null,"VACCINATIO":null,"ACUTE_COND":null,"ORT":null,"GBV":null,"DENTIST":null,"PSYCHOTHER":null,"SECONDARY":null,"PHYSIOTHER":null}},{"type":"MultiPolygon","arcs":[[[107]],[[108]]],"properties":{"OBJECTID_1":75,"TYPE":"Youth Center","HEALTH_TYP":"Camp Facility","OPERATOR":"IMC","IS_CONSTRU":null,"DISTRICT":10,"NAME_EN":"IMC AFS 3 Jupiter","NAME_AR":"IMC المشتري","HOURS_EN":null,"HOURS_AR":null,"HEALTH_EN":null,"HEALTH_AR":null,"EMERGENCY":null,"REPRODUCTI":null,"MALNUTRITI":null,"VACCINATIO":null,"ACUTE_COND":null,"ORT":null,"GBV":null,"DENTIST":null,"PSYCHOTHER":null,"SECONDARY":null,"PHYSIOTHER":null}},{"type":"MultiPolygon","arcs":[[[109]]],"properties":{"OBJECTID_1":76,"TYPE":"Community Center","HEALTH_TYP":"Camp Facility with Health Services","OPERATOR":"SCJ","IS_CONSTRU":null,"DISTRICT":3,"NAME_EN":"SCJ","NAME_AR":"حماية الطفل الاردنيه","HOURS_EN":"9:00am-3:00pm (Sun-Thu)","HOURS_AR":"9:00am-3:00pm (Sun-Thu)","HEALTH_EN":"malnutrition screening, reproductive care, young children support","HEALTH_AR":"malnutrition screening, reproductive care, young children support","EMERGENCY":"N","REPRODUCTI":"Y","MALNUTRITI":"Y","VACCINATIO":"N","ACUTE_COND":"N","ORT":"N","GBV":"N","DENTIST":"N","PSYCHOTHER":"N","SECONDARY":"N","PHYSIOTHER":"N"}},{"type":"MultiPolygon","arcs":[[[110]]],"properties":{"OBJECTID_1":77,"TYPE":"Recreation","HEALTH_TYP":"Camp Facility","OPERATOR":"IRD","IS_CONSTRU":null,"DISTRICT":9,"NAME_EN":"IRD Play Area","NAME_AR":"IRD ملعب","HOURS_EN":null,"HOURS_AR":null,"HEALTH_EN":null,"HEALTH_AR":null,"EMERGENCY":null,"REPRODUCTI":null,"MALNUTRITI":null,"VACCINATIO":null,"ACUTE_COND":null,"ORT":null,"GBV":null,"DENTIST":null,"PSYCHOTHER":null,"SECONDARY":null,"PHYSIOTHER":null}},{"type":"MultiPolygon","arcs":[[[111]]],"properties":{"OBJECTID_1":78,"TYPE":"Community Center","HEALTH_TYP":"Camp Facility","OPERATOR":"ACTED","IS_CONSTRU":null,"DISTRICT":9,"NAME_EN":"ACTED Orange","NAME_AR":"اكتد مكتب اجتماعي","HOURS_EN":null,"HOURS_AR":null,"HEALTH_EN":null,"HEALTH_AR":null,"EMERGENCY":null,"REPRODUCTI":null,"MALNUTRITI":null,"VACCINATIO":null,"ACUTE_COND":null,"ORT":null,"GBV":null,"DENTIST":null,"PSYCHOTHER":null,"SECONDARY":null,"PHYSIOTHER":null}},{"type":"MultiPolygon","arcs":[[[-81,112]]],"properties":{"OBJECTID_1":79,"TYPE":"Health","HEALTH_TYP":"Camp Facility","OPERATOR":"Qatari Red Crescent","IS_CONSTRU":null,"DISTRICT":5,"NAME_EN":"Qatari Red Crescent Psycho-Social Support","NAME_AR":"عيادات شاملة","HOURS_EN":null,"HOURS_AR":null,"HEALTH_EN":null,"HEALTH_AR":null,"EMERGENCY":null,"REPRODUCTI":null,"MALNUTRITI":null,"VACCINATIO":null,"ACUTE_COND":null,"ORT":null,"GBV":null,"DENTIST":null,"PSYCHOTHER":null,"SECONDARY":null,"PHYSIOTHER":null}},{"type":"MultiPolygon","arcs":[[[113]]],"properties":{"OBJECTID_1":80,"TYPE":"Community Center","HEALTH_TYP":"Camp Facility","OPERATOR":"JEN","IS_CONSTRU":null,"DISTRICT":5,"NAME_EN":"JEN","NAME_AR":"JENمركز اجتماعي","HOURS_EN":null,"HOURS_AR":null,"HEALTH_EN":null,"HEALTH_AR":null,"EMERGENCY":null,"REPRODUCTI":null,"MALNUTRITI":null,"VACCINATIO":null,"ACUTE_COND":null,"ORT":null,"GBV":null,"DENTIST":null,"PSYCHOTHER":null,"SECONDARY":null,"PHYSIOTHER":null}},{"type":"MultiPolygon","arcs":[[[114,115]]],"properties":{"OBJECTID_1":81,"TYPE":"Child Friendly Space","HEALTH_TYP":"Camp Facility","OPERATOR":"SCI","IS_CONSTRU":null,"DISTRICT":5,"NAME_EN":"CFS Orange","NAME_AR":"حماية الطفل اورانج","HOURS_EN":null,"HOURS_AR":null,"HEALTH_EN":null,"HEALTH_AR":null,"EMERGENCY":null,"REPRODUCTI":null,"MALNUTRITI":null,"VACCINATIO":null,"ACUTE_COND":null,"ORT":null,"GBV":null,"DENTIST":null,"PSYCHOTHER":null,"SECONDARY":null,"PHYSIOTHER":null}},{"type":"MultiPolygon","arcs":[[[116]]],"properties":{"OBJECTID_1":82,"TYPE":"Recreation","HEALTH_TYP":"Camp Facility","OPERATOR":"IRD","IS_CONSTRU":null,"DISTRICT":5,"NAME_EN":"IRD Play Area","NAME_AR":"IRD ملعب","HOURS_EN":null,"HOURS_AR":null,"HEALTH_EN":null,"HEALTH_AR":null,"EMERGENCY":null,"REPRODUCTI":null,"MALNUTRITI":null,"VACCINATIO":null,"ACUTE_COND":null,"ORT":null,"GBV":null,"DENTIST":null,"PSYCHOTHER":null,"SECONDARY":null,"PHYSIOTHER":null}},{"type":"MultiPolygon","arcs":[[[117]]],"properties":{"OBJECTID_1":83,"TYPE":"Community Office","HEALTH_TYP":"Camp Facility","OPERATOR":"IRC","IS_CONSTRU":null,"DISTRICT":4,"NAME_EN":"IRC Transit Center","NAME_AR":"مكتب اجتماعي IRC","HOURS_EN":null,"HOURS_AR":null,"HEALTH_EN":null,"HEALTH_AR":null,"EMERGENCY":null,"REPRODUCTI":null,"MALNUTRITI":null,"VACCINATIO":null,"ACUTE_COND":null,"ORT":null,"GBV":null,"DENTIST":null,"PSYCHOTHER":null,"SECONDARY":null,"PHYSIOTHER":null}},{"type":"MultiPolygon","arcs":[[[118,-97,-62]]],"properties":{"OBJECTID_1":84,"TYPE":"Health","HEALTH_TYP":"Healthcare Facility","OPERATOR":"UNHCR/Noor Hussein Foundation","IS_CONSTRU":null,"DISTRICT":4,"NAME_EN":"Noor Hussein Shared Centre","NAME_AR":"نور الحسين","HOURS_EN":"9:00am-4:00pm (Sun-Thu)","HOURS_AR":"9:00am-4:00pm (Sun-Thu)","HEALTH_EN":"family planning, gender-based violence support, reproductive care","HEALTH_AR":"family planning, gender-based violence support, reproductive care","EMERGENCY":"N","REPRODUCTI":"Y","MALNUTRITI":"N","VACCINATIO":"N","ACUTE_COND":"N","ORT":"N","GBV":"Y","DENTIST":"N","PSYCHOTHER":"N","SECONDARY":"N","PHYSIOTHER":"N"}},{"type":"MultiPolygon","arcs":[[[119,120]]],"properties":{"OBJECTID_1":85,"TYPE":"Youth Center","HEALTH_TYP":"Camp Facility","OPERATOR":"Save the Children International","IS_CONSTRU":null,"DISTRICT":4,"NAME_EN":"Questscope-UNFPA Youth Center","NAME_AR":"مركز شبابي مؤسسة كويست سكوب وصندوق الأمم المتحدة للسكان","HOURS_EN":null,"HOURS_AR":null,"HEALTH_EN":null,"HEALTH_AR":null,"EMERGENCY":null,"REPRODUCTI":null,"MALNUTRITI":null,"VACCINATIO":null,"ACUTE_COND":null,"ORT":null,"GBV":null,"DENTIST":null,"PSYCHOTHER":null,"SECONDARY":null,"PHYSIOTHER":null}},{"type":"MultiPolygon","arcs":[[[121]]],"properties":{"OBJECTID_1":86,"TYPE":"Vacant","HEALTH_TYP":"Camp Facility","OPERATOR":"Vacant","IS_CONSTRU":null,"DISTRICT":6,"NAME_EN":"Vacant","NAME_AR":"مساحة شاغرة","HOURS_EN":null,"HOURS_AR":null,"HEALTH_EN":null,"HEALTH_AR":null,"EMERGENCY":null,"REPRODUCTI":null,"MALNUTRITI":null,"VACCINATIO":null,"ACUTE_COND":null,"ORT":null,"GBV":null,"DENTIST":null,"PSYCHOTHER":null,"SECONDARY":null,"PHYSIOTHER":null}},{"type":"MultiPolygon","arcs":[[[122]]],"properties":{"OBJECTID_1":87,"TYPE":"Recreation","HEALTH_TYP":"Camp Facility","OPERATOR":"IRD","IS_CONSTRU":null,"DISTRICT":8,"NAME_EN":"IRD Play Area","NAME_AR":"IRD ملعب","HOURS_EN":null,"HOURS_AR":null,"HEALTH_EN":null,"HEALTH_AR":null,"EMERGENCY":null,"REPRODUCTI":null,"MALNUTRITI":null,"VACCINATIO":null,"ACUTE_COND":null,"ORT":null,"GBV":null,"DENTIST":null,"PSYCHOTHER":null,"SECONDARY":null,"PHYSIOTHER":null}},{"type":"MultiPolygon","arcs":[[[123]]],"properties":{"OBJECTID_1":88,"TYPE":"Youth Center","HEALTH_TYP":"Camp Facility","OPERATOR":"SCI","IS_CONSTRU":null,"DISTRICT":8,"NAME_EN":"Multiactivity Centre 4 Female","NAME_AR":"مركز النشاطات للبنات 4","HOURS_EN":null,"HOURS_AR":null,"HEALTH_EN":null,"HEALTH_AR":null,"EMERGENCY":null,"REPRODUCTI":null,"MALNUTRITI":null,"VACCINATIO":null,"ACUTE_COND":null,"ORT":null,"GBV":null,"DENTIST":null,"PSYCHOTHER":null,"SECONDARY":null,"PHYSIOTHER":null}},{"type":"MultiPolygon","arcs":[[[124]]],"properties":{"OBJECTID_1":89,"TYPE":"Recreation","HEALTH_TYP":"Camp Facility","OPERATOR":"IRD","IS_CONSTRU":null,"DISTRICT":12,"NAME_EN":"IRD Play Area","NAME_AR":"IRD ملعب","HOURS_EN":null,"HOURS_AR":null,"HEALTH_EN":null,"HEALTH_AR":null,"EMERGENCY":null,"REPRODUCTI":null,"MALNUTRITI":null,"VACCINATIO":null,"ACUTE_COND":null,"ORT":null,"GBV":null,"DENTIST":null,"PSYCHOTHER":null,"SECONDARY":null,"PHYSIOTHER":null}},{"type":"MultiPolygon","arcs":[[[125]]],"properties":{"OBJECTID_1":90,"TYPE":"Water Facilities","HEALTH_TYP":"Camp Facility","OPERATOR":"Bab Al Amood","IS_CONSTRU":null,"DISTRICT":8,"NAME_EN":"Borehole 2","NAME_AR":"البئر 2","HOURS_EN":null,"HOURS_AR":null,"HEALTH_EN":null,"HEALTH_AR":null,"EMERGENCY":null,"REPRODUCTI":null,"MALNUTRITI":null,"VACCINATIO":null,"ACUTE_COND":null,"ORT":null,"GBV":null,"DENTIST":null,"PSYCHOTHER":null,"SECONDARY":null,"PHYSIOTHER":null}},{"type":"MultiPolygon","arcs":[[[126]]],"properties":{"OBJECTID_1":91,"TYPE":"Youth Center","HEALTH_TYP":"Camp Facility","OPERATOR":"NRC","IS_CONSTRU":null,"DISTRICT":10,"NAME_EN":"NRC Education Centre","NAME_AR":"المدرسة النرويجية","HOURS_EN":null,"HOURS_AR":null,"HEALTH_EN":null,"HEALTH_AR":null,"EMERGENCY":null,"REPRODUCTI":null,"MALNUTRITI":null,"VACCINATIO":null,"ACUTE_COND":null,"ORT":null,"GBV":null,"DENTIST":null,"PSYCHOTHER":null,"SECONDARY":null,"PHYSIOTHER":null}},{"type":"MultiPolygon","arcs":[[[127,128]]],"properties":{"OBJECTID_1":92,"TYPE":"Vacant","HEALTH_TYP":"Camp Facility","OPERATOR":"Vacant","IS_CONSTRU":null,"DISTRICT":10,"NAME_EN":"Vacant","NAME_AR":"مساحة شاغرة","HOURS_EN":null,"HOURS_AR":null,"HEALTH_EN":null,"HEALTH_AR":null,"EMERGENCY":null,"REPRODUCTI":null,"MALNUTRITI":null,"VACCINATIO":null,"ACUTE_COND":null,"ORT":null,"GBV":null,"DENTIST":null,"PSYCHOTHER":null,"SECONDARY":null,"PHYSIOTHER":null}},{"type":"MultiPolygon","arcs":[[[129]]],"properties":{"OBJECTID_1":93,"TYPE":"Distribution Point","HEALTH_TYP":"Camp Facility","OPERATOR":"WFP","IS_CONSTRU":null,"DISTRICT":11,"NAME_EN":"WFP Vouchers Exchange Center","NAME_AR":"صرف كوبونات WFP","HOURS_EN":null,"HOURS_AR":null,"HEALTH_EN":null,"HEALTH_AR":null,"EMERGENCY":null,"REPRODUCTI":null,"MALNUTRITI":null,"VACCINATIO":null,"ACUTE_COND":null,"ORT":null,"GBV":null,"DENTIST":null,"PSYCHOTHER":null,"SECONDARY":null,"PHYSIOTHER":null}},{"type":"MultiPolygon","arcs":[[[130]]],"properties":{"OBJECTID_1":94,"TYPE":"Distribution Point","HEALTH_TYP":"Camp Facility","OPERATOR":"WFP","IS_CONSTRU":null,"DISTRICT":11,"NAME_EN":"WFP Bread Distribution","NAME_AR":"مركز توزيع الخبز WFP","HOURS_EN":null,"HOURS_AR":null,"HEALTH_EN":null,"HEALTH_AR":null,"EMERGENCY":null,"REPRODUCTI":null,"MALNUTRITI":null,"VACCINATIO":null,"ACUTE_COND":null,"ORT":null,"GBV":null,"DENTIST":null,"PSYCHOTHER":null,"SECONDARY":null,"PHYSIOTHER":null}},{"type":"MultiPolygon","arcs":[[[131,132,133,134]]],"properties":{"OBJECTID_1":95,"TYPE":"Health","HEALTH_TYP":"Healthcare Facility","OPERATOR":"IMC","IS_CONSTRU":null,"DISTRICT":5,"NAME_EN":"IMC Mental Health","NAME_AR":"عيادات شاملة IMC","HOURS_EN":"9:00am-4:00pm (Sun-Thu)","HOURS_AR":"9:00am-4:00pm (Sun-Thu)","HEALTH_EN":"psychiatrist, psychologist","HEALTH_AR":"psychiatrist, psychologist","EMERGENCY":"N","REPRODUCTI":"N","MALNUTRITI":"N","VACCINATIO":"N","ACUTE_COND":"N","ORT":"N","GBV":"N","DENTIST":"N","PSYCHOTHER":"Y","SECONDARY":"Y","PHYSIOTHER":"N"}},{"type":"MultiPolygon","arcs":[[[135,-132,136]]],"properties":{"OBJECTID_1":96,"TYPE":"Health","HEALTH_TYP":"Healthcare Facility","OPERATOR":"MDM","IS_CONSTRU":null,"DISTRICT":5,"NAME_EN":"IRC PHC","NAME_AR":"اطباء حول العالم","HOURS_EN":"8:30am-4:00pm (Sat-Thu)","HOURS_AR":"8:30am-4:00pm (Sat-Thu)","HEALTH_EN":"acute and chronic condition management, ante and post-natal care, family planning, GP, internal medicine, management of chronic disease, ORT, vaccination.","HEALTH_AR":"acute and chronic condition management, ante and post-natal care, family planning, GP, internal medicine, management of chronic disease, ORT, vaccination.","EMERGENCY":"N","REPRODUCTI":"Y","MALNUTRITI":"N","VACCINATIO":"Y","ACUTE_COND":"Y","ORT":"Y","GBV":"N","DENTIST":"N","PSYCHOTHER":"Y","SECONDARY":"N","PHYSIOTHER":"N"}},{"type":"MultiPolygon","arcs":[[[137,-133,-136,138]]],"properties":{"OBJECTID_1":97,"TYPE":"Health","HEALTH_TYP":"Healthcare Facility","OPERATOR":"HI","IS_CONSTRU":null,"DISTRICT":5,"NAME_EN":"HANDICAP","NAME_AR":"عيادة الاحتياجات الخاصة","HOURS_EN":"9:00am-3:00pm (Sun-Thu)","HOURS_AR":"9:00am-3:00pm (Sun-Thu)","HEALTH_EN":"disability support, physiotherapist, psychotherapy","HEALTH_AR":"disability support, physiotherapist, psychotherapy","EMERGENCY":"N","REPRODUCTI":"Y","MALNUTRITI":"N","VACCINATIO":"N","ACUTE_COND":"N","ORT":"N","GBV":"N","DENTIST":"N","PSYCHOTHER":"Y","SECONDARY":"Y","PHYSIOTHER":"Y"}},{"type":"MultiPolygon","arcs":[[[139]]],"properties":{"OBJECTID_1":98,"TYPE":"Community Center","HEALTH_TYP":"Camp Facility","OPERATOR":"IRD","IS_CONSTRU":null,"DISTRICT":6,"NAME_EN":"IRD","NAME_AR":"مركز اجتماعي IRD","HOURS_EN":null,"HOURS_AR":null,"HEALTH_EN":null,"HEALTH_AR":null,"EMERGENCY":null,"REPRODUCTI":null,"MALNUTRITI":null,"VACCINATIO":null,"ACUTE_COND":null,"ORT":null,"GBV":null,"DENTIST":null,"PSYCHOTHER":null,"SECONDARY":null,"PHYSIOTHER":null}},{"type":"MultiPolygon","arcs":[[[140,-128,141,142,143]]],"properties":{"OBJECTID_1":99,"TYPE":"Youth Center","HEALTH_TYP":"Camp Facility","OPERATOR":"NRC","IS_CONSTRU":null,"DISTRICT":10,"NAME_EN":"Youth Programing Zaatari Camp","NAME_AR":"مركز الشباب NRC","HOURS_EN":null,"HOURS_AR":null,"HEALTH_EN":null,"HEALTH_AR":null,"EMERGENCY":null,"REPRODUCTI":null,"MALNUTRITI":null,"VACCINATIO":null,"ACUTE_COND":null,"ORT":null,"GBV":null,"DENTIST":null,"PSYCHOTHER":null,"SECONDARY":null,"PHYSIOTHER":null}},{"type":"MultiPolygon","arcs":[[[144,145,146]]],"properties":{"OBJECTID_1":100,"TYPE":"Office","HEALTH_TYP":"Camp Facility with Health Services","OPERATOR":"ICRC","IS_CONSTRU":null,"DISTRICT":5,"NAME_EN":"ICRC","NAME_AR":"اللجنة الدولية للصليب الاح","HOURS_EN":"9:00am-3:00pm (Sun-Thu)","HOURS_AR":"9:00am-3:00pm (Sun-Thu)","HEALTH_EN":"first aid training centre","HEALTH_AR":"first aid training centre","EMERGENCY":"N","REPRODUCTI":"N","MALNUTRITI":"N","VACCINATIO":"N","ACUTE_COND":"N","ORT":"N","GBV":"N","DENTIST":"N","PSYCHOTHER":"N","SECONDARY":"N","PHYSIOTHER":"N"}},{"type":"MultiPolygon","arcs":[[[147]]],"properties":{"OBJECTID_1":101,"TYPE":"Distribution Point","HEALTH_TYP":"Camp Facility","OPERATOR":"WFP","IS_CONSTRU":null,"DISTRICT":8,"NAME_EN":"WFP Distribution Centre","NAME_AR":"مركز توزيع WFP","HOURS_EN":null,"HOURS_AR":null,"HEALTH_EN":null,"HEALTH_AR":null,"EMERGENCY":null,"REPRODUCTI":null,"MALNUTRITI":null,"VACCINATIO":null,"ACUTE_COND":null,"ORT":null,"GBV":null,"DENTIST":null,"PSYCHOTHER":null,"SECONDARY":null,"PHYSIOTHER":null}},{"type":"MultiPolygon","arcs":[[[148]]],"properties":{"OBJECTID_1":102,"TYPE":"Community Center","HEALTH_TYP":"Camp Facility with Health Services","OPERATOR":"UNFPA/Noor Hussein Foundation","IS_CONSTRU":null,"DISTRICT":8,"NAME_EN":"JHAS RH & Noor Hussein","NAME_AR":"مركز المراه نور الحسين","HOURS_EN":"9:00am-4:00pm (Sun-Thu)","HOURS_AR":"9:00am-4:00pm (Sun-Thu)","HEALTH_EN":"JHAS RH: ante and post-natal care, family planning, reproductive care, vaccination. IFH/NHF: family planning, gender-based violence support, reproductive care.","HEALTH_AR":"JHAS RH: ante and post-natal care, family planning, reproductive care, vaccination. IFH/NHF: family planning, gender-based violence support, reproductive care.","EMERGENCY":"N","REPRODUCTI":"Y","MALNUTRITI":"N","VACCINATIO":"Y","ACUTE_COND":"N","ORT":"N","GBV":"Y","DENTIST":"N","PSYCHOTHER":"N","SECONDARY":"N","PHYSIOTHER":"N"}},{"type":"MultiPolygon","arcs":[[[149]]],"properties":{"OBJECTID_1":103,"TYPE":"Playground","HEALTH_TYP":"Camp Facility","OPERATOR":"UNICEF","IS_CONSTRU":null,"DISTRICT":8,"NAME_EN":"Mercy Corps Playground M7","NAME_AR":"منطقة لعب ميرسي كورM7","HOURS_EN":null,"HOURS_AR":null,"HEALTH_EN":null,"HEALTH_AR":null,"EMERGENCY":null,"REPRODUCTI":null,"MALNUTRITI":null,"VACCINATIO":null,"ACUTE_COND":null,"ORT":null,"GBV":null,"DENTIST":null,"PSYCHOTHER":null,"SECONDARY":null,"PHYSIOTHER":null}},{"type":"MultiPolygon","arcs":[[[150]]],"properties":{"OBJECTID_1":104,"TYPE":"Distribution Point","HEALTH_TYP":"Camp Facility","OPERATOR":"Imdad","IS_CONSTRU":null,"DISTRICT":11,"NAME_EN":"Imdad Bakery","NAME_AR":"مخبز امداد","HOURS_EN":null,"HOURS_AR":null,"HEALTH_EN":null,"HEALTH_AR":null,"EMERGENCY":null,"REPRODUCTI":null,"MALNUTRITI":null,"VACCINATIO":null,"ACUTE_COND":null,"ORT":null,"GBV":null,"DENTIST":null,"PSYCHOTHER":null,"SECONDARY":null,"PHYSIOTHER":null}},{"type":"MultiPolygon","arcs":[[[151,-43,152]]],"properties":{"OBJECTID_1":105,"TYPE":"Office","HEALTH_TYP":"Camp Facility","OPERATOR":"UNHCR","IS_CONSTRU":null,"DISTRICT":3,"NAME_EN":"Bail Out Office","NAME_AR":"مركز الكفالات","HOURS_EN":null,"HOURS_AR":null,"HEALTH_EN":null,"HEALTH_AR":null,"EMERGENCY":null,"REPRODUCTI":null,"MALNUTRITI":null,"VACCINATIO":null,"ACUTE_COND":null,"ORT":null,"GBV":null,"DENTIST":null,"PSYCHOTHER":null,"SECONDARY":null,"PHYSIOTHER":null}},{"type":"MultiPolygon","arcs":[[[153,154,-36]]],"properties":{"OBJECTID_1":106,"TYPE":"Registration","HEALTH_TYP":"Camp Facility","OPERATOR":"IRC","IS_CONSTRU":null,"DISTRICT":3,"NAME_EN":"IRC Reception","NAME_AR":"مكاتب الاستقبال IRC","HOURS_EN":null,"HOURS_AR":null,"HEALTH_EN":null,"HEALTH_AR":null,"EMERGENCY":null,"REPRODUCTI":null,"MALNUTRITI":null,"VACCINATIO":null,"ACUTE_COND":null,"ORT":null,"GBV":null,"DENTIST":null,"PSYCHOTHER":null,"SECONDARY":null,"PHYSIOTHER":null}},{"type":"MultiPolygon","arcs":[[[155,156]]],"properties":{"OBJECTID_1":107,"TYPE":"Warehouse","HEALTH_TYP":"Camp Facility","OPERATOR":"UNICEF","IS_CONSTRU":null,"DISTRICT":1,"NAME_EN":"Open Hands","NAME_AR":"اليد المفتوحه","HOURS_EN":null,"HOURS_AR":null,"HEALTH_EN":null,"HEALTH_AR":null,"EMERGENCY":null,"REPRODUCTI":null,"MALNUTRITI":null,"VACCINATIO":null,"ACUTE_COND":null,"ORT":null,"GBV":null,"DENTIST":null,"PSYCHOTHER":null,"SECONDARY":null,"PHYSIOTHER":null}},{"type":"MultiPolygon","arcs":[[[157]]],"properties":{"OBJECTID_1":108,"TYPE":"Community Center","HEALTH_TYP":"Camp Facility","OPERATOR":"SCJ","IS_CONSTRU":null,"DISTRICT":8,"NAME_EN":"SCJ","NAME_AR":"حماية الطفل الاردنيه","HOURS_EN":null,"HOURS_AR":null,"HEALTH_EN":null,"HEALTH_AR":null,"EMERGENCY":null,"REPRODUCTI":null,"MALNUTRITI":null,"VACCINATIO":null,"ACUTE_COND":null,"ORT":null,"GBV":null,"DENTIST":null,"PSYCHOTHER":null,"SECONDARY":null,"PHYSIOTHER":null}},{"type":"MultiPolygon","arcs":[[[158]]],"properties":{"OBJECTID_1":109,"TYPE":"Child Friendly Space","HEALTH_TYP":"Camp Facility with Health Services","OPERATOR":"SCJ","IS_CONSTRU":null,"DISTRICT":5,"NAME_EN":"SCJ","NAME_AR":"مساحة صديقة للطفل","HOURS_EN":"9:00am-3:00pm (Sun-Thu)","HOURS_AR":"9:00am-3:00pm (Sun-Thu)","HEALTH_EN":"malnutrition screening, reproductive care, young children support","HEALTH_AR":"malnutrition screening, reproductive care, young children support","EMERGENCY":"N","REPRODUCTI":"Y","MALNUTRITI":"Y","VACCINATIO":"N","ACUTE_COND":"N","ORT":"N","GBV":"N","DENTIST":"N","PSYCHOTHER":"N","SECONDARY":"N","PHYSIOTHER":"N"}},{"type":"MultiPolygon","arcs":[[[159]]],"properties":{"OBJECTID_1":110,"TYPE":"Child Friendly Space","HEALTH_TYP":"Camp Facility","OPERATOR":"SCI","IS_CONSTRU":null,"DISTRICT":8,"NAME_EN":"CFS R","NAME_AR":"مساحة صديقة للطفل","HOURS_EN":null,"HOURS_AR":null,"HEALTH_EN":null,"HEALTH_AR":null,"EMERGENCY":null,"REPRODUCTI":null,"MALNUTRITI":null,"VACCINATIO":null,"ACUTE_COND":null,"ORT":null,"GBV":null,"DENTIST":null,"PSYCHOTHER":null,"SECONDARY":null,"PHYSIOTHER":null}},{"type":"MultiPolygon","arcs":[[[-134,-138,160]]],"properties":{"OBJECTID_1":111,"TYPE":"Youth Center","HEALTH_TYP":"Camp Facility","OPERATOR":"LWF","IS_CONSTRU":null,"DISTRICT":5,"NAME_EN":"LWF","NAME_AR":"LWF","HOURS_EN":null,"HOURS_AR":null,"HEALTH_EN":null,"HEALTH_AR":null,"EMERGENCY":null,"REPRODUCTI":null,"MALNUTRITI":null,"VACCINATIO":null,"ACUTE_COND":null,"ORT":null,"GBV":null,"DENTIST":null,"PSYCHOTHER":null,"SECONDARY":null,"PHYSIOTHER":null}},{"type":"MultiPolygon","arcs":[[[161,162]]],"properties":{"OBJECTID_1":112,"TYPE":"Health","HEALTH_TYP":"Camp Facility","OPERATOR":null,"IS_CONSTRU":null,"DISTRICT":5,"NAME_EN":"Holy Land","NAME_AR":"مركز الاراضي المقدسة","HOURS_EN":null,"HOURS_AR":null,"HEALTH_EN":null,"HEALTH_AR":null,"EMERGENCY":null,"REPRODUCTI":null,"MALNUTRITI":null,"VACCINATIO":null,"ACUTE_COND":null,"ORT":null,"GBV":null,"DENTIST":null,"PSYCHOTHER":null,"SECONDARY":null,"PHYSIOTHER":null}},{"type":"MultiPolygon","arcs":[[[163]]],"properties":{"OBJECTID_1":113,"TYPE":"School","HEALTH_TYP":"Camp Facility","OPERATOR":"UNICEF","IS_CONSTRU":null,"DISTRICT":12,"NAME_EN":"School 7 (Kuwait)","NAME_AR":"المدرسة الكويتية 2","HOURS_EN":null,"HOURS_AR":null,"HEALTH_EN":null,"HEALTH_AR":null,"EMERGENCY":null,"REPRODUCTI":null,"MALNUTRITI":null,"VACCINATIO":null,"ACUTE_COND":null,"ORT":null,"GBV":null,"DENTIST":null,"PSYCHOTHER":null,"SECONDARY":null,"PHYSIOTHER":null}},{"type":"MultiPolygon","arcs":[[[164]]],"properties":{"OBJECTID_1":114,"TYPE":"Security","HEALTH_TYP":"Camp Facility","OPERATOR":"Police","IS_CONSTRU":null,"DISTRICT":11,"NAME_EN":"Police Substation 2","NAME_AR":"مركز الشرطة الفرعية 2","HOURS_EN":null,"HOURS_AR":null,"HEALTH_EN":null,"HEALTH_AR":null,"EMERGENCY":null,"REPRODUCTI":null,"MALNUTRITI":null,"VACCINATIO":null,"ACUTE_COND":null,"ORT":null,"GBV":null,"DENTIST":null,"PSYCHOTHER":null,"SECONDARY":null,"PHYSIOTHER":null}},{"type":"MultiPolygon","arcs":[[[165]]],"properties":{"OBJECTID_1":115,"TYPE":"Vacant","HEALTH_TYP":"Camp Facility","OPERATOR":null,"IS_CONSTRU":null,"DISTRICT":10,"NAME_EN":"Vacant","NAME_AR":"مساحة شاغرة","HOURS_EN":null,"HOURS_AR":null,"HEALTH_EN":null,"HEALTH_AR":null,"EMERGENCY":null,"REPRODUCTI":null,"MALNUTRITI":null,"VACCINATIO":null,"ACUTE_COND":null,"ORT":null,"GBV":null,"DENTIST":null,"PSYCHOTHER":null,"SECONDARY":null,"PHYSIOTHER":null}},{"type":"MultiPolygon","arcs":[[[166]]],"properties":{"OBJECTID_1":116,"TYPE":"Recreation","HEALTH_TYP":"Camp Facility","OPERATOR":null,"IS_CONSTRU":null,"DISTRICT":9,"NAME_EN":"Norway Football Field","NAME_AR":"الملعب النرويجي","HOURS_EN":null,"HOURS_AR":null,"HEALTH_EN":null,"HEALTH_AR":null,"EMERGENCY":null,"REPRODUCTI":null,"MALNUTRITI":null,"VACCINATIO":null,"ACUTE_COND":null,"ORT":null,"GBV":null,"DENTIST":null,"PSYCHOTHER":null,"SECONDARY":null,"PHYSIOTHER":null}},{"type":"MultiPolygon","arcs":[[[167]]],"properties":{"OBJECTID_1":117,"TYPE":"School","HEALTH_TYP":"Camp Facility","OPERATOR":"UNICEF","IS_CONSTRU":"Y","DISTRICT":3,"NAME_EN":"UNICEF School","NAME_AR":"مدرسة اليونيسيف","HOURS_EN":null,"HOURS_AR":null,"HEALTH_EN":null,"HEALTH_AR":null,"EMERGENCY":null,"REPRODUCTI":null,"MALNUTRITI":null,"VACCINATIO":null,"ACUTE_COND":null,"ORT":null,"GBV":null,"DENTIST":null,"PSYCHOTHER":null,"SECONDARY":null,"PHYSIOTHER":null}},{"type":"MultiPolygon","arcs":[[[168]]],"properties":{"OBJECTID_1":118,"TYPE":"Distribution Point","HEALTH_TYP":"Camp Facility","OPERATOR":"NRC","IS_CONSTRU":null,"DISTRICT":6,"NAME_EN":"NRC Distribution Point","NAME_AR":"النرويجية","HOURS_EN":null,"HOURS_AR":null,"HEALTH_EN":null,"HEALTH_AR":null,"EMERGENCY":null,"REPRODUCTI":null,"MALNUTRITI":null,"VACCINATIO":null,"ACUTE_COND":null,"ORT":null,"GBV":null,"DENTIST":null,"PSYCHOTHER":null,"SECONDARY":null,"PHYSIOTHER":null}},{"type":"MultiPolygon","arcs":[[[169]]],"properties":{"OBJECTID_1":119,"TYPE":"Kindergarten","HEALTH_TYP":"Camp Facility","OPERATOR":"SCJ","IS_CONSTRU":null,"DISTRICT":6,"NAME_EN":"Kindergarten","NAME_AR":"روضة أطفال","HOURS_EN":null,"HOURS_AR":null,"HEALTH_EN":null,"HEALTH_AR":null,"EMERGENCY":null,"REPRODUCTI":null,"MALNUTRITI":null,"VACCINATIO":null,"ACUTE_COND":null,"ORT":null,"GBV":null,"DENTIST":null,"PSYCHOTHER":null,"SECONDARY":null,"PHYSIOTHER":null}},{"type":"MultiPolygon","arcs":[[[170]]],"properties":{"OBJECTID_1":120,"TYPE":"Vacant","HEALTH_TYP":"Camp Facility","OPERATOR":null,"IS_CONSTRU":null,"DISTRICT":6,"NAME_EN":"Vacant","NAME_AR":"مساحة شاغرة","HOURS_EN":null,"HOURS_AR":null,"HEALTH_EN":null,"HEALTH_AR":null,"EMERGENCY":null,"REPRODUCTI":null,"MALNUTRITI":null,"VACCINATIO":null,"ACUTE_COND":null,"ORT":null,"GBV":null,"DENTIST":null,"PSYCHOTHER":null,"SECONDARY":null,"PHYSIOTHER":null}},{"type":"MultiPolygon","arcs":[[[171]]],"properties":{"OBJECTID_1":121,"TYPE":"Youth Center","HEALTH_TYP":"Camp Facility","OPERATOR":"FCA","IS_CONSTRU":null,"DISTRICT":8,"NAME_EN":"Finn Church Aid CFS","NAME_AR":"فين معونة الكنيسة","HOURS_EN":null,"HOURS_AR":null,"HEALTH_EN":null,"HEALTH_AR":null,"EMERGENCY":null,"REPRODUCTI":null,"MALNUTRITI":null,"VACCINATIO":null,"ACUTE_COND":null,"ORT":null,"GBV":null,"DENTIST":null,"PSYCHOTHER":null,"SECONDARY":null,"PHYSIOTHER":null}},{"type":"MultiPolygon","arcs":[[[172]]],"properties":{"OBJECTID_1":122,"TYPE":"Distribution Point","HEALTH_TYP":"Camp Facility","OPERATOR":"Save Way","IS_CONSTRU":null,"DISTRICT":8,"NAME_EN":"WHOLESALE Centre","NAME_AR":"صرف كوبونات","HOURS_EN":null,"HOURS_AR":null,"HEALTH_EN":null,"HEALTH_AR":null,"EMERGENCY":null,"REPRODUCTI":null,"MALNUTRITI":null,"VACCINATIO":null,"ACUTE_COND":null,"ORT":null,"GBV":null,"DENTIST":null,"PSYCHOTHER":null,"SECONDARY":null,"PHYSIOTHER":null}},{"type":"MultiPolygon","arcs":[[[173]]],"properties":{"OBJECTID_1":123,"TYPE":"Water Facilities","HEALTH_TYP":"Camp Facility","OPERATOR":"Oxfam","IS_CONSTRU":null,"DISTRICT":6,"NAME_EN":"Water Storage","NAME_AR":"تخزين مياه","HOURS_EN":null,"HOURS_AR":null,"HEALTH_EN":null,"HEALTH_AR":null,"EMERGENCY":null,"REPRODUCTI":null,"MALNUTRITI":null,"VACCINATIO":null,"ACUTE_COND":null,"ORT":null,"GBV":null,"DENTIST":null,"PSYCHOTHER":null,"SECONDARY":null,"PHYSIOTHER":null}},{"type":"MultiPolygon","arcs":[[[174]]],"properties":{"OBJECTID_1":124,"TYPE":"Vacant","HEALTH_TYP":"Camp Facility","OPERATOR":null,"IS_CONSTRU":null,"DISTRICT":1,"NAME_EN":"Vacant","NAME_AR":"مساحة شاغرة","HOURS_EN":null,"HOURS_AR":null,"HEALTH_EN":null,"HEALTH_AR":null,"EMERGENCY":null,"REPRODUCTI":null,"MALNUTRITI":null,"VACCINATIO":null,"ACUTE_COND":null,"ORT":null,"GBV":null,"DENTIST":null,"PSYCHOTHER":null,"SECONDARY":null,"PHYSIOTHER":null}},{"type":"MultiPolygon","arcs":[[[175,-147,176,177,178,-71]]],"properties":{"OBJECTID_1":125,"TYPE":"Office","HEALTH_TYP":"Healthcare Facility","OPERATOR":null,"IS_CONSTRU":null,"DISTRICT":5,"NAME_EN":"Civil Defence","NAME_AR":"الدفاع المدني","HOURS_EN":"24/7","HOURS_AR":"24/7","HEALTH_EN":"emergency","HEALTH_AR":"emergency","EMERGENCY":"Y","REPRODUCTI":"N","MALNUTRITI":"N","VACCINATIO":"N","ACUTE_COND":"N","ORT":"N","GBV":"N","DENTIST":"N","PSYCHOTHER":"N","SECONDARY":"N","PHYSIOTHER":"N"}},{"type":"MultiPolygon","arcs":[[[-177,-146,179,180]]],"properties":{"OBJECTID_1":126,"TYPE":"Office","HEALTH_TYP":"Camp Facility","OPERATOR":null,"IS_CONSTRU":null,"DISTRICT":5,"NAME_EN":"Religious Court","NAME_AR":"المحكمة الشرعية","HOURS_EN":null,"HOURS_AR":null,"HEALTH_EN":null,"HEALTH_AR":null,"EMERGENCY":null,"REPRODUCTI":null,"MALNUTRITI":null,"VACCINATIO":null,"ACUTE_COND":null,"ORT":null,"GBV":null,"DENTIST":null,"PSYCHOTHER":null,"SECONDARY":null,"PHYSIOTHER":null}},{"type":"MultiPolygon","arcs":[[[181]]],"properties":{"OBJECTID_1":127,"TYPE":"Security","HEALTH_TYP":"Camp Facility","OPERATOR":"Police","IS_CONSTRU":"Y","DISTRICT":8,"NAME_EN":"Police Substation 1","NAME_AR":"مركز الشرطة الفرعية 1","HOURS_EN":null,"HOURS_AR":null,"HEALTH_EN":null,"HEALTH_AR":null,"EMERGENCY":null,"REPRODUCTI":null,"MALNUTRITI":null,"VACCINATIO":null,"ACUTE_COND":null,"ORT":null,"GBV":null,"DENTIST":null,"PSYCHOTHER":null,"SECONDARY":null,"PHYSIOTHER":null}},{"type":"MultiPolygon","arcs":[[[182]]],"properties":{"OBJECTID_1":128,"TYPE":"Recreation","HEALTH_TYP":"Camp Facility","OPERATOR":"IRD","IS_CONSTRU":null,"DISTRICT":5,"NAME_EN":"IRD Play Area","NAME_AR":"IRD ملعب","HOURS_EN":null,"HOURS_AR":null,"HEALTH_EN":null,"HEALTH_AR":null,"EMERGENCY":null,"REPRODUCTI":null,"MALNUTRITI":null,"VACCINATIO":null,"ACUTE_COND":null,"ORT":null,"GBV":null,"DENTIST":null,"PSYCHOTHER":null,"SECONDARY":null,"PHYSIOTHER":null}},{"type":"MultiPolygon","arcs":[[[183]]],"properties":{"OBJECTID_1":129,"TYPE":"Health","HEALTH_TYP":"Healthcare Facility","OPERATOR":null,"IS_CONSTRU":null,"DISTRICT":8,"NAME_EN":"Qatari Clinic","NAME_AR":"العيادة القطرية","HOURS_EN":"9:00am-4:00pm (Sat-Wed)","HOURS_AR":"9:00am-4:00pm (Sat-Wed)","HEALTH_EN":"acute condition management, ante and post-natal care, dentist, emergency, family planning, GP, gynaecologist, malnutrition screening, ORT, paediatrician, SCJ booth, vaccination","HEALTH_AR":"acute condition management, ante and post-natal care, dentist, emergency, family planning, GP, gynaecologist, malnutrition screening, ORT, paediatrician, SCJ booth, vaccination","EMERGENCY":"Y","REPRODUCTI":"Y","MALNUTRITI":"Y","VACCINATIO":"Y","ACUTE_COND":"N","ORT":"Y","GBV":"N","DENTIST":"Y","PSYCHOTHER":"N","SECONDARY":"Y","PHYSIOTHER":"N"}},{"type":"MultiPolygon","arcs":[[[184]]],"properties":{"OBJECTID_1":130,"TYPE":"Vacant","HEALTH_TYP":"Camp Facility","OPERATOR":null,"IS_CONSTRU":null,"DISTRICT":12,"NAME_EN":"Vacant","NAME_AR":"مساحة شاغرة","HOURS_EN":null,"HOURS_AR":null,"HEALTH_EN":null,"HEALTH_AR":null,"EMERGENCY":null,"REPRODUCTI":null,"MALNUTRITI":null,"VACCINATIO":null,"ACUTE_COND":null,"ORT":null,"GBV":null,"DENTIST":null,"PSYCHOTHER":null,"SECONDARY":null,"PHYSIOTHER":null}},{"type":"MultiPolygon","arcs":[[[-144,185]]],"properties":{"OBJECTID_1":131,"TYPE":"Office","HEALTH_TYP":"Camp Facility with Health Services","OPERATOR":null,"IS_CONSTRU":null,"DISTRICT":10,"NAME_EN":"FPSC","NAME_AR":"حماية الطفل الاردنيه","HOURS_EN":"9:30am-3:30pm (Sun-Thu)","HOURS_AR":"9:30am-3:30pm (Sun-Thu)","HEALTH_EN":"mobility device support and maintenance, physiotherapy","HEALTH_AR":"mobility device support and maintenance, physiotherapy","EMERGENCY":"N","REPRODUCTI":"N","MALNUTRITI":"N","VACCINATIO":"N","ACUTE_COND":"N","ORT":"N","GBV":"N","DENTIST":"N","PSYCHOTHER":"N","SECONDARY":"Y","PHYSIOTHER":"Y"}},{"type":"MultiPolygon","arcs":[[[186]]],"properties":{"OBJECTID_1":132,"TYPE":"Vacant","HEALTH_TYP":"Camp Facility","OPERATOR":null,"IS_CONSTRU":null,"DISTRICT":10,"NAME_EN":"Vacant","NAME_AR":"مساحة شاغرة","HOURS_EN":null,"HOURS_AR":null,"HEALTH_EN":null,"HEALTH_AR":null,"EMERGENCY":null,"REPRODUCTI":null,"MALNUTRITI":null,"VACCINATIO":null,"ACUTE_COND":null,"ORT":null,"GBV":null,"DENTIST":null,"PSYCHOTHER":null,"SECONDARY":null,"PHYSIOTHER":null}},{"type":"MultiPolygon","arcs":[[[187]]],"properties":{"OBJECTID_1":133,"TYPE":"Security","HEALTH_TYP":"Camp Facility","OPERATOR":null,"IS_CONSTRU":null,"DISTRICT":7,"NAME_EN":"Returnees Bus Station","NAME_AR":"موقف باصات العودة","HOURS_EN":null,"HOURS_AR":null,"HEALTH_EN":null,"HEALTH_AR":null,"EMERGENCY":null,"REPRODUCTI":null,"MALNUTRITI":null,"VACCINATIO":null,"ACUTE_COND":null,"ORT":null,"GBV":null,"DENTIST":null,"PSYCHOTHER":null,"SECONDARY":null,"PHYSIOTHER":null}},{"type":"MultiPolygon","arcs":[[[188]]],"properties":{"OBJECTID_1":134,"TYPE":"Office","HEALTH_TYP":"Camp Facility","OPERATOR":null,"IS_CONSTRU":null,"DISTRICT":7,"NAME_EN":"Acted Water Truck Parking Station","NAME_AR":"محطة وقوف شاحنات المياه","HOURS_EN":null,"HOURS_AR":null,"HEALTH_EN":null,"HEALTH_AR":null,"EMERGENCY":null,"REPRODUCTI":null,"MALNUTRITI":null,"VACCINATIO":null,"ACUTE_COND":null,"ORT":null,"GBV":null,"DENTIST":null,"PSYCHOTHER":null,"SECONDARY":null,"PHYSIOTHER":null}},{"type":"MultiPolygon","arcs":[[[189,190,191]]],"properties":{"OBJECTID_1":135,"TYPE":"Distribution Point","HEALTH_TYP":"Camp Facility","OPERATOR":"WFP","IS_CONSTRU":null,"DISTRICT":7,"NAME_EN":"Tazweed Centre","NAME_AR":"مركز تزويد","HOURS_EN":null,"HOURS_AR":null,"HEALTH_EN":null,"HEALTH_AR":null,"EMERGENCY":null,"REPRODUCTI":null,"MALNUTRITI":null,"VACCINATIO":null,"ACUTE_COND":null,"ORT":null,"GBV":null,"DENTIST":null,"PSYCHOTHER":null,"SECONDARY":null,"PHYSIOTHER":null}},{"type":"MultiPolygon","arcs":[[[192]]],"properties":{"OBJECTID_1":136,"TYPE":"Health","HEALTH_TYP":"Healthcare Facility","OPERATOR":"JHAS","IS_CONSTRU":null,"DISTRICT":6,"NAME_EN":"JHAS PHC Centre","NAME_AR":"عيادة العون","HOURS_EN":"9:00am-4:00pm (Sat-Thu)","HOURS_AR":"9:00am-4:00pm (Sat-Thu)","HEALTH_EN":"acute and chronic condition management, emergency, GP, gynecologist, health education, lab, malnutrition screening, MMU, referrals to external hospitals, vaccination","HEALTH_AR":"acute and chronic condition management, emergency, GP, gynecologist, health education, lab, malnutrition screening, MMU, referrals to external hospitals, vaccination","EMERGENCY":"Y","REPRODUCTI":"N","MALNUTRITI":"Y","VACCINATIO":"Y","ACUTE_COND":"Y","ORT":"N","GBV":"N","DENTIST":"N","PSYCHOTHER":"N","SECONDARY":"N","PHYSIOTHER":"N"}},{"type":"MultiPolygon","arcs":[[[-116,193]]],"properties":{"OBJECTID_1":137,"TYPE":"Community Center","HEALTH_TYP":"Camp Facility","OPERATOR":null,"IS_CONSTRU":null,"DISTRICT":5,"NAME_EN":"JEN","NAME_AR":"مساحة شاغرة","HOURS_EN":null,"HOURS_AR":null,"HEALTH_EN":null,"HEALTH_AR":null,"EMERGENCY":null,"REPRODUCTI":null,"MALNUTRITI":null,"VACCINATIO":null,"ACUTE_COND":null,"ORT":null,"GBV":null,"DENTIST":null,"PSYCHOTHER":null,"SECONDARY":null,"PHYSIOTHER":null}},{"type":"MultiPolygon","arcs":[[[194,195]]],"properties":{"OBJECTID_1":138,"TYPE":"Community Center","HEALTH_TYP":"Camp Facility","OPERATOR":null,"IS_CONSTRU":null,"DISTRICT":11,"NAME_EN":"Korea Taekwondo Academy (KFHI)","NAME_AR":"مركز تدريب التكوندو","HOURS_EN":null,"HOURS_AR":null,"HEALTH_EN":null,"HEALTH_AR":null,"EMERGENCY":null,"REPRODUCTI":null,"MALNUTRITI":null,"VACCINATIO":null,"ACUTE_COND":null,"ORT":null,"GBV":null,"DENTIST":null,"PSYCHOTHER":null,"SECONDARY":null,"PHYSIOTHER":null}},{"type":"MultiPolygon","arcs":[[[196]]],"properties":{"OBJECTID_1":139,"TYPE":"Vacant","HEALTH_TYP":"Camp Facility","OPERATOR":null,"IS_CONSTRU":null,"DISTRICT":9,"NAME_EN":"Vacant","NAME_AR":"مساحة شاغرة","HOURS_EN":null,"HOURS_AR":null,"HEALTH_EN":null,"HEALTH_AR":null,"EMERGENCY":null,"REPRODUCTI":null,"MALNUTRITI":null,"VACCINATIO":null,"ACUTE_COND":null,"ORT":null,"GBV":null,"DENTIST":null,"PSYCHOTHER":null,"SECONDARY":null,"PHYSIOTHER":null}},{"type":"MultiPolygon","arcs":[[[-66,197]]],"properties":{"OBJECTID_1":140,"TYPE":"Community Office","HEALTH_TYP":"Camp Facility","OPERATOR":null,"IS_CONSTRU":null,"DISTRICT":4,"NAME_EN":"UN Women","NAME_AR":"المراة UN","HOURS_EN":null,"HOURS_AR":null,"HEALTH_EN":null,"HEALTH_AR":null,"EMERGENCY":null,"REPRODUCTI":null,"MALNUTRITI":null,"VACCINATIO":null,"ACUTE_COND":null,"ORT":null,"GBV":null,"DENTIST":null,"PSYCHOTHER":null,"SECONDARY":null,"PHYSIOTHER":null}},{"type":"MultiPolygon","arcs":[[[198]]],"properties":{"OBJECTID_1":141,"TYPE":"Community Center","HEALTH_TYP":"Camp Facility","OPERATOR":"Oxfam","IS_CONSTRU":null,"DISTRICT":7,"NAME_EN":"Oxfam C.C.","NAME_AR":"Oxfam","HOURS_EN":null,"HOURS_AR":null,"HEALTH_EN":null,"HEALTH_AR":null,"EMERGENCY":null,"REPRODUCTI":null,"MALNUTRITI":null,"VACCINATIO":null,"ACUTE_COND":null,"ORT":null,"GBV":null,"DENTIST":null,"PSYCHOTHER":null,"SECONDARY":null,"PHYSIOTHER":null}},{"type":"MultiPolygon","arcs":[[[199]]],"properties":{"OBJECTID_1":142,"TYPE":"Community Center","HEALTH_TYP":"Camp Facility","OPERATOR":"Oxfam","IS_CONSTRU":null,"DISTRICT":8,"NAME_EN":"Oxfam","NAME_AR":"Oxfam","HOURS_EN":null,"HOURS_AR":null,"HEALTH_EN":null,"HEALTH_AR":null,"EMERGENCY":null,"REPRODUCTI":null,"MALNUTRITI":null,"VACCINATIO":null,"ACUTE_COND":null,"ORT":null,"GBV":null,"DENTIST":null,"PSYCHOTHER":null,"SECONDARY":null,"PHYSIOTHER":null}},{"type":"MultiPolygon","arcs":[[[200]]],"properties":{"OBJECTID_1":143,"TYPE":"Youth Center","HEALTH_TYP":"Camp Facility","OPERATOR":"NRC","IS_CONSTRU":null,"DISTRICT":8,"NAME_EN":"NRC Youth Centre","NAME_AR":"مركز تمكين الشباب","HOURS_EN":null,"HOURS_AR":null,"HEALTH_EN":null,"HEALTH_AR":null,"EMERGENCY":null,"REPRODUCTI":null,"MALNUTRITI":null,"VACCINATIO":null,"ACUTE_COND":null,"ORT":null,"GBV":null,"DENTIST":null,"PSYCHOTHER":null,"SECONDARY":null,"PHYSIOTHER":null}},{"type":"MultiPolygon","arcs":[[[201]]],"properties":{"OBJECTID_1":144,"TYPE":"School","HEALTH_TYP":"Camp Facility","OPERATOR":"UNICEF","IS_CONSTRU":null,"DISTRICT":3,"NAME_EN":"School 6 (Kuwait)","NAME_AR":"المدرسة 6 الكويتة","HOURS_EN":null,"HOURS_AR":null,"HEALTH_EN":null,"HEALTH_AR":null,"EMERGENCY":null,"REPRODUCTI":null,"MALNUTRITI":null,"VACCINATIO":null,"ACUTE_COND":null,"ORT":null,"GBV":null,"DENTIST":null,"PSYCHOTHER":null,"SECONDARY":null,"PHYSIOTHER":null}},{"type":"MultiPolygon","arcs":[[[202]]],"properties":{"OBJECTID_1":145,"TYPE":"Health","HEALTH_TYP":"Healthcare Facility","OPERATOR":"UNICEF","IS_CONSTRU":null,"DISTRICT":3,"NAME_EN":"AMR Mother and Child Centre","NAME_AR":"AMR  مركزالأم و الطفل","HOURS_EN":"8:00am-3:00pm (Sat-Thu)","HOURS_AR":"8:00am-3:00pm (Sat-Thu)","HEALTH_EN":"acute condition management, ante and post-natal care, dentist, emergency, family planning, malnutrition screening","HEALTH_AR":"acute condition management, ante and post-natal care, dentist, emergency, family planning, malnutrition screening","EMERGENCY":"Y","REPRODUCTI":"Y","MALNUTRITI":"Y","VACCINATIO":"N","ACUTE_COND":"Y","ORT":"N","GBV":"N","DENTIST":"Y","PSYCHOTHER":"N","SECONDARY":"N","PHYSIOTHER":"N"}},{"type":"MultiPolygon","arcs":[[[203]]],"properties":{"OBJECTID_1":146,"TYPE":"Mosque","HEALTH_TYP":"Camp Facility","OPERATOR":"Kuwait","IS_CONSTRU":null,"DISTRICT":3,"NAME_EN":"Kuwaiti Mosque","NAME_AR":"المسجد الكويتي","HOURS_EN":null,"HOURS_AR":null,"HEALTH_EN":null,"HEALTH_AR":null,"EMERGENCY":null,"REPRODUCTI":null,"MALNUTRITI":null,"VACCINATIO":null,"ACUTE_COND":null,"ORT":null,"GBV":null,"DENTIST":null,"PSYCHOTHER":null,"SECONDARY":null,"PHYSIOTHER":null}},{"type":"MultiPolygon","arcs":[[[204]]],"properties":{"OBJECTID_1":147,"TYPE":"Security","HEALTH_TYP":"Camp Facility","OPERATOR":"Police","IS_CONSTRU":null,"DISTRICT":7,"NAME_EN":"Gendarmerie","NAME_AR":"الدرك","HOURS_EN":null,"HOURS_AR":null,"HEALTH_EN":null,"HEALTH_AR":null,"EMERGENCY":null,"REPRODUCTI":null,"MALNUTRITI":null,"VACCINATIO":null,"ACUTE_COND":null,"ORT":null,"GBV":null,"DENTIST":null,"PSYCHOTHER":null,"SECONDARY":null,"PHYSIOTHER":null}},{"type":"MultiPolygon","arcs":[[[205,-12]]],"properties":{"OBJECTID_1":148,"TYPE":"Playground","HEALTH_TYP":"Camp Facility","OPERATOR":"Mercy Corps","IS_CONSTRU":null,"DISTRICT":2,"NAME_EN":"Mercy Corps Playground SC-B","NAME_AR":"منطقة لعب ميرسي كورM2","HOURS_EN":null,"HOURS_AR":null,"HEALTH_EN":null,"HEALTH_AR":null,"EMERGENCY":null,"REPRODUCTI":null,"MALNUTRITI":null,"VACCINATIO":null,"ACUTE_COND":null,"ORT":null,"GBV":null,"DENTIST":null,"PSYCHOTHER":null,"SECONDARY":null,"PHYSIOTHER":null}},{"type":"MultiPolygon","arcs":[[[206]]],"properties":{"OBJECTID_1":149,"TYPE":"Warehouse","HEALTH_TYP":"Camp Facility","OPERATOR":"UNHCR","IS_CONSTRU":null,"DISTRICT":7,"NAME_EN":"UNHCR Warehouse","NAME_AR":"مستودع UNHCR","HOURS_EN":null,"HOURS_AR":null,"HEALTH_EN":null,"HEALTH_AR":null,"EMERGENCY":null,"REPRODUCTI":null,"MALNUTRITI":null,"VACCINATIO":null,"ACUTE_COND":null,"ORT":null,"GBV":null,"DENTIST":null,"PSYCHOTHER":null,"SECONDARY":null,"PHYSIOTHER":null}},{"type":"MultiPolygon","arcs":[[[207,208,209]]],"properties":{"OBJECTID_1":150,"TYPE":"Youth Center","HEALTH_TYP":"Camp Facility","OPERATOR":null,"IS_CONSTRU":null,"DISTRICT":7,"NAME_EN":"Multiactivity Centre 3 Male","NAME_AR":"مركز النشاطات للشباب 3","HOURS_EN":null,"HOURS_AR":null,"HEALTH_EN":null,"HEALTH_AR":null,"EMERGENCY":null,"REPRODUCTI":null,"MALNUTRITI":null,"VACCINATIO":null,"ACUTE_COND":null,"ORT":null,"GBV":null,"DENTIST":null,"PSYCHOTHER":null,"SECONDARY":null,"PHYSIOTHER":null}},{"type":"MultiPolygon","arcs":[[[210]]],"properties":{"OBJECTID_1":151,"TYPE":"Water Facilities","HEALTH_TYP":"Camp Facility","OPERATOR":null,"IS_CONSTRU":null,"DISTRICT":7,"NAME_EN":"Borehole 3","NAME_AR":"البئر 3","HOURS_EN":null,"HOURS_AR":null,"HEALTH_EN":null,"HEALTH_AR":null,"EMERGENCY":null,"REPRODUCTI":null,"MALNUTRITI":null,"VACCINATIO":null,"ACUTE_COND":null,"ORT":null,"GBV":null,"DENTIST":null,"PSYCHOTHER":null,"SECONDARY":null,"PHYSIOTHER":null}},{"type":"MultiPolygon","arcs":[[[211]]],"properties":{"OBJECTID_1":152,"TYPE":"Warehouse","HEALTH_TYP":"Camp Facility","OPERATOR":null,"IS_CONSTRU":null,"DISTRICT":8,"NAME_EN":"ACTED Technical Site","NAME_AR":"مركز الصيانة اكتد","HOURS_EN":null,"HOURS_AR":null,"HEALTH_EN":null,"HEALTH_AR":null,"EMERGENCY":null,"REPRODUCTI":null,"MALNUTRITI":null,"VACCINATIO":null,"ACUTE_COND":null,"ORT":null,"GBV":null,"DENTIST":null,"PSYCHOTHER":null,"SECONDARY":null,"PHYSIOTHER":null}},{"type":"MultiPolygon","arcs":[[[212]]],"properties":{"OBJECTID_1":153,"TYPE":"Water Facilities","HEALTH_TYP":"Camp Facility","OPERATOR":null,"IS_CONSTRU":null,"DISTRICT":12,"NAME_EN":"Wastewater Treatment Plant","NAME_AR":"محطة معالجة مياه الصرف الصح","HOURS_EN":null,"HOURS_AR":null,"HEALTH_EN":null,"HEALTH_AR":null,"EMERGENCY":null,"REPRODUCTI":null,"MALNUTRITI":null,"VACCINATIO":null,"ACUTE_COND":null,"ORT":null,"GBV":null,"DENTIST":null,"PSYCHOTHER":null,"SECONDARY":null,"PHYSIOTHER":null}},{"type":"MultiPolygon","arcs":[[[213]]],"properties":{"OBJECTID_1":154,"TYPE":"Community Center","HEALTH_TYP":"Camp Facility","OPERATOR":"IRD","IS_CONSTRU":null,"DISTRICT":7,"NAME_EN":"IRD","NAME_AR":"مركز اجتماعيIRD","HOURS_EN":null,"HOURS_AR":null,"HEALTH_EN":null,"HEALTH_AR":null,"EMERGENCY":null,"REPRODUCTI":null,"MALNUTRITI":null,"VACCINATIO":null,"ACUTE_COND":null,"ORT":null,"GBV":null,"DENTIST":null,"PSYCHOTHER":null,"SECONDARY":null,"PHYSIOTHER":null}},{"type":"MultiPolygon","arcs":[[[214,215]]],"properties":{"OBJECTID_1":156,"TYPE":"Warehouse","HEALTH_TYP":"Camp Facility","OPERATOR":null,"IS_CONSTRU":null,"DISTRICT":8,"NAME_EN":"Al Thajaj Water/Ice Factory","NAME_AR":"مياه الثجاج","HOURS_EN":null,"HOURS_AR":null,"HEALTH_EN":null,"HEALTH_AR":null,"EMERGENCY":null,"REPRODUCTI":null,"MALNUTRITI":null,"VACCINATIO":null,"ACUTE_COND":null,"ORT":null,"GBV":null,"DENTIST":null,"PSYCHOTHER":null,"SECONDARY":null,"PHYSIOTHER":null}},{"type":"MultiPolygon","arcs":[[[216]]],"properties":{"OBJECTID_1":157,"TYPE":"School","HEALTH_TYP":"Camp Facility","OPERATOR":null,"IS_CONSTRU":null,"DISTRICT":7,"NAME_EN":"School 5","NAME_AR":"المدرسه 5","HOURS_EN":null,"HOURS_AR":null,"HEALTH_EN":null,"HEALTH_AR":null,"EMERGENCY":null,"REPRODUCTI":null,"MALNUTRITI":null,"VACCINATIO":null,"ACUTE_COND":null,"ORT":null,"GBV":null,"DENTIST":null,"PSYCHOTHER":null,"SECONDARY":null,"PHYSIOTHER":null}},{"type":"MultiPolygon","arcs":[[[-163,217,-85,218]]],"properties":{"OBJECTID_1":158,"TYPE":"Community Center","HEALTH_TYP":"Camp Facility with Health Services","OPERATOR":"UNFPA/Noor Hussein Foundation","IS_CONSTRU":null,"DISTRICT":5,"NAME_EN":"Noor Hussein Shared Centre","NAME_AR":"مركز المراه نور الحسين","HOURS_EN":"9:00am-4:00pm (Sun-Thu)","HOURS_AR":"9:00am-4:00pm (Sun-Thu)","HEALTH_EN":"family planning, gender-based violence support, reproductive care","HEALTH_AR":"family planning, gender-based violence support, reproductive care","EMERGENCY":"N","REPRODUCTI":"Y","MALNUTRITI":"N","VACCINATIO":"N","ACUTE_COND":"N","ORT":"N","GBV":"Y","DENTIST":"N","PSYCHOTHER":"N","SECONDARY":"N","PHYSIOTHER":"N"}},{"type":"MultiPolygon","arcs":[[[219,-121]]],"properties":{"OBJECTID_1":159,"TYPE":"Youth Center","HEALTH_TYP":"Camp Facility","OPERATOR":"Save the Children International","IS_CONSTRU":null,"DISTRICT":4,"NAME_EN":"Finn Church Aid","NAME_AR":"فين معونة الكنيسة","HOURS_EN":null,"HOURS_AR":null,"HEALTH_EN":null,"HEALTH_AR":null,"EMERGENCY":null,"REPRODUCTI":null,"MALNUTRITI":null,"VACCINATIO":null,"ACUTE_COND":null,"ORT":null,"GBV":null,"DENTIST":null,"PSYCHOTHER":null,"SECONDARY":null,"PHYSIOTHER":null}},{"type":"MultiPolygon","arcs":[[[220,-209]]],"properties":{"OBJECTID_1":160,"TYPE":"Youth Center","HEALTH_TYP":"Camp Facility","OPERATOR":"Save the Children International","IS_CONSTRU":null,"DISTRICT":7,"NAME_EN":"SCI Drop In Center 3","NAME_AR":"حماية الطفل الاردنيه","HOURS_EN":null,"HOURS_AR":null,"HEALTH_EN":null,"HEALTH_AR":null,"EMERGENCY":null,"REPRODUCTI":null,"MALNUTRITI":null,"VACCINATIO":null,"ACUTE_COND":null,"ORT":null,"GBV":null,"DENTIST":null,"PSYCHOTHER":null,"SECONDARY":null,"PHYSIOTHER":null}},{"type":"MultiPolygon","arcs":[[[-1,221,-156,222]]],"properties":{"OBJECTID_1":161,"TYPE":"Youth Center","HEALTH_TYP":"Camp Facility","OPERATOR":"Mercy Corps","IS_CONSTRU":null,"DISTRICT":1,"NAME_EN":"Mercy Corps Youth for Change","NAME_AR":"مركز الشباب ميرسي كور","HOURS_EN":null,"HOURS_AR":null,"HEALTH_EN":null,"HEALTH_AR":null,"EMERGENCY":null,"REPRODUCTI":null,"MALNUTRITI":null,"VACCINATIO":null,"ACUTE_COND":null,"ORT":null,"GBV":null,"DENTIST":null,"PSYCHOTHER":null,"SECONDARY":null,"PHYSIOTHER":null}},{"type":"MultiPolygon","arcs":[[[223,-5,-89]]],"properties":{"OBJECTID_1":162,"TYPE":"Youth Center","HEALTH_TYP":"Camp Facility","OPERATOR":"Save the Children International","IS_CONSTRU":null,"DISTRICT":3,"NAME_EN":"SCI Drop In Center 1","NAME_AR":"حماية الطفل الاردنيه","HOURS_EN":null,"HOURS_AR":null,"HEALTH_EN":null,"HEALTH_AR":null,"EMERGENCY":null,"REPRODUCTI":null,"MALNUTRITI":null,"VACCINATIO":null,"ACUTE_COND":null,"ORT":null,"GBV":null,"DENTIST":null,"PSYCHOTHER":null,"SECONDARY":null,"PHYSIOTHER":null}},{"type":"MultiPolygon","arcs":[[[224]]],"properties":{"OBJECTID_1":163,"TYPE":"Office","HEALTH_TYP":"Camp Facility","OPERATOR":null,"IS_CONSTRU":null,"DISTRICT":5,"NAME_EN":"Bail Out Office","NAME_AR":"مركز الكفالات","HOURS_EN":null,"HOURS_AR":null,"HEALTH_EN":null,"HEALTH_AR":null,"EMERGENCY":null,"REPRODUCTI":null,"MALNUTRITI":null,"VACCINATIO":null,"ACUTE_COND":null,"ORT":null,"GBV":null,"DENTIST":null,"PSYCHOTHER":null,"SECONDARY":null,"PHYSIOTHER":null}},{"type":"MultiPolygon","arcs":[[[225]]],"properties":{"OBJECTID_1":164,"TYPE":"Community Office","HEALTH_TYP":"Camp Facility","OPERATOR":null,"IS_CONSTRU":"Y","DISTRICT":5,"NAME_EN":"Relief International","NAME_AR":"الإغاثة الدولية","HOURS_EN":null,"HOURS_AR":null,"HEALTH_EN":null,"HEALTH_AR":null,"EMERGENCY":null,"REPRODUCTI":null,"MALNUTRITI":null,"VACCINATIO":null,"ACUTE_COND":null,"ORT":null,"GBV":null,"DENTIST":null,"PSYCHOTHER":null,"SECONDARY":null,"PHYSIOTHER":null}},{"type":"MultiPolygon","arcs":[[[226]]],"properties":{"OBJECTID_1":165,"TYPE":"Mosque","HEALTH_TYP":"Camp Facility","OPERATOR":null,"IS_CONSTRU":null,"DISTRICT":5,"NAME_EN":"Abd Allah Bin Moubarak  For Alshare'ah Science","NAME_AR":"عبد الله بن مبارك لعلوم الش","HOURS_EN":null,"HOURS_AR":null,"HEALTH_EN":null,"HEALTH_AR":null,"EMERGENCY":null,"REPRODUCTI":null,"MALNUTRITI":null,"VACCINATIO":null,"ACUTE_COND":null,"ORT":null,"GBV":null,"DENTIST":null,"PSYCHOTHER":null,"SECONDARY":null,"PHYSIOTHER":null}},{"type":"MultiPolygon","arcs":[[[227]]],"properties":{"OBJECTID_1":166,"TYPE":"Health","HEALTH_TYP":"Healthcare Facility","OPERATOR":null,"IS_CONSTRU":null,"DISTRICT":1,"NAME_EN":"AMR Comprehensive Medical Centre","NAME_AR":"المركز الطبي الشامل AMR","HOURS_EN":"9:00am-4:00pm (Sat-Thu)","HOURS_AR":"9:00am-4:00pm (Sat-Thu)","HEALTH_EN":"cardiology, dentist, dermatology, emergency, gastroenterologist, general surgery, gynaecologist, internal medicine, laboratory, neurologist, ophthalmologist, ORT, paediatrician, physiotherapy, radiology, vaccination","HEALTH_AR":"cardiology, dentist, dermatology, emergency, gastroenterologist, general surgery, gynaecologist, internal medicine, laboratory, neurologist, ophthalmologist, ORT, paediatrician, physiotherapy, radiology, vaccination","EMERGENCY":"Y","REPRODUCTI":"N","MALNUTRITI":"N","VACCINATIO":"Y","ACUTE_COND":"N","ORT":"Y","GBV":"N","DENTIST":"Y","PSYCHOTHER":"N","SECONDARY":"Y","PHYSIOTHER":"Y"}},{"type":"MultiPolygon","arcs":[[[228]]],"properties":{"OBJECTID_1":167,"TYPE":"Playground","HEALTH_TYP":"Camp Facility","OPERATOR":"Mercy Corps","IS_CONSTRU":null,"DISTRICT":5,"NAME_EN":"Playground","NAME_AR":"ملعب","HOURS_EN":null,"HOURS_AR":null,"HEALTH_EN":null,"HEALTH_AR":null,"EMERGENCY":null,"REPRODUCTI":null,"MALNUTRITI":null,"VACCINATIO":null,"ACUTE_COND":null,"ORT":null,"GBV":null,"DENTIST":null,"PSYCHOTHER":null,"SECONDARY":null,"PHYSIOTHER":null}},{"type":"MultiPolygon","arcs":[[[229]]],"properties":{"OBJECTID_1":168,"TYPE":"Water Facilities","HEALTH_TYP":"Camp Facility","OPERATOR":null,"IS_CONSTRU":null,"DISTRICT":7,"NAME_EN":"Water Reservoirs","NAME_AR":"خزانات المياه","HOURS_EN":null,"HOURS_AR":null,"HEALTH_EN":null,"HEALTH_AR":null,"EMERGENCY":null,"REPRODUCTI":null,"MALNUTRITI":null,"VACCINATIO":null,"ACUTE_COND":null,"ORT":null,"GBV":null,"DENTIST":null,"PSYCHOTHER":null,"SECONDARY":null,"PHYSIOTHER":null}},{"type":"MultiPolygon","arcs":[[[230]]],"properties":{"OBJECTID_1":169,"TYPE":"Office","HEALTH_TYP":"Camp Facility","OPERATOR":null,"IS_CONSTRU":null,"DISTRICT":7,"NAME_EN":"Oxfam Contractor Site","NAME_AR":"Oxfam مكاتب المقاولين","HOURS_EN":null,"HOURS_AR":null,"HEALTH_EN":null,"HEALTH_AR":null,"EMERGENCY":null,"REPRODUCTI":null,"MALNUTRITI":null,"VACCINATIO":null,"ACUTE_COND":null,"ORT":null,"GBV":null,"DENTIST":null,"PSYCHOTHER":null,"SECONDARY":null,"PHYSIOTHER":null}},{"type":"MultiPolygon","arcs":[[[231]]],"properties":{"OBJECTID_1":170,"TYPE":"Office","HEALTH_TYP":"Camp Facility","OPERATOR":null,"IS_CONSTRU":null,"DISTRICT":8,"NAME_EN":"Oxfam Contractor Site","NAME_AR":"Oxfam مكاتب المقاولين","HOURS_EN":null,"HOURS_AR":null,"HEALTH_EN":null,"HEALTH_AR":null,"EMERGENCY":null,"REPRODUCTI":null,"MALNUTRITI":null,"VACCINATIO":null,"ACUTE_COND":null,"ORT":null,"GBV":null,"DENTIST":null,"PSYCHOTHER":null,"SECONDARY":null,"PHYSIOTHER":null}},{"type":"MultiPolygon","arcs":[[[232]]],"properties":{"OBJECTID_1":171,"TYPE":"Water Facilities","HEALTH_TYP":"Camp Facility","OPERATOR":null,"IS_CONSTRU":null,"DISTRICT":8,"NAME_EN":"Water Reservoirs","NAME_AR":"خزانات المياه","HOURS_EN":null,"HOURS_AR":null,"HEALTH_EN":null,"HEALTH_AR":null,"EMERGENCY":null,"REPRODUCTI":null,"MALNUTRITI":null,"VACCINATIO":null,"ACUTE_COND":null,"ORT":null,"GBV":null,"DENTIST":null,"PSYCHOTHER":null,"SECONDARY":null,"PHYSIOTHER":null}},{"type":"MultiPolygon","arcs":[[[233]]],"properties":{"OBJECTID_1":172,"TYPE":"Water Facilities","HEALTH_TYP":"Camp Facility","OPERATOR":null,"IS_CONSTRU":null,"DISTRICT":9,"NAME_EN":"Water Reservoirs","NAME_AR":"خزانات المياه","HOURS_EN":null,"HOURS_AR":null,"HEALTH_EN":null,"HEALTH_AR":null,"EMERGENCY":null,"REPRODUCTI":null,"MALNUTRITI":null,"VACCINATIO":null,"ACUTE_COND":null,"ORT":null,"GBV":null,"DENTIST":null,"PSYCHOTHER":null,"SECONDARY":null,"PHYSIOTHER":null}},{"type":"MultiPolygon","arcs":[[[234]]],"properties":{"OBJECTID_1":173,"TYPE":"Water Facilities","HEALTH_TYP":"Camp Facility","OPERATOR":null,"IS_CONSTRU":null,"DISTRICT":5,"NAME_EN":"Water Reservoirs","NAME_AR":"خزانات المياه","HOURS_EN":null,"HOURS_AR":null,"HEALTH_EN":null,"HEALTH_AR":null,"EMERGENCY":null,"REPRODUCTI":null,"MALNUTRITI":null,"VACCINATIO":null,"ACUTE_COND":null,"ORT":null,"GBV":null,"DENTIST":null,"PSYCHOTHER":null,"SECONDARY":null,"PHYSIOTHER":null}},{"type":"MultiPolygon","arcs":[[[235]]],"properties":{"OBJECTID_1":174,"TYPE":"Water Facilities","HEALTH_TYP":"Camp Facility","OPERATOR":null,"IS_CONSTRU":null,"DISTRICT":10,"NAME_EN":"Water Reservoirs","NAME_AR":"خزانات المياه","HOURS_EN":null,"HOURS_AR":null,"HEALTH_EN":null,"HEALTH_AR":null,"EMERGENCY":null,"REPRODUCTI":null,"MALNUTRITI":null,"VACCINATIO":null,"ACUTE_COND":null,"ORT":null,"GBV":null,"DENTIST":null,"PSYCHOTHER":null,"SECONDARY":null,"PHYSIOTHER":null}},{"type":"MultiPolygon","arcs":[[[236]]],"properties":{"OBJECTID_1":175,"TYPE":"Water Facilities","HEALTH_TYP":"Camp Facility","OPERATOR":null,"IS_CONSTRU":null,"DISTRICT":11,"NAME_EN":"Water Reservoirs","NAME_AR":"خزانات المياه","HOURS_EN":null,"HOURS_AR":null,"HEALTH_EN":null,"HEALTH_AR":null,"EMERGENCY":null,"REPRODUCTI":null,"MALNUTRITI":null,"VACCINATIO":null,"ACUTE_COND":null,"ORT":null,"GBV":null,"DENTIST":null,"PSYCHOTHER":null,"SECONDARY":null,"PHYSIOTHER":null}},{"type":"MultiPolygon","arcs":[[[237]]],"properties":{"OBJECTID_1":176,"TYPE":"Water Facilities","HEALTH_TYP":"Camp Facility","OPERATOR":null,"IS_CONSTRU":null,"DISTRICT":4,"NAME_EN":"Water Reservoirs","NAME_AR":"خزانات المياه","HOURS_EN":null,"HOURS_AR":null,"HEALTH_EN":null,"HEALTH_AR":null,"EMERGENCY":null,"REPRODUCTI":null,"MALNUTRITI":null,"VACCINATIO":null,"ACUTE_COND":null,"ORT":null,"GBV":null,"DENTIST":null,"PSYCHOTHER":null,"SECONDARY":null,"PHYSIOTHER":null}},{"type":"MultiPolygon","arcs":[[[238,239]]],"properties":{"OBJECTID_1":177,"TYPE":"School","HEALTH_TYP":"Camp Facility","OPERATOR":null,"IS_CONSTRU":null,"DISTRICT":10,"NAME_EN":"School (Kuwaiti)","NAME_AR":"مدر سة الكويتيه 1","HOURS_EN":null,"HOURS_AR":null,"HEALTH_EN":null,"HEALTH_AR":null,"EMERGENCY":null,"REPRODUCTI":null,"MALNUTRITI":null,"VACCINATIO":null,"ACUTE_COND":null,"ORT":null,"GBV":null,"DENTIST":null,"PSYCHOTHER":null,"SECONDARY":null,"PHYSIOTHER":null}},{"type":"MultiPolygon","arcs":[[[-17,240]]],"properties":{"OBJECTID_1":178,"TYPE":"Registration","HEALTH_TYP":"Camp Facility","OPERATOR":"UNHCR","IS_CONSTRU":null,"DISTRICT":3,"NAME_EN":"UNHCR Service Area","NAME_AR":"مكتب خدمات المفوضية","HOURS_EN":null,"HOURS_AR":null,"HEALTH_EN":null,"HEALTH_AR":null,"EMERGENCY":null,"REPRODUCTI":null,"MALNUTRITI":null,"VACCINATIO":null,"ACUTE_COND":null,"ORT":null,"GBV":null,"DENTIST":null,"PSYCHOTHER":null,"SECONDARY":null,"PHYSIOTHER":null}},{"type":"MultiPolygon","arcs":[[[241,242,243,-72,-179]]],"properties":{"OBJECTID_1":179,"TYPE":"Security","HEALTH_TYP":"Camp Facility","OPERATOR":"UNHCR","IS_CONSTRU":null,"DISTRICT":5,"NAME_EN":"FPD","NAME_AR":"ادارة حماية الاسرة","HOURS_EN":null,"HOURS_AR":null,"HEALTH_EN":null,"HEALTH_AR":null,"EMERGENCY":null,"REPRODUCTI":null,"MALNUTRITI":null,"VACCINATIO":null,"ACUTE_COND":null,"ORT":null,"GBV":null,"DENTIST":null,"PSYCHOTHER":null,"SECONDARY":null,"PHYSIOTHER":null}},{"type":"MultiPolygon","arcs":[[[-244,244,-40,245,-73]]],"properties":{"OBJECTID_1":180,"TYPE":"Office","HEALTH_TYP":"Camp Facility with Health Services","OPERATOR":"UNHCR","IS_CONSTRU":null,"DISTRICT":3,"NAME_EN":"IRD Outreach","NAME_AR":"خدمات المخيم","HOURS_EN":"9:00am-3:00pm (Sun-Thu)","HOURS_AR":"9:00am-3:00pm (Sun-Thu)","HEALTH_EN":"malnutrition detection, outreach, vaccination","HEALTH_AR":"malnutrition detection, outreach, vaccination","EMERGENCY":"N","REPRODUCTI":"N","MALNUTRITI":"Y","VACCINATIO":"Y","ACUTE_COND":"N","ORT":"N","GBV":"N","DENTIST":"N","PSYCHOTHER":"N","SECONDARY":"N","PHYSIOTHER":"N"}},{"type":"MultiPolygon","arcs":[[[246]]],"properties":{"OBJECTID_1":181,"TYPE":"School","HEALTH_TYP":"Camp Facility","OPERATOR":null,"IS_CONSTRU":null,"DISTRICT":7,"NAME_EN":"School (Kuwaiti)","NAME_AR":"المدرسه الكويتيه","HOURS_EN":null,"HOURS_AR":null,"HEALTH_EN":null,"HEALTH_AR":null,"EMERGENCY":null,"REPRODUCTI":null,"MALNUTRITI":null,"VACCINATIO":null,"ACUTE_COND":null,"ORT":null,"GBV":null,"DENTIST":null,"PSYCHOTHER":null,"SECONDARY":null,"PHYSIOTHER":null}},{"type":"MultiPolygon","arcs":[[[247,248]]],"properties":{"OBJECTID_1":182,"TYPE":"Mosque","HEALTH_TYP":"Camp Facility","OPERATOR":null,"IS_CONSTRU":null,"DISTRICT":10,"NAME_EN":"Kuwaiti Mosque 2","NAME_AR":"مدر سة الكويتيه 2","HOURS_EN":null,"HOURS_AR":null,"HEALTH_EN":null,"HEALTH_AR":null,"EMERGENCY":null,"REPRODUCTI":null,"MALNUTRITI":null,"VACCINATIO":null,"ACUTE_COND":null,"ORT":null,"GBV":null,"DENTIST":null,"PSYCHOTHER":null,"SECONDARY":null,"PHYSIOTHER":null}},{"type":"MultiPolygon","arcs":[[[-239,249,-248,250]]],"properties":{"OBJECTID_1":183,"TYPE":"Health","HEALTH_TYP":"Healthcare Facility","OPERATOR":null,"IS_CONSTRU":null,"DISTRICT":10,"NAME_EN":"AMR Health Clinic 2","NAME_AR":"العياده الكويتيع","HOURS_EN":null,"HOURS_AR":null,"HEALTH_EN":null,"HEALTH_AR":null,"EMERGENCY":"N","REPRODUCTI":"N","MALNUTRITI":"N","VACCINATIO":"N","ACUTE_COND":"N","ORT":"N","GBV":"N","DENTIST":"N","PSYCHOTHER":"N","SECONDARY":"N","PHYSIOTHER":"N"}},{"type":"MultiPolygon","arcs":[[[-242,-178,-181,251]]],"properties":{"OBJECTID_1":184,"TYPE":"Security","HEALTH_TYP":"Camp Facility","OPERATOR":"UNHCR","IS_CONSTRU":null,"DISTRICT":5,"NAME_EN":"JPD","NAME_AR":"مفرزة احداث الزعتري","HOURS_EN":null,"HOURS_AR":null,"HEALTH_EN":null,"HEALTH_AR":null,"EMERGENCY":null,"REPRODUCTI":null,"MALNUTRITI":null,"VACCINATIO":null,"ACUTE_COND":null,"ORT":null,"GBV":null,"DENTIST":null,"PSYCHOTHER":null,"SECONDARY":null,"PHYSIOTHER":null}},{"type":"MultiPolygon","arcs":[[[252,-190]]],"properties":{"OBJECTID_1":185,"TYPE":"Community Center","HEALTH_TYP":"Camp Facility","OPERATOR":"WFP","IS_CONSTRU":null,"DISTRICT":7,"NAME_EN":"UN Women Oasis3","NAME_AR":"مركز تزويد","HOURS_EN":null,"HOURS_AR":null,"HEALTH_EN":null,"HEALTH_AR":null,"EMERGENCY":null,"REPRODUCTI":null,"MALNUTRITI":null,"VACCINATIO":null,"ACUTE_COND":null,"ORT":null,"GBV":null,"DENTIST":null,"PSYCHOTHER":null,"SECONDARY":null,"PHYSIOTHER":null}},{"type":"MultiPolygon","arcs":[[[253]]],"properties":{"OBJECTID_1":186,"TYPE":"Water Facilities","HEALTH_TYP":"Camp Facility","OPERATOR":null,"IS_CONSTRU":null,"DISTRICT":12,"NAME_EN":"WWN Contractor Site","NAME_AR":"موقع مقاولين الصرف الصحي","HOURS_EN":null,"HOURS_AR":null,"HEALTH_EN":null,"HEALTH_AR":null,"EMERGENCY":null,"REPRODUCTI":null,"MALNUTRITI":null,"VACCINATIO":null,"ACUTE_COND":null,"ORT":null,"GBV":null,"DENTIST":null,"PSYCHOTHER":null,"SECONDARY":null,"PHYSIOTHER":null}},{"type":"MultiPolygon","arcs":[[[254,255]]],"properties":{"OBJECTID_1":187,"TYPE":"Community Office","HEALTH_TYP":"Camp Facility","OPERATOR":null,"IS_CONSTRU":null,"DISTRICT":3,"NAME_EN":"Relief International","NAME_AR":"الإغاثة الدولية","HOURS_EN":null,"HOURS_AR":null,"HEALTH_EN":null,"HEALTH_AR":null,"EMERGENCY":null,"REPRODUCTI":null,"MALNUTRITI":null,"VACCINATIO":null,"ACUTE_COND":null,"ORT":null,"GBV":null,"DENTIST":null,"PSYCHOTHER":null,"SECONDARY":null,"PHYSIOTHER":null}},{"type":"MultiPolygon","arcs":[[[256]]],"properties":{"OBJECTID_1":188,"TYPE":"Community Center","HEALTH_TYP":"Camp Facility","OPERATOR":"IRD","IS_CONSTRU":null,"DISTRICT":3,"NAME_EN":"IRD - Service Unit 3","NAME_AR":"وحدة النشاط 3 -IRD","HOURS_EN":null,"HOURS_AR":null,"HEALTH_EN":null,"HEALTH_AR":null,"EMERGENCY":null,"REPRODUCTI":null,"MALNUTRITI":null,"VACCINATIO":null,"ACUTE_COND":null,"ORT":null,"GBV":null,"DENTIST":null,"PSYCHOTHER":null,"SECONDARY":null,"PHYSIOTHER":null}},{"type":"MultiPolygon","arcs":[[[257]]],"properties":{"OBJECTID_1":189,"TYPE":"Community Center","HEALTH_TYP":"Camp Facility","OPERATOR":"IRD","IS_CONSTRU":null,"DISTRICT":5,"NAME_EN":"IRD - Service Unit 5","NAME_AR":"وحدة النشاط 5 -IRD","HOURS_EN":null,"HOURS_AR":null,"HEALTH_EN":null,"HEALTH_AR":null,"EMERGENCY":null,"REPRODUCTI":null,"MALNUTRITI":null,"VACCINATIO":null,"ACUTE_COND":null,"ORT":null,"GBV":null,"DENTIST":null,"PSYCHOTHER":null,"SECONDARY":null,"PHYSIOTHER":null}},{"type":"MultiPolygon","arcs":[[[258]]],"properties":{"OBJECTID_1":190,"TYPE":"Community Center","HEALTH_TYP":"Camp Facility","OPERATOR":"IRD","IS_CONSTRU":null,"DISTRICT":4,"NAME_EN":"IRD - Service Unit 4","NAME_AR":"وحدة النشاط 4 -IRD","HOURS_EN":null,"HOURS_AR":null,"HEALTH_EN":null,"HEALTH_AR":null,"EMERGENCY":null,"REPRODUCTI":null,"MALNUTRITI":null,"VACCINATIO":null,"ACUTE_COND":null,"ORT":null,"GBV":null,"DENTIST":null,"PSYCHOTHER":null,"SECONDARY":null,"PHYSIOTHER":null}},{"type":"MultiPolygon","arcs":[[[259]]],"properties":{"OBJECTID_1":191,"TYPE":"Community Center","HEALTH_TYP":"Camp Facility","OPERATOR":"UNICEF","IS_CONSTRU":null,"DISTRICT":6,"NAME_EN":"UNICEF Centre","NAME_AR":"مركز اليونسيف","HOURS_EN":null,"HOURS_AR":null,"HEALTH_EN":null,"HEALTH_AR":null,"EMERGENCY":null,"REPRODUCTI":null,"MALNUTRITI":null,"VACCINATIO":null,"ACUTE_COND":null,"ORT":null,"GBV":null,"DENTIST":null,"PSYCHOTHER":null,"SECONDARY":null,"PHYSIOTHER":null}},{"type":"MultiPolygon","arcs":[[[260]]],"properties":{"OBJECTID_1":192,"TYPE":"Community Center","HEALTH_TYP":"Camp Facility","OPERATOR":"IRD","IS_CONSTRU":null,"DISTRICT":6,"NAME_EN":"IRD - Activity Unit 6","NAME_AR":"وحدة النشاط 6 -IRD","HOURS_EN":null,"HOURS_AR":null,"HEALTH_EN":null,"HEALTH_AR":null,"EMERGENCY":null,"REPRODUCTI":null,"MALNUTRITI":null,"VACCINATIO":null,"ACUTE_COND":null,"ORT":null,"GBV":null,"DENTIST":null,"PSYCHOTHER":null,"SECONDARY":null,"PHYSIOTHER":null}},{"type":"MultiPolygon","arcs":[[[261]]],"properties":{"OBJECTID_1":193,"TYPE":"Community Center","HEALTH_TYP":"Camp Facility","OPERATOR":"IRD","IS_CONSTRU":null,"DISTRICT":7,"NAME_EN":"IRD - Activity Unit 7","NAME_AR":"وحدة النشاط 7 -IRD","HOURS_EN":null,"HOURS_AR":null,"HEALTH_EN":null,"HEALTH_AR":null,"EMERGENCY":null,"REPRODUCTI":null,"MALNUTRITI":null,"VACCINATIO":null,"ACUTE_COND":null,"ORT":null,"GBV":null,"DENTIST":null,"PSYCHOTHER":null,"SECONDARY":null,"PHYSIOTHER":null}},{"type":"MultiPolygon","arcs":[[[262]]],"properties":{"OBJECTID_1":194,"TYPE":"Community Center","HEALTH_TYP":"Camp Facility","OPERATOR":"IRD","IS_CONSTRU":null,"DISTRICT":8,"NAME_EN":"IRD - Service Unit 8","NAME_AR":"وحدة النشاط 8 -IRD","HOURS_EN":null,"HOURS_AR":null,"HEALTH_EN":null,"HEALTH_AR":null,"EMERGENCY":null,"REPRODUCTI":null,"MALNUTRITI":null,"VACCINATIO":null,"ACUTE_COND":null,"ORT":null,"GBV":null,"DENTIST":null,"PSYCHOTHER":null,"SECONDARY":null,"PHYSIOTHER":null}},{"type":"MultiPolygon","arcs":[[[263]]],"properties":{"OBJECTID_1":195,"TYPE":"Community Center","HEALTH_TYP":"Camp Facility","OPERATOR":"IRD","IS_CONSTRU":null,"DISTRICT":9,"NAME_EN":"IRD - Activity Unit 9","NAME_AR":"وحدة النشاط 9 -IRD","HOURS_EN":null,"HOURS_AR":null,"HEALTH_EN":null,"HEALTH_AR":null,"EMERGENCY":null,"REPRODUCTI":null,"MALNUTRITI":null,"VACCINATIO":null,"ACUTE_COND":null,"ORT":null,"GBV":null,"DENTIST":null,"PSYCHOTHER":null,"SECONDARY":null,"PHYSIOTHER":null}},{"type":"MultiPolygon","arcs":[[[264]]],"properties":{"OBJECTID_1":196,"TYPE":"Vacant","HEALTH_TYP":"Camp Facility","OPERATOR":"Vacant","IS_CONSTRU":null,"DISTRICT":10,"NAME_EN":"Vacant","NAME_AR":"مساحة شاغرة","HOURS_EN":null,"HOURS_AR":null,"HEALTH_EN":null,"HEALTH_AR":null,"EMERGENCY":null,"REPRODUCTI":null,"MALNUTRITI":null,"VACCINATIO":null,"ACUTE_COND":null,"ORT":null,"GBV":null,"DENTIST":null,"PSYCHOTHER":null,"SECONDARY":null,"PHYSIOTHER":null}},{"type":"MultiPolygon","arcs":[[[265]]],"properties":{"OBJECTID_1":197,"TYPE":"Community Center","HEALTH_TYP":"Camp Facility","OPERATOR":"IRD","IS_CONSTRU":null,"DISTRICT":10,"NAME_EN":"IRD - Activity Unit 10a","NAME_AR":"وحدة النشاط 10 -IRD","HOURS_EN":null,"HOURS_AR":null,"HEALTH_EN":null,"HEALTH_AR":null,"EMERGENCY":null,"REPRODUCTI":null,"MALNUTRITI":null,"VACCINATIO":null,"ACUTE_COND":null,"ORT":null,"GBV":null,"DENTIST":null,"PSYCHOTHER":null,"SECONDARY":null,"PHYSIOTHER":null}},{"type":"MultiPolygon","arcs":[[[266]]],"properties":{"OBJECTID_1":198,"TYPE":"Community Center","HEALTH_TYP":"Camp Facility","OPERATOR":"IRD","IS_CONSTRU":null,"DISTRICT":10,"NAME_EN":"IRD - Activity Unit 10b","NAME_AR":"وحدة النشاط 10 -IRD","HOURS_EN":null,"HOURS_AR":null,"HEALTH_EN":null,"HEALTH_AR":null,"EMERGENCY":null,"REPRODUCTI":null,"MALNUTRITI":null,"VACCINATIO":null,"ACUTE_COND":null,"ORT":null,"GBV":null,"DENTIST":null,"PSYCHOTHER":null,"SECONDARY":null,"PHYSIOTHER":null}},{"type":"MultiPolygon","arcs":[[[267]]],"properties":{"OBJECTID_1":199,"TYPE":"Community Center","HEALTH_TYP":"Camp Facility","OPERATOR":"IRD","IS_CONSTRU":null,"DISTRICT":11,"NAME_EN":"IRD - Service Unit 11","NAME_AR":"وحدة النشاط 11 -IRD","HOURS_EN":null,"HOURS_AR":null,"HEALTH_EN":null,"HEALTH_AR":null,"EMERGENCY":null,"REPRODUCTI":null,"MALNUTRITI":null,"VACCINATIO":null,"ACUTE_COND":null,"ORT":null,"GBV":null,"DENTIST":null,"PSYCHOTHER":null,"SECONDARY":null,"PHYSIOTHER":null}},{"type":"MultiPolygon","arcs":[[[268]]],"properties":{"OBJECTID_1":200,"TYPE":"Community Center","HEALTH_TYP":"Camp Facility","OPERATOR":"IRD","IS_CONSTRU":null,"DISTRICT":12,"NAME_EN":"IRD - Service Unit 12","NAME_AR":"وحدة النشاط 12 -IRD","HOURS_EN":null,"HOURS_AR":null,"HEALTH_EN":null,"HEALTH_AR":null,"EMERGENCY":null,"REPRODUCTI":null,"MALNUTRITI":null,"VACCINATIO":null,"ACUTE_COND":null,"ORT":null,"GBV":null,"DENTIST":null,"PSYCHOTHER":null,"SECONDARY":null,"PHYSIOTHER":null}},{"type":"MultiPolygon","arcs":[[[269,270]]],"properties":{"OBJECTID_1":201,"TYPE":"Community Office","HEALTH_TYP":"Camp Facility","OPERATOR":null,"IS_CONSTRU":null,"DISTRICT":9,"NAME_EN":"UEFA","NAME_AR":"UEFA","HOURS_EN":null,"HOURS_AR":null,"HEALTH_EN":null,"HEALTH_AR":null,"EMERGENCY":null,"REPRODUCTI":null,"MALNUTRITI":null,"VACCINATIO":null,"ACUTE_COND":null,"ORT":null,"GBV":null,"DENTIST":null,"PSYCHOTHER":null,"SECONDARY":null,"PHYSIOTHER":null}},{"type":"MultiPolygon","arcs":[[[-270,271]]],"properties":{"OBJECTID_1":202,"TYPE":"Playground","HEALTH_TYP":"Camp Facility","OPERATOR":null,"IS_CONSTRU":"Y","DISTRICT":9,"NAME_EN":"Sport Hall","NAME_AR":"صاله رياضية","HOURS_EN":null,"HOURS_AR":null,"HEALTH_EN":null,"HEALTH_AR":null,"EMERGENCY":null,"REPRODUCTI":null,"MALNUTRITI":null,"VACCINATIO":null,"ACUTE_COND":null,"ORT":null,"GBV":null,"DENTIST":null,"PSYCHOTHER":null,"SECONDARY":null,"PHYSIOTHER":null}},{"type":"MultiPolygon","arcs":[[[272]]],"properties":{"OBJECTID_1":203,"TYPE":"Office","HEALTH_TYP":"Camp Facility","OPERATOR":null,"IS_CONSTRU":"Y","DISTRICT":8,"NAME_EN":"Relief International","NAME_AR":"الإغاثة الدولية","HOURS_EN":null,"HOURS_AR":null,"HEALTH_EN":null,"HEALTH_AR":null,"EMERGENCY":null,"REPRODUCTI":null,"MALNUTRITI":null,"VACCINATIO":null,"ACUTE_COND":null,"ORT":null,"GBV":null,"DENTIST":null,"PSYCHOTHER":null,"SECONDARY":null,"PHYSIOTHER":null}},{"type":"MultiPolygon","arcs":[[[273]]],"properties":{"OBJECTID_1":204,"TYPE":"Recycling Facilities","HEALTH_TYP":"Camp Facility","OPERATOR":"Oxfam","IS_CONSTRU":"Y","DISTRICT":11,"NAME_EN":"Oxfam Recycling Center","NAME_AR":null,"HOURS_EN":null,"HOURS_AR":null,"HEALTH_EN":null,"HEALTH_AR":null,"EMERGENCY":null,"REPRODUCTI":null,"MALNUTRITI":null,"VACCINATIO":null,"ACUTE_COND":null,"ORT":null,"GBV":null,"DENTIST":null,"PSYCHOTHER":null,"SECONDARY":null,"PHYSIOTHER":null}},{"type":"MultiPolygon","arcs":[[[274]]],"properties":{"OBJECTID_1":205,"TYPE":"Recycling Facilities","HEALTH_TYP":"Camp Facility","OPERATOR":"Oxfam","IS_CONSTRU":null,"DISTRICT":8,"NAME_EN":"Oxfam Recycling Site","NAME_AR":null,"HOURS_EN":null,"HOURS_AR":null,"HEALTH_EN":null,"HEALTH_AR":null,"EMERGENCY":null,"REPRODUCTI":null,"MALNUTRITI":null,"VACCINATIO":null,"ACUTE_COND":null,"ORT":null,"GBV":null,"DENTIST":null,"PSYCHOTHER":null,"SECONDARY":null,"PHYSIOTHER":null}},{"type":"MultiPolygon","arcs":[[[-195,275]]],"properties":{"OBJECTID_1":206,"TYPE":"Recreation","HEALTH_TYP":"Camp Facility","OPERATOR":null,"IS_CONSTRU":null,"DISTRICT":11,"NAME_EN":"Football Field","NAME_AR":null,"HOURS_EN":null,"HOURS_AR":null,"HEALTH_EN":null,"HEALTH_AR":null,"EMERGENCY":null,"REPRODUCTI":null,"MALNUTRITI":null,"VACCINATIO":null,"ACUTE_COND":null,"ORT":null,"GBV":null,"DENTIST":null,"PSYCHOTHER":null,"SECONDARY":null,"PHYSIOTHER":null}},{"type":"MultiPolygon","arcs":[[[276,-74,-246,-152]]],"properties":{"OBJECTID_1":207,"TYPE":"Office","HEALTH_TYP":"Camp Facility","OPERATOR":null,"IS_CONSTRU":null,"DISTRICT":3,"NAME_EN":"Parking Lot","NAME_AR":"موقف  سيارات","HOURS_EN":null,"HOURS_AR":null,"HEALTH_EN":null,"HEALTH_AR":null,"EMERGENCY":null,"REPRODUCTI":null,"MALNUTRITI":null,"VACCINATIO":null,"ACUTE_COND":null,"ORT":null,"GBV":null,"DENTIST":null,"PSYCHOTHER":null,"SECONDARY":null,"PHYSIOTHER":null}},{"type":"MultiPolygon","arcs":[[[277]]],"properties":{"OBJECTID_1":208,"TYPE":"Health","HEALTH_TYP":"Healthcare Facility","OPERATOR":null,"IS_CONSTRU":"Y","DISTRICT":12,"NAME_EN":"AMR Health Clinic","NAME_AR":"العياده الكويتيع","HOURS_EN":null,"HOURS_AR":null,"HEALTH_EN":null,"HEALTH_AR":null,"EMERGENCY":null,"REPRODUCTI":null,"MALNUTRITI":null,"VACCINATIO":null,"ACUTE_COND":null,"ORT":null,"GBV":null,"DENTIST":null,"PSYCHOTHER":null,"SECONDARY":null,"PHYSIOTHER":null}},{"type":"MultiPolygon","arcs":[[[278]]],"properties":{"OBJECTID_1":209,"TYPE":"Warehouse","HEALTH_TYP":"Camp Facility","OPERATOR":"JEN","IS_CONSTRU":"Y","DISTRICT":11,"NAME_EN":"JEN Warehouse","NAME_AR":"مستودع JEN","HOURS_EN":null,"HOURS_AR":null,"HEALTH_EN":null,"HEALTH_AR":null,"EMERGENCY":null,"REPRODUCTI":null,"MALNUTRITI":null,"VACCINATIO":null,"ACUTE_COND":null,"ORT":null,"GBV":null,"DENTIST":null,"PSYCHOTHER":null,"SECONDARY":null,"PHYSIOTHER":null}}]}},"arcs":[[[36.32191105545012,32.3039178877696],[36.32209042280029,32.30420844833664]],[[36.32209042280029,32.30420844833664],[36.322361564109826,32.304119490906096],[36.32212366573774,32.30382488656503],[36.32191105545012,32.3039178877696]],[[36.32198809479741,32.303412645479234],[36.32201929345627,32.30348218872347],[36.3220950252542,32.30345871259039],[36.3220681872792,32.30339063885044],[36.32198809479741,32.303412645479234]],[[36.32203649689426,32.303029942935964],[36.32285217496572,32.30276005263293],[36.32296247698863,32.30262478485454],[36.32303320189367,32.30272375728022],[36.3231311084377,32.30295010083571],[36.32311258949131,32.30295842291331]],[[36.32311258949131,32.30295842291331],[36.32319743929968,32.303164022274565]],[[36.32319743929968,32.303164022274565],[36.32348701381234,32.303059445308605],[36.32336712150805,32.302720888913164],[36.323424336623766,32.30269119037998],[36.32325521331627,32.30249849909765],[36.32318028238783,32.302524418569064],[36.32302795328008,32.30219594545097],[36.322913575251555,32.3021977535528],[36.32286490387605,32.30209302637278],[36.322523350006165,32.3022077791822],[36.322559385634946,32.30229356652759]],[[36.322559385634946,32.30229356652759],[36.32179428236019,32.302517023881805]],[[36.32179428236019,32.302517023881805],[36.32203649689426,32.303029942935964]],[[36.322559385634946,32.30229356652759],[36.32245519809699,32.30204553471839],[36.322416658569814,32.302056031392276],[36.32237038652663,32.30199614123785],[36.32170770834538,32.30224911209829],[36.32179428236019,32.302517023881805]],[[36.319882352168285,32.29946710239294],[36.32023035356572,32.2993740849513],[36.32013338302441,32.299162929685885],[36.319809993190056,32.29923542199909],[36.319882352168285,32.29946710239294]],[[36.317250291399525,32.29858639335624],[36.31723538890745,32.29835168825329],[36.31669277067508,32.298409171377955],[36.31669968661964,32.298768475524916],[36.3171606616146,32.29873111642282]],[[36.3171606616146,32.29873111642282],[36.31714643682354,32.29859468703906],[36.317250291399525,32.29858639335624]],[[36.3201721973772,32.29880372928541],[36.32116265058954,32.29850794267921],[36.320417242895466,32.29682194836568],[36.31944468826981,32.29712884666864],[36.319984643459,32.29829364635804],[36.31995535804644,32.298304524667884],[36.3201721973772,32.29880372928541]],[[36.31741793329263,32.297891794458806],[36.31782102983165,32.2978741488172],[36.317807847745804,32.29759117559203],[36.317411658447995,32.29760464349708],[36.31741793329263,32.297891794458806]],[[36.319203613266055,32.29681694273152],[36.31931725568925,32.29701923196714],[36.319591772959264,32.29692546698224],[36.31948492224119,32.29672729071639],[36.319203613266055,32.29681694273152]],[[36.319203613266055,32.29681694273152],[36.31948996960037,32.29673892184278],[36.319497173442706,32.296690524899894],[36.319380612894136,32.29643815672712],[36.319061079373405,32.29653502600899],[36.319203613266055,32.29681694273152]],[[36.3229760435374,32.30338124555839],[36.323163043916665,32.30375261226682]],[[36.323163043916665,32.30375261226682],[36.324377744628286,32.30336140342299]],[[36.324377744628286,32.30336140342299],[36.32434279004718,32.303290701689434],[36.324450285966066,32.303248612907666]],[[36.324450285966066,32.303248612907666],[36.32426822240687,32.30285828774552],[36.32389882664815,32.303002512286874],[36.32387357043549,32.302953498592515],[36.3236311587565,32.30303483364651],[36.3236053066427,32.30311689830475],[36.32363027216112,32.30316045051733],[36.3229760435374,32.30338124555839]],[[36.31957749734394,32.302113633572645],[36.319620679953324,32.302241651014015],[36.31997447724873,32.302142914717116],[36.31987729842948,32.30203483132806],[36.31957749734394,32.302113633572645]],[[36.315625195410696,32.3005277933044],[36.315839617509475,32.30048793121449],[36.31565176251389,32.300209820253755],[36.31544293394702,32.300261845226515],[36.315625195410696,32.3005277933044]],[[36.320716734512644,32.29918667015732],[36.3204774036254,32.29891649614533],[36.32020825193511,32.29902010452527],[36.320356224498916,32.29933467932744],[36.320716734512644,32.29918667015732]],[[36.32334455804929,32.302103666380866],[36.3232618725685,32.301883590046415],[36.323085673162794,32.30194376550019],[36.32315991166213,32.30215506215571],[36.32334455804929,32.302103666380866]],[[36.32292041548935,32.30037963224064],[36.32273296903434,32.299975740028025]],[[36.32273296903434,32.299975740028025],[36.32258639401811,32.3000173605566],[36.32266992341201,32.300199628325736],[36.322431657757164,32.30027811331081],[36.32255924201353,32.30051257407469],[36.32292041548935,32.30037963224064]],[[36.32292041548935,32.30037963224064],[36.32320008445873,32.30027266507688],[36.32303104726153,32.299883285618606],[36.32273296903434,32.299975740028025]],[[36.322060391958466,32.301162067269544],[36.32257842769436,32.30099047166103],[36.32241695317193,32.3006114187771],[36.321897061645075,32.30076637656432],[36.322060391958466,32.301162067269544]],[[36.32134040022826,32.296269422783105],[36.3214851000287,32.29664312071783],[36.32193647117563,32.296525337820164],[36.32177593610149,32.29614396965],[36.32134040022826,32.296269422783105]],[[36.32250731299002,32.29928225397173],[36.32241403809603,32.2990328865809],[36.32252745351941,32.298997444311695]],[[36.32252745351941,32.298997444311695],[36.322230191412935,32.29836525951143],[36.32056037061843,32.29889960730531],[36.32117416480016,32.29963685649461],[36.32250731299002,32.29928225397173]],[[36.32250731299002,32.29928225397173],[36.322692270147776,32.299238363301654],[36.32259902671774,32.298980476411515],[36.32252745351941,32.298997444311695]],[[36.320766136465174,32.304013896496684],[36.32068800236192,32.3038492678312],[36.32051388296159,32.30391545571056],[36.320382286379164,32.303662401922246],[36.32010969275685,32.30376933140725],[36.32025224018503,32.30415014990861],[36.32034532174878,32.30414494241276],[36.32055750446638,32.304083438855514],[36.320766136465174,32.304013896496684]],[[36.324377744628286,32.30336140342299],[36.325374151161995,32.3030545300129]],[[36.325374151161995,32.3030545300129],[36.32522724093459,32.30277943119856]],[[36.32522724093459,32.30277943119856],[36.32496469304474,32.30286099565803],[36.32487991240386,32.3027146675556]],[[36.32487991240386,32.3027146675556],[36.324277487725396,32.302878152443824],[36.324450285966066,32.303248612907666]],[[36.326435784772265,32.30260712458244],[36.32654571575988,32.30257081144306]],[[36.32654571575988,32.30257081144306],[36.326424233423126,32.302302509803006],[36.326037478556124,32.302455961730544],[36.32616575361299,32.30271657269587],[36.326435784772265,32.30260712458244]],[[36.328404041664534,32.301683987703115],[36.328285803511754,32.30141160039474]],[[36.328285803511754,32.30141160039474],[36.326296743757005,32.30202094186066],[36.32654571575988,32.30257081144306]],[[36.326435784772265,32.30260712458244],[36.32648380211482,32.302709003468394],[36.32847855195615,32.302061186651],[36.32832095472493,32.30171384759424]],[[36.32832095472493,32.30171384759424],[36.328404041664534,32.301683987703115]],[[36.31751432940619,32.2996773602877],[36.317724674024234,32.299671467638085],[36.31771222286557,32.299461469296496],[36.31749460540012,32.29946829385553],[36.31751432940619,32.2996773602877]],[[36.32338182237344,32.2997536401806],[36.32320288684415,32.29980884355885],[36.32324666868084,32.29991544432101],[36.323417989315956,32.29986214424668],[36.32338182237344,32.2997536401806]],[[36.321374515545536,32.303422110336406],[36.32073431603092,32.30365321300758],[36.32085189504745,32.30391934293917],[36.32203584379262,32.30351908107135],[36.32191705933803,32.30325430256025],[36.321374515545536,32.303422110336406]],[[36.31957011185606,32.295865925568314],[36.32008978608302,32.29576122977537],[36.319941307923514,32.29523774871013],[36.31942353708742,32.29534434826853],[36.31957011185606,32.295865925568314]],[[36.320163701159224,32.29563032200801],[36.320934035138634,32.2953635265626],[36.32080920290732,32.29505313274418],[36.32006404364228,32.29530289870804],[36.320163701159224,32.29563032200801]],[[36.316471082457454,32.29502332364254],[36.316696476263594,32.295017396288785],[36.316671922187865,32.29482834235786],[36.316462512720236,32.29484297485546],[36.316471082457454,32.29502332364254]],[[36.33026381722468,32.28513538627542],[36.330453568511004,32.2850659685305],[36.33028419747773,32.28468943859372],[36.33008426037782,32.28475955673414],[36.33026381722468,32.28513538627542]],[[36.32272413288005,32.28617345522592],[36.32317431124086,32.28605059471535],[36.32300894184823,32.28565700915221],[36.3225585549471,32.28578702251866],[36.32272413288005,32.28617345522592]],[[36.322048960849244,32.28636158893212],[36.32264449737304,32.28616666272344],[36.32226900933892,32.285307618888574],[36.32164886876112,32.28549779041142],[36.322048960849244,32.28636158893212]],[[36.33056986415906,32.28622973328256],[36.33091131707846,32.28610384216783],[36.33073800299229,32.285727248298514],[36.33039766835987,32.28584588669007],[36.33056986415906,32.28622973328256]],[[36.330782257296185,32.2845230842968],[36.330577225745756,32.284588458851566],[36.33075495825788,32.28497433036106],[36.33095403073099,32.28490368880734],[36.330782257296185,32.2845230842968]],[[36.31410382735475,32.295285783303],[36.31474349928529,32.29522256138162],[36.31473671915128,32.29507616403665],[36.31409038350936,32.29507405219604],[36.31410382735475,32.295285783303]],[[36.31994428830518,32.28869120602953],[36.31994796375884,32.288805432911424],[36.32007165682438,32.2890732270533],[36.3203682728162,32.288984424799054],[36.32020680793643,32.28860523985203],[36.31994428830518,32.28869120602953]],[[36.32057957685358,32.291275980504565],[36.32074644460298,32.291637877613624],[36.3209538066889,32.29157412570701],[36.32078338311567,32.2912073553228],[36.32057957685358,32.291275980504565]],[[36.3199430665254,32.28852550464798],[36.32014028090003,32.288460493218814],[36.31997213115516,32.28809010741983],[36.31976687824788,32.288145391498354],[36.3199430665254,32.28852550464798]],[[36.33531037982634,32.29618568491351],[36.33550056143796,32.296115493880485],[36.3353307418311,32.29573973683223],[36.335134808006735,32.295805393126514],[36.33531037982634,32.29618568491351]],[[36.33382543607843,32.29169476929122],[36.33403081333624,32.291636928390936],[36.333853199868955,32.29125537910252],[36.33365341181258,32.2913190817952],[36.33382543607843,32.29169476929122]],[[36.321076392278336,32.29492573434624],[36.3211296656982,32.295056505733776],[36.32129003695018,32.29501558263065]],[[36.32129003695018,32.29501558263065],[36.32123314817618,32.2948834162361]],[[36.32123314817618,32.2948834162361],[36.321076392278336,32.29492573434624]],[[36.32982833456601,32.29287445311996],[36.32943713574265,32.29205531507712]],[[36.32943713574265,32.29205531507712],[36.32844339955834,32.29237746950762],[36.32882753376408,32.29322306141198],[36.32982833456601,32.29287445311996]],[[36.323632229487494,32.29394807041433],[36.32388972074921,32.29453088096684]],[[36.32388972074921,32.29453088096684],[36.325130907842684,32.29412251249328],[36.32487110606023,32.293527700311394],[36.323632229487494,32.29394807041433]],[[36.325374151161995,32.3030545300129],[36.32602828898201,32.302829734734196],[36.3257525891004,32.302363279635344],[36.325147369302286,32.30261731825643]],[[36.325147369302286,32.30261731825643],[36.325374151161995,32.3030545300129]],[[36.32884796120637,32.3019473174354],[36.32951269776402,32.301727880306736]],[[36.32951269776402,32.301727880306736],[36.3293361530509,32.30129445041338]],[[36.3293361530509,32.30129445041338],[36.32903912223741,32.301392887882805]],[[36.32903912223741,32.301392887882805],[36.328759432892056,32.301489756756816],[36.32869961921258,32.30156208995469]],[[36.32869961921258,32.30156208995469],[36.32884796120637,32.3019473174354]],[[36.32123314817618,32.2948834162361],[36.321161131111694,32.29471021715088]],[[36.321161131111694,32.29471021715088],[36.32100733554025,32.29475923464989],[36.321076392278336,32.29492573434624]],[[36.324822905114374,32.28694707491091],[36.32502143787431,32.28687919986565],[36.324842294879076,32.28650221899115],[36.324645340185135,32.2865695907175],[36.324822905114374,32.28694707491091]],[[36.32030591125079,32.29011480767111],[36.32010472363587,32.29018163926313],[36.320270608803696,32.29054094707564],[36.32046609388046,32.29048434039856],[36.32030591125079,32.29011480767111]],[[36.33822657691469,32.29658479041731],[36.33882340883643,32.29640823567512],[36.33858792487658,32.2958795420371],[36.337987746685435,32.29606480699978],[36.33822657691469,32.29658479041731]],[[36.32982833456601,32.29287445311996],[36.3300640485533,32.29336664503021]],[[36.3300640485533,32.29336664503021],[36.3301770401827,32.293675805356884]],[[36.3301770401827,32.293675805356884],[36.33065418645128,32.29352044724649],[36.33117081459683,32.29333990882057],[36.33092348631447,32.29286425403857],[36.33039938059886,32.29173045288326],[36.32943713574265,32.29205531507712]],[[36.32559274383822,32.293303783314116],[36.32588724485612,32.293973769779235],[36.326380268522406,32.29382338777694],[36.32608492180705,32.29315515539729],[36.32559274383822,32.293303783314116]],[[36.32827019076109,32.292490801220424],[36.32707561842083,32.292876042425334],[36.32758987148393,32.294272119647694],[36.32862040057423,32.29393624683262],[36.32827019076109,32.292490801220424]],[[36.326318309887725,32.29346888204273],[36.32673351415954,32.29334289453777]],[[36.32673351415954,32.29334289453777],[36.32657200738607,32.292985507724744],[36.32616295383312,32.29312405523926],[36.326318309887725,32.29346888204273]],[[36.31842015168959,32.30282546547117],[36.31847138373999,32.302985621839966],[36.31862559912966,32.30294086216119],[36.318574787337475,32.302795294552645],[36.31842015168959,32.30282546547117]],[[36.32203649689426,32.303029942935964],[36.32226932744897,32.30346662727242],[36.32278959745333,32.303297050724495]],[[36.32278959745333,32.303297050724495],[36.32270429900537,32.30307255612311],[36.32311258949131,32.30295842291331]],[[36.31195073762616,32.294749896505195],[36.31305629686221,32.29468903409276],[36.31294235610845,32.29406710785445],[36.31203846025142,32.29412281262029],[36.31195073762616,32.294749896505195]],[[36.3253362912544,32.286332000036104],[36.3251404373203,32.286403299420826],[36.325312269887846,32.28677655054816],[36.32551221465505,32.28670644042683],[36.3253362912544,32.286332000036104]],[[36.32581744182666,32.28737083277528],[36.325622260448334,32.28744222554397],[36.325793125908,32.28781267560621],[36.325990082669904,32.28774530129541],[36.32581744182666,32.28737083277528]],[[36.32655354758323,32.29072154258556],[36.32680275941247,32.29064209675117],[36.3266310926519,32.290253560532086],[36.32638188075285,32.290333005156484],[36.32655354758323,32.29072154258556]],[[36.33111448259217,32.2870382338106],[36.33131508265538,32.28696763136366],[36.33116062397138,32.286634366651334],[36.330958579189016,32.2867010798674],[36.33111448259217,32.2870382338106]],[[36.33888330406983,32.29677650033558],[36.3375208354935,32.29721323751603],[36.33662406030683,32.29755267578978],[36.336430238121274,32.297606832976726],[36.337053557017114,32.298972306718525],[36.33940569264073,32.297923728660294],[36.33888330406983,32.29677650033558]],[[36.32138333038615,32.294843191901975],[36.32131081770871,32.29465868751053],[36.321161131111694,32.29471021715088]],[[36.32123314817618,32.2948834162361],[36.32138333038615,32.294843191901975]],[[36.33230335471643,32.28959420227525],[36.332475889831,32.28999705653061],[36.33268947380551,32.28992386093496],[36.33251626288843,32.289527811442746],[36.33230335471643,32.28959420227525]],[[36.33304765771409,32.28273202898731],[36.334427274730125,32.28227499918847],[36.33404996800339,32.281495890494874],[36.33361600262814,32.28164179843141],[36.33337047675361,32.28110696248103],[36.33244064622201,32.28144313935441],[36.33304765771409,32.28273202898731]],[[36.339527512476444,32.28921234070061],[36.33997878103625,32.289048554395606],[36.33987970384641,32.288844750026435],[36.339420544960305,32.2889988249288],[36.339527512476444,32.28921234070061]],[[36.32754784902531,32.29114546351666],[36.32733836610902,32.29121708598319],[36.32752594600989,32.2916101865538],[36.327732999364514,32.29154346005921],[36.32754784902531,32.29114546351666]],[[36.335006566959684,32.295021505662575],[36.33472922391627,32.29512012538318],[36.334797638587894,32.29526135580055],[36.33488636658296,32.29523816149439],[36.33503505615619,32.29558817325725],[36.335230250893986,32.29552084143108],[36.335006566959684,32.295021505662575]],[[36.341951364580616,32.2881644279637],[36.34187865672004,32.28799654329297],[36.34142702128735,32.288131668695335],[36.341503343622506,32.28830094807065],[36.341951364580616,32.2881644279637]],[[36.33939836691748,32.29691574392606],[36.33970111234683,32.29753890742961],[36.340201658306945,32.29737929346306],[36.33990683262971,32.29674691205406],[36.33939836691748,32.29691574392606]],[[36.34046762343914,32.29715347066714],[36.34026705096544,32.29672685639428],[36.34004020496312,32.29680062435787],[36.340239647016176,32.297222984262184],[36.34046762343914,32.29715347066714]],[[36.32549798200339,32.287902178600554],[36.32534071959625,32.28757413023716],[36.3251369883293,32.28762888649016],[36.325292199036745,32.28796662380682],[36.32549798200339,32.287902178600554]],[[36.32787553525051,32.2871472700376],[36.32840388702466,32.28692583487763],[36.32819606269308,32.28651519955169],[36.32767112939365,32.286733507020124],[36.32787553525051,32.2871472700376]],[[36.325927753958545,32.289375904960096],[36.325927650933586,32.289375689971834],[36.3259223926843,32.289377365731895],[36.325927753958545,32.289375904960096]],[[36.325927753958545,32.289375904960096],[36.32620716386105,32.28995402689483],[36.326408926027696,32.28989480262951],[36.32614190019865,32.28931758015281],[36.325927753958545,32.289375904960096]],[[36.32097482162372,32.299540026494164],[36.320894271064184,32.29942559008684],[36.32076052120693,32.29949623737256],[36.3208446869352,32.29961206984276],[36.32097482162372,32.299540026494164]],[[36.33223384627621,32.28380073523611],[36.33299474639395,32.28355014611466],[36.33279439010692,32.283115731404045],[36.33203040367725,32.28336851568196],[36.33223384627621,32.28380073523611]],[[36.33128148384262,32.285747508527216],[36.331183742105125,32.28553716621634],[36.33103193864292,32.2855845499062],[36.33114703894916,32.285817888969135],[36.33128148384262,32.285747508527216]],[[36.3300640485533,32.29336664503021],[36.32974254723246,32.29346798837549],[36.32989433774633,32.2938182830973],[36.330190905192445,32.29371227290309],[36.3301770401827,32.293675805356884]],[[36.3330234667028,32.297571453050054],[36.33294255485157,32.297408730234636],[36.332505490186435,32.297553167490555],[36.33258311598911,32.297722033010075],[36.3330234667028,32.297571453050054]],[[36.333174773936854,32.29790025064312],[36.33310174897869,32.29773501383338],[36.3326577821091,32.297884199277796],[36.33273507836319,32.29804552661075],[36.33292009380088,32.2979890889381]],[[36.33292009380088,32.2979890889381],[36.333174773936854,32.29790025064312]],[[36.33386569925992,32.29930890011028],[36.33357173311671,32.29863794974479],[36.333042901884454,32.298789225493614],[36.33333995090284,32.29942893904867],[36.33386569925992,32.29930890011028]],[[36.32388972074921,32.29453088096684],[36.32400192474626,32.29477941263138],[36.32429899821137,32.29468879710445],[36.32418915907584,32.294437473632385],[36.32388972074921,32.29453088096684]],[[36.32129003695018,32.29501558263065],[36.32143561786647,32.294971730338496],[36.32138333038615,32.294843191901975]],[[36.3220403648403,32.29479891172021],[36.32191111193694,32.29446965136915],[36.32140946284235,32.29462386574153],[36.32155856330485,32.29496285900566]],[[36.32155856330485,32.29496285900566],[36.3220403648403,32.29479891172021]],[[36.334426046320885,32.29249732554879],[36.33432993466075,32.29228799008004],[36.33418147020606,32.29233074170204],[36.334281133919184,32.29254811539],[36.334426046320885,32.29249732554879]],[[36.3413581873055,32.284351516859324],[36.34119119283982,32.28367513339729],[36.34066032634979,32.28379877751406],[36.34082396947255,32.2844463936695],[36.3413581873055,32.284351516859324]],[[36.340871467026,32.287642511993496],[36.34080092845599,32.28747835961587],[36.34035265688601,32.28760837081171],[36.34042845167837,32.28777985608047],[36.340871467026,32.287642511993496]],[[36.31579219836308,32.28971148197036],[36.315544129812885,32.28929920581507],[36.314826770262364,32.28996824150606],[36.31526737128163,32.29023511387927],[36.31579219836308,32.28971148197036]],[[36.33747522024872,32.281109654519724],[36.33785441014791,32.28112719729014],[36.33785187028154,32.28106034068284],[36.338318081536535,32.280867858645195],[36.33806904817062,32.28047133408862],[36.33748889807872,32.28071867059242],[36.33747522024872,32.281109654519724]],[[36.32322756962291,32.28488768001437],[36.32362696395217,32.2858134692164],[36.32435019640471,32.28557363072972],[36.323906239604995,32.2846535360595],[36.32322756962291,32.28488768001437]],[[36.323506113160065,32.28551447068552],[36.32319382490707,32.28561402142677]],[[36.32319382490707,32.28561402142677],[36.32336803536605,32.28601244355503],[36.32351550364249,32.285959319946365],[36.32349636512175,32.28591192472591],[36.32364514385626,32.285858449131666],[36.323506113160065,32.28551447068552]],[[36.32108248608296,32.286664956797004],[36.32194471127249,32.286390114940005],[36.32162412125709,32.28566438886503],[36.32076845620881,32.285865811608254],[36.32108248608296,32.286664956797004]],[[36.32074929629854,32.286786446145285],[36.32055070224134,32.28635045244517],[36.32037819136358,32.286407987494826],[36.320546226032455,32.28685626940231],[36.32074929629854,32.286786446145285]],[[36.33087234377445,32.294333669615305],[36.3307021119784,32.29395230849549]],[[36.3307021119784,32.29395230849549],[36.33068838759796,32.293928920664456]],[[36.33068838759796,32.293928920664456],[36.33032329274381,32.29402238818634]],[[36.33032329274381,32.29402238818634],[36.33049415404425,32.294392079551244],[36.33052077718969,32.29441307214485],[36.33064448141425,32.2944064838701],[36.33087234377445,32.294333669615305]],[[36.33137495294814,32.29371181788538],[36.3307021119784,32.29395230849549]],[[36.33087234377445,32.294333669615305],[36.331553743044836,32.29409197325468],[36.33137495294814,32.29371181788538]],[[36.3305501151521,32.293617369216],[36.33068838759796,32.293928920664456]],[[36.33137495294814,32.29371181788538],[36.3312324702817,32.29339345666596],[36.3305501151521,32.293617369216]],[[36.33521130910286,32.294724318443826],[36.33542731936339,32.294659876762566],[36.33517167740294,32.294109498196384],[36.3349616952943,32.29417186572075],[36.33521130910286,32.294724318443826]],[[36.322830200173314,32.28527355990328],[36.322584602862236,32.284756638464806],[36.32279722208904,32.28478311545858],[36.32319382490707,32.28561402142677]],[[36.323506113160065,32.28551447068552],[36.32322756962291,32.28488768001437]],[[36.32322756962291,32.28488768001437],[36.32311758999301,32.28467334745532],[36.323196157284144,32.28466180222549],[36.323105981425705,32.284287286206855],[36.32268337698925,32.28437096619909],[36.322638396912026,32.28424639574705],[36.32238403192232,32.284321274534065],[36.32233982673536,32.28422574121937],[36.321899948311284,32.284379116140556],[36.322400991446614,32.28543903837442]],[[36.322400991446614,32.28543903837442],[36.322830200173314,32.28527355990328]],[[36.32986643880531,32.301621367959925],[36.330145441861134,32.30152630083764],[36.329944934957624,32.301092158075164]],[[36.329944934957624,32.301092158075164],[36.32967045966554,32.30118503388663]],[[36.32967045966554,32.30118503388663],[36.32986643880531,32.301621367959925]],[[36.33549150331648,32.281906118738],[36.33529585363309,32.28145154810788],[36.33505372736039,32.2815528785258],[36.335237849267564,32.28197905439483],[36.33549150331648,32.281906118738]],[[36.34180631936091,32.287605239879],[36.34210697758579,32.28753227696925],[36.34196914250939,32.28710237541921],[36.34166296222709,32.28717098452391],[36.34180631936091,32.287605239879]],[[36.33827000188534,32.28193278053036],[36.33818587918193,32.281756152686604],[36.33773814213825,32.28190847436818],[36.3378283595876,32.28207705877369],[36.33827000188534,32.28193278053036]],[[36.32034962347711,32.286326847846084],[36.320828667301676,32.28616504794962],[36.32072805833953,32.28595765905607],[36.320253570619606,32.28609871314722],[36.32034962347711,32.286326847846084]],[[36.32854916270114,32.302042335696804],[36.328404041664534,32.301683987703115]],[[36.32832095472493,32.30171384759424],[36.328474407652735,32.30206507274182],[36.32854916270114,32.302042335696804]],[[36.32522724093459,32.30277943119856],[36.325147369302286,32.30261731825643]],[[36.325147369302286,32.30261731825643],[36.32487991240386,32.3027146675556]],[[36.32119764222534,32.304502771542644],[36.321208575456744,32.304242380956715]],[[36.321208575456744,32.304242380956715],[36.32131052688407,32.30398659674479],[36.32106978059817,32.30399951759709],[36.320992794810614,32.30437992542352],[36.321026495330706,32.304564827556],[36.32119764222534,32.304502771542644]],[[36.334427949332046,32.28227436329905],[36.3345780325361,32.28222541321767],[36.3345204765188,32.282098555599255],[36.334368578215944,32.282147148970054],[36.334427949332046,32.28227436329905]],[[36.32840539476274,32.29921892446888],[36.328223736592015,32.29930740033885],[36.32842287633789,32.29961687524459],[36.32860243232282,32.29952906874742],[36.32840539476274,32.29921892446888]],[[36.336332898568955,32.284441642649305],[36.336525050394094,32.28438141146182],[36.33636062289693,32.28399191922398],[36.33616847184926,32.28405214930088],[36.336332898568955,32.284441642649305]],[[36.3305501151521,32.293617369216],[36.330193412488136,32.29374000504013],[36.33032329274381,32.29402238818634]],[[36.326396644906296,32.293640067191085],[36.32654621145983,32.293960246216415],[36.32684820552428,32.29385633558911],[36.32680128366121,32.29372681816298],[36.32685466715601,32.293710088061175],[36.326813061566085,32.29349917273684]],[[36.326813061566085,32.29349917273684],[36.326396644906296,32.293640067191085]],[[36.31290011709141,32.29216693485666],[36.31320676846257,32.29237235222343],[36.31374005908698,32.29182795244864],[36.31290884904401,32.29127003477837],[36.31251028244373,32.29170526954077],[36.31301117755576,32.292044935266425],[36.31290011709141,32.29216693485666]],[[36.32047042514137,32.28688292305796],[36.32028356148157,32.286466098740874],[36.31977500373635,32.28662566992819],[36.3199847648859,32.287053009222376],[36.32047042514137,32.28688292305796]],[[36.32724472655482,32.28553172441916],[36.3275207338465,32.28543353935845],[36.327282822293974,32.28494257087706],[36.32704033040149,32.28502497573741],[36.32724472655482,32.28553172441916]],[[36.327225000990786,32.284582904922985],[36.327970155741795,32.28433728297132],[36.327544316877486,32.283385367129604],[36.32679659389805,32.28362375834161],[36.327225000990786,32.284582904922985]],[[36.32171384617729,32.30028270989706],[36.32187707192317,32.300716678101274],[36.32239524872303,32.30056229264844],[36.32222521607852,32.300129923562785],[36.32171384617729,32.30028270989706]],[[36.33446521471731,32.30000443167129],[36.33525567806268,32.299688794216685],[36.33503763107799,32.299265530933674],[36.334256836749496,32.299575607668416],[36.33446521471731,32.30000443167129]],[[36.33477847473887,32.29376102225871],[36.33502663783921,32.29368189603598],[36.33487214878788,32.29328889681921],[36.33463028954888,32.293349708604744],[36.33477847473887,32.29376102225871]],[[36.33363394229598,32.290601782322646],[36.333365808301195,32.2906872766201],[36.33358545374657,32.291159873025755],[36.33385457503314,32.29107253531537],[36.33363394229598,32.290601782322646]],[[36.336653265859006,32.28884774143376],[36.33592183461741,32.28909015210479],[36.33611999888955,32.289474959485595],[36.336825446275206,32.28924611212544],[36.336653265859006,32.28884774143376]],[[36.33569193307069,32.28172143230714],[36.33646894514199,32.28156128559737],[36.336341440700714,32.281119606584646],[36.335558958043116,32.28127486522502],[36.33569193307069,32.28172143230714]],[[36.334243949403714,32.29425545773712],[36.33427281508945,32.294246958487],[36.33434938936652,32.29442015247201],[36.334595351657796,32.29433943603417],[36.334424508471564,32.293967027802786],[36.33415281484005,32.29405263489743],[36.334243949403714,32.29425545773712]],[[36.32021457051287,32.30414228475458],[36.32007723133805,32.30378254166456],[36.31965484508518,32.30393854192916],[36.319748358690184,32.30410132573011],[36.32021457051287,32.30414228475458]],[[36.32951269776402,32.301727880306736],[36.32986643880531,32.301621367959925]],[[36.32967045966554,32.30118503388663],[36.3296391849392,32.30119561625698]],[[36.3296391849392,32.30119561625698],[36.32940130996277,32.3012728577003]],[[36.32940130996277,32.3012728577003],[36.3293361530509,32.30129445041338]],[[36.329944934957624,32.301092158075164],[36.32985586161526,32.30088923804778],[36.32954300064942,32.300993830449514]],[[36.32954300064942,32.300993830449514],[36.3296391849392,32.30119561625698]],[[36.337092936708494,32.28136127360784],[36.33692626080455,32.28083479404062],[36.336535566999586,32.28097339816693],[36.33669284130996,32.28151113790821],[36.337092936708494,32.28136127360784]],[[36.328781352525525,32.29414801770363],[36.32908211571944,32.294101047804475],[36.32897281171509,32.29367096343883],[36.328664623831244,32.29371877141376],[36.328781352525525,32.29414801770363]],[[36.3351516937223,32.2820440370885],[36.33488825493233,32.28144918041921],[36.334391914287195,32.281615246365746],[36.334666855884265,32.28220080403829],[36.3351516937223,32.2820440370885]],[[36.31294641286694,32.293948638236735],[36.31290334631841,32.29370614008411],[36.31228826944996,32.29372148482246],[36.3123279072078,32.29396740872632],[36.31294641286694,32.293948638236735]],[[36.322400991446614,32.28543903837442],[36.322528003619006,32.28575200990782],[36.32298556691958,32.28562525620509],[36.322830200173314,32.28527355990328]],[[36.322074273866214,32.287314359985366],[36.322339556897894,32.2872228427442],[36.32212188698086,32.28675726428037],[36.32184225399356,32.286843853440686],[36.322074273866214,32.287314359985366]],[[36.343364384238605,32.2898170449195],[36.34319109792511,32.28918992215843],[36.342715592595255,32.289243240371974],[36.342832107193665,32.28964185607383],[36.3427879429287,32.2896498277875],[36.342864493799574,32.289910877544735],[36.343364384238605,32.2898170449195]],[[36.343110249850675,32.29065309752142],[36.34358797680693,32.29055728975576],[36.343422272677586,32.29001551517538],[36.34293528494382,32.290118862344805],[36.343110249850675,32.29065309752142]],[[36.341077746925485,32.29626022208537],[36.34080925988864,32.296458955119796],[36.34069127983719,32.29633454867273]],[[36.34069127983719,32.29633454867273],[36.34023946037581,32.29666817155775],[36.34046762343914,32.29715347066714]],[[36.34046762343914,32.29715347066714],[36.341199656060006,32.29651896527996],[36.341077746925485,32.29626022208537]],[[36.336109780011206,32.29931240458428],[36.336845036266126,32.299004880859215],[36.33666325521777,32.298709519814665],[36.33594145924458,32.299016439499326],[36.336109780011206,32.29931240458428]],[[36.33292009380088,32.2979890889381],[36.33314212197838,32.29847112071529],[36.33340107423912,32.29837837319945],[36.333174773936854,32.29790025064312]],[[36.317294171634394,32.28812686243451],[36.31558049176282,32.288688984740496]],[[36.31558049176282,32.288688984740496],[36.31599099458668,32.28953596187463],[36.317294171634394,32.28812686243451]],[[36.33190632012488,32.283983573395716],[36.33217272374467,32.2838914930829],[36.3319423825496,32.283405498845624],[36.33168104039676,32.28349963976484],[36.33190632012488,32.283983573395716]],[[36.323632229487494,32.29394807041433],[36.323346035138194,32.29403547159166],[36.323599219346974,32.294617362629346],[36.32388972074921,32.29453088096684]],[[36.339917695913286,32.292169514064085],[36.34007114671979,32.29211293544911],[36.33997591609346,32.29191783986544],[36.33983577535323,32.291973995660676],[36.339917695913286,32.292169514064085]],[[36.33701105395412,32.28598659575758],[36.33715939838074,32.28593127779074],[36.337063100068725,32.28573755145302],[36.336910750968734,32.285793588663786],[36.33701105395412,32.28598659575758]],[[36.33585238130501,32.28904361957011],[36.33621790877781,32.288927061171314],[36.33592086506632,32.28828603582124],[36.335579441032394,32.28839490849967],[36.33585238130501,32.28904361957011]],[[36.32742339828037,32.3014600524157],[36.32840615269299,32.301158569853236],[36.32818268641412,32.30065286697316],[36.32721057303635,32.30096273122463],[36.32742339828037,32.3014600524157]],[[36.327605494907594,32.300836849709555],[36.328206988588825,32.30064512016364],[36.32802456914762,32.30023230095193],[36.32743143317211,32.30042725366435],[36.327605494907594,32.300836849709555]],[[36.3274352290244,32.30042015643227],[36.32801849364254,32.300234237196776],[36.32783910577386,32.2997969039192],[36.32724369163028,32.2999866957598],[36.3274352290244,32.30042015643227]],[[36.342474363396434,32.29727241134601],[36.34292053192183,32.297020733119005],[36.34312578360352,32.29680225610894],[36.342695790734645,32.29626426196671],[36.341996326583335,32.296652412215934],[36.342474363396434,32.29727241134601]],[[36.3171606616146,32.29873111642282],[36.317508644123805,32.29870683545688],[36.31750835354344,32.29857038858839],[36.317250291399525,32.29858639335624]],[[36.34124384506327,32.29810403066181],[36.34213441131755,32.29758361461079],[36.341721360148235,32.29705091108994],[36.34083564367741,32.29755442645576],[36.34124384506327,32.29810403066181]],[[36.33939836691748,32.29691574392606],[36.339720188984295,32.2968064287064]],[[36.339720188984295,32.2968064287064],[36.33952643985942,32.29638576251542]],[[36.33952643985942,32.29638576251542],[36.33920440445295,32.29649864359213],[36.33939836691748,32.29691574392606]],[[36.33700761357024,32.29189961858586],[36.337689759719886,32.29170655493138],[36.337331742023736,32.290945365117146],[36.33665628931312,32.29109324161237],[36.33700761357024,32.29189961858586]],[[36.338030975115984,32.280145658329396],[36.3387886064212,32.280861624146084],[36.33936971186768,32.28067128504519],[36.338601076219824,32.27990058965587],[36.338030975115984,32.280145658329396]],[[36.31264599912444,32.28836224071826],[36.31401397108447,32.287370337243715],[36.313561938884185,32.28690591224497],[36.31215036684591,32.287919010153736],[36.31264599912444,32.28836224071826]],[[36.34054125871112,32.29318873752965],[36.340419583494125,32.292913462088435],[36.34029282945625,32.29296401500697],[36.34041486761201,32.29324019181354],[36.34054125871112,32.29318873752965]],[[36.337092936708494,32.28136127360784],[36.33750286400764,32.281240025017986],[36.33747522024872,32.281109654519724]],[[36.33747522024872,32.281109654519724],[36.337484628499304,32.28084071216591],[36.33700989788364,32.280964321881314],[36.337092936708494,32.28136127360784]],[[36.341271739065306,32.296457516410456],[36.341841723564436,32.29595219960246],[36.34157640508064,32.29540626913349],[36.340957736851806,32.29581501529651],[36.341271739065306,32.296457516410456]],[[36.326813061566085,32.29349917273684],[36.32673351415954,32.29334289453777]],[[36.326318309887725,32.29346888204273],[36.326396644906296,32.293640067191085]],[[36.32155856330485,32.29496285900566],[36.32169138212364,32.29527232612796],[36.32218612419721,32.2951077621558],[36.3220403648403,32.29479891172021]],[[36.339720188984295,32.2968064287064],[36.34000454911896,32.29671575213041],[36.33980825692563,32.296295896561546],[36.33952643985942,32.29638576251542]],[[36.32191105545012,32.3039178877696],[36.32133546900467,32.30392401825503],[36.321208575456744,32.304242380956715]],[[36.32119764222534,32.304502771542644],[36.32209042280029,32.30420844833664]],[[36.32278959745333,32.303297050724495],[36.32319743929968,32.303164022274565]],[[36.33021449731161,32.301431429357784],[36.330585706971696,32.30131372011615],[36.33037854787601,32.30078454429047],[36.329970176419714,32.30089485237509],[36.33021449731161,32.301431429357784]],[[36.329674541677235,32.29360494083014],[36.32952739926549,32.29306740823762],[36.328921992765714,32.29325742110294],[36.32907103586067,32.29378302965589],[36.32919833449196,32.29375232312901],[36.329284453682156,32.293880593764484],[36.32949818705747,32.29381565875813],[36.32950429833579,32.29366336835629],[36.329674541677235,32.29360494083014]],[[36.329525164668645,32.29516668007912],[36.32957106888928,32.294852458741666],[36.32902838860733,32.2948135083957],[36.328997522236314,32.29529208975772],[36.329525164668645,32.29516668007912]],[[36.319442268794106,32.30250994075276],[36.319566500692744,32.30247544624348],[36.3195112421474,32.302289263351824],[36.319383229002405,32.302318594514865],[36.319442268794106,32.30250994075276]],[[36.327591248700905,32.29427214521278],[36.32707258154182,32.292877694052],[36.32683207555056,32.292951050529716],[36.32735587095241,32.29435711347892],[36.327591248700905,32.29427214521278]],[[36.34064555257514,32.29233355380533],[36.340562979150285,32.29215352893675],[36.340312924871064,32.29224601073361],[36.340398125345494,32.29242519842562],[36.34064555257514,32.29233355380533]],[[36.34377491403993,32.29242370243327],[36.34407761899046,32.292340406813935],[36.34395282392189,32.291992963584754],[36.343653012172574,32.29207737486603],[36.34377491403993,32.29242370243327]],[[36.33946451305765,32.28040813101052],[36.339552923022346,32.280614020919096],[36.339947003838525,32.2804942281012],[36.33987099935144,32.28028154037116],[36.33946451305765,32.28040813101052]],[[36.337860699282814,32.28666281420006],[36.33809648301824,32.28658150652773],[36.3380177380094,32.28641554842341],[36.33778570057165,32.286497189286344],[36.337860699282814,32.28666281420006]],[[36.3315016165062,32.28794670517947],[36.331728282292026,32.2878744342591],[36.33165760719336,32.287714492629696],[36.33143094179503,32.28778676254168],[36.3315016165062,32.28794670517947]],[[36.330163498727224,32.29725467302687],[36.33044742993648,32.29716415810335],[36.330358757290924,32.296974358749374],[36.33006983192338,32.29706442785248],[36.330163498727224,32.29725467302687]],[[36.3289506500933,32.289910049926654],[36.329201039647856,32.289825127266944],[36.32916743762401,32.289586183443255],[36.32937050854533,32.289516346298534],[36.32934833830491,32.28944920863894],[36.32896039988462,32.28958595497764],[36.329000859459924,32.289697883980466],[36.328901296690226,32.28973726786644],[36.3289506500933,32.289910049926654]],[[36.32415273319406,32.291945486184595],[36.32442219002051,32.291849403349275],[36.32432711778294,32.29166005690492],[36.32407170226863,32.29175121462439],[36.32415273319406,32.291945486184595]],[[36.32590895145036,32.295567807730905],[36.32644973217674,32.29538653441792],[36.3263123876271,32.29507440870532],[36.32608774331284,32.29514703655723],[36.325863837857284,32.295495573677606],[36.32590895145036,32.295567807730905]],[[36.32511703394509,32.28532554998883],[36.32470994487373,32.28462044464966]],[[36.32470994487373,32.28462044464966],[36.32414219221169,32.28482611010596],[36.324492303869455,32.285527335467236],[36.32511703394509,32.28532554998883]],[[36.3229760435374,32.30338124555839],[36.322730224926914,32.30345273374702],[36.32290866668795,32.30383673970862],[36.323163043916665,32.30375261226682]],[[36.32940130996277,32.3012728577003],[36.32930815305118,32.30106105013521]],[[36.32930815305118,32.30106105013521],[36.3289512578177,32.30119213895565]],[[36.3289512578177,32.30119213895565],[36.32903912223741,32.301392887882805]],[[36.3289512578177,32.30119213895565],[36.328285803511754,32.30141160039474]],[[36.328404041664534,32.301683987703115],[36.32869961921258,32.30156208995469]],[[36.33721467417728,32.2900018707433],[36.33701331294165,32.28944446798474],[36.33632065277909,32.289675535824216],[36.33653647205935,32.29023851800739],[36.33721467417728,32.2900018707433]],[[36.32508946877406,32.28448832509849],[36.32540466108085,32.28523162045808]],[[36.32540466108085,32.28523162045808],[36.32600091923113,32.28501164170136],[36.32566405870186,32.28428876498157],[36.32508946877406,32.28448832509849]],[[36.32511703394509,32.28532554998883],[36.32540466108085,32.28523162045808]],[[36.32508946877406,32.28448832509849],[36.32470994487373,32.28462044464966]],[[36.32954300064942,32.300993830449514],[36.32930815305118,32.30106105013521]],[[36.341077746925485,32.29626022208537],[36.34102195542937,32.29609492520735],[36.34069127983719,32.29633454867273]],[[36.3152281714118,32.29028128871291],[36.3148833998517,32.290077836020394],[36.314547575705554,32.29041349433954],[36.31489136968583,32.29061720939182],[36.3152281714118,32.29028128871291]],[[36.322060391958466,32.301162067269544],[36.32191099688799,32.300801022245025],[36.32171384617729,32.30028270989706]],[[36.32171384617729,32.30028270989706],[36.32097126316055,32.30052847676586],[36.32133497558797,32.301365299696464],[36.322060391958466,32.301162067269544]],[[36.326933106179524,32.29909674421244],[36.32705773802221,32.29904928838011],[36.3270277230889,32.298995090582125],[36.326906000081856,32.29904226356703],[36.326933106179524,32.29909674421244]],[[36.329247008007286,32.29834376324271],[36.32935847897768,32.298308228451866],[36.32934531903847,32.298267588182476],[36.32922964178579,32.298304463134414],[36.329247008007286,32.29834376324271]],[[36.32332353300673,32.2956872144714],[36.32336296825025,32.29567464535078],[36.323320940837085,32.29557951919406],[36.323277759427505,32.29559175453903],[36.32332353300673,32.2956872144714]],[[36.33341774344703,32.29444919201581],[36.33353577633908,32.294401369036],[36.3335131471451,32.294355594815094],[36.3333891966566,32.294398170949066],[36.33341774344703,32.29444919201581]],[[36.335389342747774,32.293772835827205],[36.33551608103433,32.29373371781769],[36.33549187289285,32.29368437133427],[36.33536700200999,32.29372214823089],[36.335389342747774,32.293772835827205]],[[36.34108701625522,32.29317284231744],[36.341210567670146,32.293129365431405],[36.34119181481005,32.29308694018669],[36.34106628976536,32.293125952527866],[36.34108701625522,32.29317284231744]],[[36.33579172050192,32.28593009464224],[36.3359161180411,32.28588583981941],[36.33589302713242,32.28583359003311],[36.33576665993233,32.2858815300519],[36.33579172050192,32.28593009464224]],[[36.33170531415081,32.289444893278585],[36.33182944617264,32.28939210777264],[36.33179721167389,32.289343370007316],[36.33167419265822,32.28939787875762],[36.33170531415081,32.289444893278585]],[[36.326257812289754,32.29123196241155],[36.32638044833589,32.29119592447588],[36.326354600995906,32.29114149656742],[36.326230785466755,32.29118708119224],[36.326257812289754,32.29123196241155]],[[36.32774171222028,32.290734965210746],[36.327862372743034,32.29069038527704],[36.32784303681497,32.290650694326686],[36.32772336140494,32.290693432162925],[36.32774171222028,32.290734965210746]],[[36.328233588731194,32.290578293024204],[36.32835799589475,32.29053404712231],[36.32833688284491,32.290490336633994],[36.328212675241375,32.29053910614284],[36.328233588731194,32.290578293024204]],[[36.319959864679376,32.29109638029518],[36.320128112709526,32.29104275560387],[36.32010128195292,32.29098201709532],[36.319935925748766,32.291036759087035],[36.319959864679376,32.29109638029518]],[[36.31543510204017,32.29339274593037],[36.315570831101404,32.293387703344386],[36.31556868554663,32.293338713690346],[36.31543492791977,32.29333803358258],[36.31543510204017,32.29339274593037]],[[36.32796120419813,32.28417099182121],[36.32820235761344,32.28409441248642],[36.32826895766273,32.284242920557105]],[[36.32826895766273,32.284242920557105],[36.328528793994515,32.28416812571093],[36.3282679914557,32.28358047017078],[36.32777710164416,32.283751395626076],[36.32796120419813,32.28417099182121]],[[36.32796120419813,32.28417099182121],[36.328027058651315,32.284320045087085],[36.32826895766273,32.284242920557105]],[[36.335564555301794,32.28117955084585],[36.335173231962166,32.28034818592764],[36.333990280261034,32.280752644782176],[36.33436500367296,32.28158153524186],[36.335564555301794,32.28117955084585]],[[36.31742557957411,32.287991407481414],[36.317812292486266,32.28763124812991],[36.317504053073726,32.287277644232155],[36.31711436480603,32.28754959247032],[36.31742557957411,32.287991407481414]],[[36.33946451305765,32.28040813101052],[36.34018949329914,32.280176661183866],[36.34012211496126,32.280002492963625],[36.339867154274316,32.28007158471099],[36.3398302925873,32.27994475072459],[36.33931444591785,32.280061384499334],[36.33946451305765,32.28040813101052]],[[36.317294171634394,32.28812686243451],[36.31736537201633,32.28805199214578],[36.31674443376907,32.287223294530754],[36.31533450325771,32.2881795740801],[36.31558049176282,32.288688984740496]],[[36.32854916270114,32.302042335696804],[36.32884796120637,32.3019473174354]],[[36.31314942383883,32.29243327651895],[36.31273566126355,32.292157274320765],[36.312425853310344,32.292493241421504],[36.312820013297745,32.29276749416539],[36.31314942383883,32.29243327651895]],[[36.318056486740396,32.287532730783255],[36.31859114415052,32.287359096271196],[36.31840588243839,32.286931084494206],[36.3178691476282,32.28710860674241],[36.318056486740396,32.287532730783255]]],"bbox":[36.31195073762616,32.27990058965587,36.34407761899046,32.304564827556]}
